{"type":"FeatureCollection", "features": [
  {"type":"Feature","properties":{"name":"千種区","code":"23101"},"geometry":{"type":"MultiPolygon","coordinates":[[[[136.92065,35.15904],[136.92166,35.15866],[136.92195,35.15897],[136.92301,35.1586],[136.92359,35.15791],[136.92454,35.15771],[136.92584,35.15833],[136.92746,35.15861],[136.93086,35.15804],[136.93207,35.15749],[136.93301,35.15919],[136.93385,35.15892],[136.93856,35.15456],[136.93967,35.15409],[136.94039,35.15788],[136.94126,35.15795],[136.94351,35.1575],[136.94465,35.15746],[136.94481,35.15833],[136.94629,35.15904],[136.94889,35.15846],[136.94971,35.15798],[136.95199,35.15716],[136.95279,35.15845],[136.95338,35.15817],[136.95419,35.15947],[136.95872,35.15865],[136.9621,35.15755],[136.96146,35.15607],[136.96077,35.15368],[136.96426,35.15244],[136.96573,35.15305],[136.96699,35.15279],[136.96849,35.15169],[136.96911,35.15059],[136.96968,35.14894],[136.97041,35.14782],[136.97253,35.14815],[136.97426,35.14877],[136.97565,35.14823],[136.97742,35.14894],[136.97757,35.15104],[136.97835,35.15155],[136.97963,35.15192],[136.98044,35.15275],[136.98071,35.1521],[136.98058,35.15116],[136.98081,35.14994],[136.98158,35.14921],[136.98319,35.1489],[136.98454,35.1495],[136.98576,35.14927],[136.98565,35.15002],[136.98516,35.1508],[136.98579,35.15119],[136.98576,35.15208],[136.98529,35.153],[136.98671,35.15384],[136.98743,35.15409],[136.98739,35.15468],[136.988,35.15509],[136.98841,35.15603],[136.98824,35.15683],[136.98868,35.15732],[136.9884,35.15822],[136.98865,35.15922],[136.98863,35.16068],[136.98902,35.16143],[136.98979,35.16132],[136.9903,35.16238],[136.99018,35.16442],[136.9908,35.16457],[136.99167,35.16367],[136.99214,35.16374],[136.992,35.16648],[136.99021,35.16883],[136.98942,35.16916],[136.98781,35.16883],[136.98628,35.16955],[136.98598,35.16995],[136.98499,35.17013],[136.98359,35.17238],[136.98312,35.1736],[136.98173,35.17509],[136.98026,35.17585],[136.97891,35.17561],[136.97861,35.17653],[136.97829,35.17872],[136.97787,35.17949],[136.97943,35.17967],[136.98168,35.17974],[136.98231,35.17958],[136.98437,35.17974],[136.9845,35.1818],[136.98487,35.1828],[136.98697,35.18446],[136.98717,35.18904],[136.9869,35.19073],[136.98714,35.19095],[136.98666,35.19191],[136.98518,35.19348],[136.98354,35.19257],[136.9818,35.19194],[136.97899,35.19118],[136.97703,35.19089],[136.97369,35.19024],[136.96559,35.19071],[136.96541,35.18916],[136.96489,35.18644],[136.9658,35.18581],[136.96477,35.18562],[136.95781,35.18659],[136.95503,35.18713],[136.9542,35.18388],[136.9504,35.18463],[136.94819,35.1847],[136.9454,35.18463],[136.94496,35.18305],[136.94207,35.18296],[136.94131,35.18245],[136.94054,35.17971],[136.93994,35.17997],[136.93725,35.18039],[136.9372,35.17895],[136.93674,35.17727],[136.93557,35.17542],[136.93241,35.17217],[136.93035,35.16988],[136.92926,35.16944],[136.92812,35.16849],[136.92681,35.16702],[136.92757,35.16653],[136.92184,35.16041],[136.92065,35.15904]]]]}},
  {"type":"Feature","properties":{"name":"東区","code":"23102"},"geometry":{"type":"MultiPolygon","coordinates":[[[[136.96559,35.19071],[136.9633,35.19079],[136.96145,35.19101],[136.9596,35.19147],[136.95683,35.1923],[136.9556,35.19282],[136.95308,35.19348],[136.95083,35.19429],[136.94849,35.19581],[136.94671,35.19744],[136.94415,35.1991],[136.94385,35.19944],[136.93962,35.19657],[136.93823,35.19524],[136.93744,35.19418],[136.93666,35.19276],[136.93662,35.19136],[136.93606,35.19],[136.93373,35.19001],[136.93221,35.18935],[136.93008,35.18861],[136.92713,35.18885],[136.92705,35.18799],[136.92623,35.18769],[136.9241,35.188],[136.92145,35.18804],[136.92007,35.18788],[136.91861,35.18662],[136.91693,35.18536],[136.9136,35.18602],[136.91253,35.18562],[136.91176,35.18605],[136.90962,35.18595],[136.90732,35.18609],[136.90747,35.1856],[136.90847,35.18555],[136.90867,35.18304],[136.90932,35.183],[136.90941,35.18206],[136.90896,35.18196],[136.90922,35.17993],[136.90961,35.17852],[136.90726,35.17842],[136.90759,35.17792],[136.90851,35.178],[136.90933,35.1695],[136.91078,35.16946],[136.91077,35.16985],[136.91188,35.16992],[136.91279,35.16964],[136.91488,35.16971],[136.91563,35.17011],[136.91639,35.16974],[136.91796,35.17022],[136.91883,35.17001],[136.92239,35.17025],[136.92377,35.17011],[136.92555,35.17013],[136.92689,35.17],[136.9273,35.16942],[136.92798,35.16939],[136.92915,35.16983],[136.93035,35.16988],[136.93241,35.17217],[136.93557,35.17542],[136.93674,35.17727],[136.9372,35.17895],[136.93725,35.18039],[136.93994,35.17997],[136.94054,35.17971],[136.94131,35.18245],[136.94207,35.18296],[136.94496,35.18305],[136.9454,35.18463],[136.94819,35.1847],[136.9504,35.18463],[136.9542,35.18388],[136.95503,35.18713],[136.95781,35.18659],[136.96477,35.18562],[136.9658,35.18581],[136.96489,35.18644],[136.96541,35.18916],[136.96559,35.19071]]]]}},
  {"type":"Feature","properties":{"name":"北区","code":"23103"},"geometry":{"type":"MultiPolygon","coordinates":[[[[136.94385,35.19944],[136.94214,35.20138],[136.94129,35.20257],[136.94074,35.20373],[136.93929,35.20583],[136.93833,35.20662],[136.93616,35.20743],[136.93346,35.20817],[136.93137,35.20855],[136.92719,35.20994],[136.92579,35.21052],[136.92616,35.21121],[136.92831,35.21031],[136.92858,35.21041],[136.92917,35.21189],[136.9297,35.21257],[136.92902,35.21274],[136.92788,35.21398],[136.92792,35.21464],[136.93195,35.21501],[136.93484,35.21561],[136.93659,35.21615],[136.93632,35.21702],[136.93813,35.21851],[136.93938,35.22022],[136.9399,35.22193],[136.93983,35.22425],[136.93829,35.22377],[136.9376,35.22403],[136.93552,35.22352],[136.93541,35.22416],[136.93407,35.22356],[136.9328,35.22341],[136.93169,35.22301],[136.93042,35.2231],[136.93097,35.22427],[136.93052,35.22497],[136.92932,35.22536],[136.92913,35.22467],[136.92826,35.22473],[136.92855,35.22569],[136.92779,35.22606],[136.92745,35.22683],[136.92866,35.22696],[136.92872,35.22766],[136.92812,35.22786],[136.92801,35.2286],[136.9292,35.22945],[136.92732,35.22916],[136.92627,35.22855],[136.92611,35.22927],[136.92513,35.22933],[136.92552,35.23108],[136.92648,35.23137],[136.92663,35.2324],[136.92742,35.23292],[136.92908,35.23308],[136.9295,35.23642],[136.93,35.24201],[136.92993,35.24367],[136.9286,35.2432],[136.92817,35.24335],[136.92742,35.24178],[136.92652,35.24214],[136.9268,35.24257],[136.92568,35.243],[136.92495,35.24217],[136.92489,35.24126],[136.92416,35.24074],[136.92356,35.24119],[136.92239,35.24099],[136.92147,35.24019],[136.92076,35.2393],[136.92041,35.23833],[136.91966,35.23794],[136.91892,35.23816],[136.91737,35.23732],[136.91426,35.23726],[136.91285,35.2367],[136.91197,35.23612],[136.911,35.23604],[136.91082,35.23643],[136.91111,35.23807],[136.91059,35.23915],[136.90873,35.24037],[136.90606,35.24003],[136.90453,35.23962],[136.90304,35.2404],[136.90144,35.23975],[136.90159,35.23686],[136.90099,35.2356],[136.89923,35.23479],[136.90312,35.23414],[136.90402,35.23331],[136.90466,35.22916],[136.90363,35.22764],[136.90442,35.22707],[136.90466,35.22626],[136.90537,35.22562],[136.90607,35.22446],[136.90747,35.22257],[136.90745,35.22104],[136.90612,35.22083],[136.90527,35.22046],[136.90302,35.21895],[136.90122,35.21701],[136.90048,35.21648],[136.89704,35.21497],[136.89416,35.21363],[136.89109,35.21195],[136.89246,35.2114],[136.89548,35.21063],[136.89723,35.20998],[136.89855,35.20985],[136.9005,35.20986],[136.90141,35.20959],[136.90165,35.20882],[136.90109,35.20806],[136.90086,35.20699],[136.90051,35.20297],[136.90026,35.19865],[136.90015,35.19289],[136.90059,35.19238],[136.89999,35.19183],[136.89989,35.19023],[136.89885,35.18943],[136.89904,35.18727],[136.89946,35.18666],[136.90038,35.18661],[136.90264,35.18597],[136.90437,35.18601],[136.90442,35.1854],[136.90514,35.18543],[136.90513,35.18633],[136.90652,35.18635],[136.90732,35.18609],[136.90962,35.18595],[136.91176,35.18605],[136.91253,35.18562],[136.9136,35.18602],[136.91693,35.18536],[136.91861,35.18662],[136.92007,35.18788],[136.92145,35.18804],[136.9241,35.188],[136.92623,35.18769],[136.92705,35.18799],[136.92713,35.18885],[136.93008,35.18861],[136.93221,35.18935],[136.93373,35.19001],[136.93606,35.19],[136.93662,35.19136],[136.93666,35.19276],[136.93744,35.19418],[136.93823,35.19524],[136.93962,35.19657],[136.94385,35.19944]]]]}},
  {"type":"Feature","properties":{"name":"西区","code":"23104"},"geometry":{"type":"MultiPolygon","coordinates":[[[[136.89923,35.23479],[136.89582,35.23331],[136.88627,35.22911],[136.88138,35.2273],[136.87677,35.22584],[136.87479,35.22507],[136.87417,35.22606],[136.87472,35.22644],[136.8738,35.22786],[136.87205,35.23136],[136.87097,35.23095],[136.86782,35.23064],[136.867,35.2308],[136.86025,35.23057],[136.85787,35.23056],[136.85572,35.23058],[136.8561,35.22856],[136.85595,35.22799],[136.85622,35.2244],[136.85637,35.2211],[136.85665,35.21927],[136.85757,35.21878],[136.85802,35.21723],[136.85878,35.21712],[136.85924,35.2164],[136.86036,35.21523],[136.86402,35.21527],[136.86429,35.21457],[136.86387,35.21364],[136.86464,35.21333],[136.86019,35.20797],[136.86058,35.20762],[136.8636,35.20712],[136.86377,35.20601],[136.86432,35.20589],[136.86469,35.20695],[136.86569,35.20689],[136.86614,35.20854],[136.86707,35.20906],[136.86809,35.21109],[136.86837,35.21191],[136.87037,35.21133],[136.87163,35.21117],[136.87252,35.21002],[136.87416,35.20968],[136.8749,35.2098],[136.87854,35.20934],[136.8789,35.20879],[136.87897,35.20721],[136.87928,35.20686],[136.87811,35.20604],[136.8765,35.20434],[136.87604,35.20366],[136.87538,35.20185],[136.87282,35.19869],[136.8717,35.19751],[136.87066,35.19587],[136.86984,35.194],[136.8691,35.19321],[136.86805,35.19249],[136.86593,35.19166],[136.86699,35.18941],[136.86823,35.18782],[136.8699,35.18615],[136.87253,35.18385],[136.87626,35.1802],[136.87775,35.17839],[136.87866,35.17679],[136.87974,35.17455],[136.88054,35.17213],[136.881,35.17113],[136.88193,35.17112],[136.88207,35.17181],[136.88187,35.17363],[136.88248,35.17432],[136.882,35.1752],[136.88227,35.17627],[136.88405,35.1759],[136.88469,35.17528],[136.88567,35.17517],[136.88584,35.17445],[136.88822,35.17389],[136.88823,35.17471],[136.89013,35.17463],[136.89011,35.17394],[136.89227,35.17329],[136.89235,35.17384],[136.89312,35.17379],[136.89372,35.17813],[136.89404,35.17984],[136.89489,35.18256],[136.89618,35.18274],[136.89602,35.18456],[136.89648,35.18459],[136.89622,35.18706],[136.89904,35.18727],[136.89885,35.18943],[136.89989,35.19023],[136.89999,35.19183],[136.90059,35.19238],[136.90015,35.19289],[136.90026,35.19865],[136.90051,35.20297],[136.90086,35.20699],[136.90109,35.20806],[136.90165,35.20882],[136.90141,35.20959],[136.9005,35.20986],[136.89855,35.20985],[136.89723,35.20998],[136.89548,35.21063],[136.89246,35.2114],[136.89109,35.21195],[136.89416,35.21363],[136.89704,35.21497],[136.90048,35.21648],[136.90122,35.21701],[136.90302,35.21895],[136.90527,35.22046],[136.90612,35.22083],[136.90745,35.22104],[136.90747,35.22257],[136.90607,35.22446],[136.90537,35.22562],[136.90466,35.22626],[136.90442,35.22707],[136.90363,35.22764],[136.90466,35.22916],[136.90402,35.23331],[136.90312,35.23414],[136.89923,35.23479]]]]}},
  {"type":"Feature","properties":{"name":"中村区","code":"23105"},"geometry":{"type":"MultiPolygon","coordinates":[[[[136.86593,35.19166],[136.86372,35.19091],[136.85888,35.18954],[136.8576,35.189],[136.8563,35.18817],[136.85339,35.18572],[136.84998,35.18256],[136.84798,35.18056],[136.84398,35.17659],[136.84112,35.17406],[136.83849,35.17173],[136.83552,35.16943],[136.83493,35.16848],[136.83399,35.16742],[136.83342,35.16613],[136.83331,35.16488],[136.83391,35.16458],[136.8342,35.16286],[136.83527,35.16049],[136.83658,35.1582],[136.83738,35.1564],[136.83741,35.15461],[136.83691,35.15355],[136.83637,35.15299],[136.83469,35.15218],[136.83258,35.15178],[136.83166,35.15145],[136.83011,35.15054],[136.82917,35.1495],[136.82897,35.14843],[136.82963,35.14701],[136.83158,35.14493],[136.83318,35.14537],[136.83389,35.1454],[136.83553,35.14646],[136.8357,35.14759],[136.83612,35.14821],[136.83692,35.14877],[136.83836,35.14857],[136.83909,35.14756],[136.83958,35.14549],[136.84199,35.14606],[136.84574,35.14685],[136.85056,35.14816],[136.85214,35.14867],[136.85731,35.14986],[136.85979,35.15062],[136.86149,35.15131],[136.86534,35.15318],[136.87205,35.15602],[136.87393,35.15707],[136.87927,35.15955],[136.88191,35.16007],[136.88282,35.15922],[136.88311,35.16036],[136.88557,35.161],[136.8852,35.16216],[136.88535,35.16356],[136.88599,35.16368],[136.88764,35.15717],[136.88773,35.15815],[136.88983,35.1583],[136.89298,35.15822],[136.89277,35.16037],[136.89237,35.16241],[136.89219,35.16403],[136.892,35.16715],[136.89259,35.1712],[136.89312,35.17379],[136.89235,35.17384],[136.89227,35.17329],[136.89011,35.17394],[136.89013,35.17463],[136.88823,35.17471],[136.88822,35.17389],[136.88584,35.17445],[136.88567,35.17517],[136.88469,35.17528],[136.88405,35.1759],[136.88227,35.17627],[136.882,35.1752],[136.88248,35.17432],[136.88187,35.17363],[136.88207,35.17181],[136.88193,35.17112],[136.881,35.17113],[136.88054,35.17213],[136.87974,35.17455],[136.87866,35.17679],[136.87775,35.17839],[136.87626,35.1802],[136.87253,35.18385],[136.8699,35.18615],[136.86823,35.18782],[136.86699,35.18941],[136.86593,35.19166]]]]}},
  {"type":"Feature","properties":{"name":"中区","code":"23106"},"geometry":{"type":"MultiPolygon","coordinates":[[[[136.93035,35.16988],[136.92915,35.16983],[136.92798,35.16939],[136.9273,35.16942],[136.92689,35.17],[136.92555,35.17013],[136.92377,35.17011],[136.92239,35.17025],[136.91883,35.17001],[136.91796,35.17022],[136.91639,35.16974],[136.91563,35.17011],[136.91488,35.16971],[136.91279,35.16964],[136.91188,35.16992],[136.91077,35.16985],[136.91078,35.16946],[136.90933,35.1695],[136.90851,35.178],[136.90759,35.17792],[136.90726,35.17842],[136.90961,35.17852],[136.90922,35.17993],[136.90896,35.18196],[136.90941,35.18206],[136.90932,35.183],[136.90867,35.18304],[136.90847,35.18555],[136.90747,35.1856],[136.90732,35.18609],[136.90652,35.18635],[136.90513,35.18633],[136.90514,35.18543],[136.90442,35.1854],[136.90437,35.18601],[136.90264,35.18597],[136.90038,35.18661],[136.89946,35.18666],[136.89904,35.18727],[136.89622,35.18706],[136.89648,35.18459],[136.89602,35.18456],[136.89618,35.18274],[136.89489,35.18256],[136.89404,35.17984],[136.89372,35.17813],[136.89312,35.17379],[136.89259,35.1712],[136.892,35.16715],[136.89219,35.16403],[136.89237,35.16241],[136.89277,35.16037],[136.89298,35.15822],[136.89366,35.15278],[136.89423,35.14779],[136.89455,35.1459],[136.89563,35.14277],[136.89622,35.14281],[136.90032,35.1426],[136.90185,35.14282],[136.90372,35.14254],[136.90506,35.14281],[136.90645,35.1437],[136.9078,35.14369],[136.90842,35.14329],[136.91216,35.14329],[136.91023,35.14769],[136.91396,35.15176],[136.91908,35.15723],[136.92065,35.15904],[136.92184,35.16041],[136.92757,35.16653],[136.92681,35.16702],[136.92812,35.16849],[136.92926,35.16944],[136.93035,35.16988]]]]}},
  {"type":"Feature","properties":{"name":"昭和区","code":"23107"},"geometry":{"type":"MultiPolygon","coordinates":[[[[136.92065,35.15904],[136.91908,35.15723],[136.91396,35.15176],[136.91023,35.14769],[136.91216,35.14329],[136.91468,35.13736],[136.91778,35.13749],[136.91768,35.13857],[136.91902,35.13863],[136.91908,35.13927],[136.92276,35.13948],[136.92591,35.13932],[136.9265,35.13994],[136.93295,35.1402],[136.93469,35.14045],[136.93694,35.14056],[136.93735,35.13778],[136.94403,35.13797],[136.94492,35.13853],[136.94565,35.13853],[136.94845,35.1378],[136.95035,35.13785],[136.95193,35.13814],[136.95369,35.1377],[136.9558,35.13608],[136.95658,35.13579],[136.95926,35.13557],[136.96075,35.13561],[136.96165,35.13622],[136.96373,35.13623],[136.96417,35.1365],[136.96622,35.13563],[136.96672,35.13573],[136.96737,35.1375],[136.96827,35.13872],[136.96741,35.13998],[136.96972,35.141],[136.97194,35.14157],[136.97231,35.14177],[136.97218,35.14333],[136.97278,35.14378],[136.97246,35.14497],[136.9726,35.14757],[136.97253,35.14815],[136.97041,35.14782],[136.96968,35.14894],[136.96911,35.15059],[136.96849,35.15169],[136.96699,35.15279],[136.96573,35.15305],[136.96426,35.15244],[136.96077,35.15368],[136.96146,35.15607],[136.9621,35.15755],[136.95872,35.15865],[136.95419,35.15947],[136.95338,35.15817],[136.95279,35.15845],[136.95199,35.15716],[136.94971,35.15798],[136.94889,35.15846],[136.94629,35.15904],[136.94481,35.15833],[136.94465,35.15746],[136.94351,35.1575],[136.94126,35.15795],[136.94039,35.15788],[136.93967,35.15409],[136.93856,35.15456],[136.93385,35.15892],[136.93301,35.15919],[136.93207,35.15749],[136.93086,35.15804],[136.92746,35.15861],[136.92584,35.15833],[136.92454,35.15771],[136.92359,35.15791],[136.92301,35.1586],[136.92195,35.15897],[136.92166,35.15866],[136.92065,35.15904]]]]}},
  {"type":"Feature","properties":{"name":"瑞穂区","code":"23108"},"geometry":{"type":"MultiPolygon","coordinates":[[[[136.91468,35.13736],[136.91573,35.13482],[136.91683,35.13188],[136.91705,35.13103],[136.91742,35.12764],[136.91724,35.12582],[136.91531,35.12003],[136.91399,35.11919],[136.91402,35.11816],[136.91274,35.11668],[136.91155,35.11611],[136.91144,35.11537],[136.9151,35.11501],[136.91555,35.11402],[136.91621,35.11372],[136.91645,35.11253],[136.91808,35.11165],[136.92115,35.11136],[136.92154,35.11105],[136.92153,35.10986],[136.92302,35.10918],[136.92382,35.11041],[136.92553,35.11235],[136.92649,35.11322],[136.92918,35.11474],[136.92988,35.11555],[136.93104,35.11574],[136.93338,35.11558],[136.9343,35.11584],[136.93513,35.11642],[136.9365,35.11661],[136.93834,35.11705],[136.93904,35.1175],[136.94074,35.11668],[136.94318,35.11521],[136.94696,35.1132],[136.94761,35.11299],[136.94881,35.11342],[136.94957,35.11115],[136.95009,35.11171],[136.95243,35.11259],[136.95534,35.11309],[136.9569,35.11312],[136.95874,35.11352],[136.96061,35.11431],[136.96139,35.11491],[136.96191,35.11567],[136.96219,35.11669],[136.96187,35.11992],[136.96122,35.12387],[136.96039,35.12622],[136.95992,35.12689],[136.95902,35.12944],[136.95865,35.13106],[136.95974,35.13258],[136.96018,35.13443],[136.96075,35.13561],[136.95926,35.13557],[136.95658,35.13579],[136.9558,35.13608],[136.95369,35.1377],[136.95193,35.13814],[136.95035,35.13785],[136.94845,35.1378],[136.94565,35.13853],[136.94492,35.13853],[136.94403,35.13797],[136.93735,35.13778],[136.93694,35.14056],[136.93469,35.14045],[136.93295,35.1402],[136.9265,35.13994],[136.92591,35.13932],[136.92276,35.13948],[136.91908,35.13927],[136.91902,35.13863],[136.91768,35.13857],[136.91778,35.13749],[136.91468,35.13736]]]]}},
  {"type":"Feature","properties":{"name":"熱田区","code":"23109"},"geometry":{"type":"MultiPolygon","coordinates":[[[[136.89563,35.14277],[136.8959,35.14194],[136.89712,35.13947],[136.89807,35.13814],[136.8981,35.137],[136.89354,35.13841],[136.89195,35.13904],[136.89218,35.14009],[136.88628,35.14056],[136.88531,35.13468],[136.88502,35.13214],[136.88441,35.12904],[136.88324,35.12255],[136.88256,35.11844],[136.88949,35.11845],[136.88949,35.11309],[136.89407,35.11306],[136.89429,35.11346],[136.89543,35.11378],[136.896,35.11369],[136.89803,35.11293],[136.90105,35.11196],[136.90399,35.11722],[136.90466,35.11811],[136.906,35.11796],[136.9074,35.11728],[136.90714,35.11685],[136.90817,35.11657],[136.91155,35.11611],[136.91274,35.11668],[136.91402,35.11816],[136.91399,35.11919],[136.91531,35.12003],[136.91724,35.12582],[136.91742,35.12764],[136.91705,35.13103],[136.91683,35.13188],[136.91573,35.13482],[136.91468,35.13736],[136.91216,35.14329],[136.90842,35.14329],[136.9078,35.14369],[136.90645,35.1437],[136.90506,35.14281],[136.90372,35.14254],[136.90185,35.14282],[136.90032,35.1426],[136.89622,35.14281],[136.89563,35.14277]]]]}},
  {"type":"Feature","properties":{"name":"中川区","code":"23110"},"geometry":{"type":"MultiPolygon","coordinates":[[[[136.83331,35.16488],[136.8323,35.16491],[136.83168,35.16521],[136.8313,35.16471],[136.83154,35.16405],[136.83134,35.1634],[136.83184,35.16268],[136.83148,35.1618],[136.83183,35.16131],[136.83197,35.16005],[136.83256,35.15943],[136.835,35.15845],[136.83591,35.1582],[136.83602,35.1578],[136.83408,35.15783],[136.83165,35.15806],[136.83155,35.15779],[136.83019,35.15728],[136.82767,35.1576],[136.82652,35.15802],[136.82487,35.1579],[136.81976,35.15853],[136.81718,35.15898],[136.81739,35.15964],[136.81734,35.16104],[136.81833,35.16124],[136.81812,35.16202],[136.81836,35.16464],[136.81616,35.16504],[136.81426,35.16567],[136.81445,35.16672],[136.81381,35.16746],[136.81094,35.16794],[136.80982,35.16783],[136.80846,35.1673],[136.80793,35.16754],[136.8078,35.16819],[136.80687,35.16652],[136.80572,35.16503],[136.80465,35.16554],[136.80415,35.16511],[136.80297,35.16309],[136.80176,35.1613],[136.80265,35.16092],[136.80203,35.15946],[136.80178,35.15802],[136.802,35.15675],[136.80195,35.15472],[136.80263,35.15418],[136.80941,35.15357],[136.80896,35.14761],[136.80637,35.14778],[136.80091,35.14804],[136.80064,35.14592],[136.80134,35.14584],[136.80044,35.14154],[136.80007,35.13886],[136.80002,35.13663],[136.80013,35.13248],[136.80138,35.13237],[136.80236,35.13087],[136.80217,35.13026],[136.80282,35.12926],[136.8017,35.12787],[136.80052,35.1281],[136.79742,35.12817],[136.79751,35.12629],[136.79732,35.12551],[136.79763,35.1249],[136.79735,35.12389],[136.79797,35.12364],[136.79757,35.12192],[136.79826,35.12191],[136.80127,35.12237],[136.8029,35.12191],[136.80364,35.12217],[136.80422,35.12125],[136.80412,35.12068],[136.80526,35.1206],[136.80628,35.12084],[136.80919,35.12086],[136.80953,35.12137],[136.80965,35.12258],[136.81099,35.12229],[136.81188,35.12261],[136.81294,35.1233],[136.8141,35.12351],[136.81421,35.12396],[136.81517,35.12536],[136.81572,35.12656],[136.81642,35.12706],[136.81755,35.12662],[136.81731,35.12613],[136.81789,35.12556],[136.81861,35.12551],[136.82164,35.12282],[136.82221,35.12217],[136.82189,35.12155],[136.82187,35.12049],[136.82256,35.11979],[136.82247,35.11865],[136.82574,35.11846],[136.82581,35.11886],[136.82789,35.11892],[136.8293,35.12048],[136.82988,35.12091],[136.83163,35.11982],[136.83313,35.1186],[136.83376,35.11763],[136.83489,35.10994],[136.83632,35.1099],[136.83667,35.11403],[136.83717,35.11737],[136.83891,35.11714],[136.83886,35.11657],[136.83958,35.11645],[136.84173,35.11741],[136.84362,35.11755],[136.84576,35.11849],[136.84682,35.11941],[136.85371,35.1222],[136.85765,35.12271],[136.86104,35.12278],[136.86348,35.12301],[136.86359,35.11981],[136.86378,35.11842],[136.86521,35.11822],[136.86545,35.11798],[136.8668,35.1181],[136.87205,35.1182],[136.87489,35.11842],[136.87822,35.11839],[136.88256,35.11844],[136.88324,35.12255],[136.88441,35.12904],[136.88502,35.13214],[136.88531,35.13468],[136.88628,35.14056],[136.89218,35.14009],[136.89195,35.13904],[136.89354,35.13841],[136.8981,35.137],[136.89807,35.13814],[136.89712,35.13947],[136.8959,35.14194],[136.89563,35.14277],[136.89455,35.1459],[136.89423,35.14779],[136.89366,35.15278],[136.89298,35.15822],[136.88983,35.1583],[136.88773,35.15815],[136.88764,35.15717],[136.88599,35.16368],[136.88535,35.16356],[136.8852,35.16216],[136.88557,35.161],[136.88311,35.16036],[136.88282,35.15922],[136.88191,35.16007],[136.87927,35.15955],[136.87393,35.15707],[136.87205,35.15602],[136.86534,35.15318],[136.86149,35.15131],[136.85979,35.15062],[136.85731,35.14986],[136.85214,35.14867],[136.85056,35.14816],[136.84574,35.14685],[136.84199,35.14606],[136.83958,35.14549],[136.83909,35.14756],[136.83836,35.14857],[136.83692,35.14877],[136.83612,35.14821],[136.8357,35.14759],[136.83553,35.14646],[136.83389,35.1454],[136.83318,35.14537],[136.83158,35.14493],[136.82963,35.14701],[136.82897,35.14843],[136.82917,35.1495],[136.83011,35.15054],[136.83166,35.15145],[136.83258,35.15178],[136.83469,35.15218],[136.83637,35.15299],[136.83691,35.15355],[136.83741,35.15461],[136.83738,35.1564],[136.83658,35.1582],[136.83527,35.16049],[136.8342,35.16286],[136.83391,35.16458],[136.83331,35.16488]]]]}},
  {"type":"Feature","properties":{"name":"港区","code":"23111"},"geometry":{"type":"MultiPolygon","coordinates":[[[[136.88256,35.11844],[136.87822,35.11839],[136.87489,35.11842],[136.87205,35.1182],[136.8668,35.1181],[136.86545,35.11798],[136.86521,35.11822],[136.86378,35.11842],[136.86359,35.11981],[136.86348,35.12301],[136.86104,35.12278],[136.85765,35.12271],[136.85371,35.1222],[136.84682,35.11941],[136.84576,35.11849],[136.84362,35.11755],[136.84173,35.11741],[136.83958,35.11645],[136.83886,35.11657],[136.83891,35.11714],[136.83717,35.11737],[136.83667,35.11403],[136.83632,35.1099],[136.83489,35.10994],[136.83376,35.11763],[136.83313,35.1186],[136.83163,35.11982],[136.82988,35.12091],[136.8293,35.12048],[136.82789,35.11892],[136.82581,35.11886],[136.82574,35.11846],[136.82247,35.11865],[136.82256,35.11979],[136.82187,35.12049],[136.82189,35.12155],[136.82221,35.12217],[136.82164,35.12282],[136.81861,35.12551],[136.81789,35.12556],[136.81731,35.12613],[136.81755,35.12662],[136.81642,35.12706],[136.81572,35.12656],[136.81517,35.12536],[136.81421,35.12396],[136.8141,35.12351],[136.81294,35.1233],[136.81188,35.12261],[136.81099,35.12229],[136.80965,35.12258],[136.80953,35.12137],[136.80919,35.12086],[136.80628,35.12084],[136.80526,35.1206],[136.80412,35.12068],[136.80422,35.12125],[136.80364,35.12217],[136.8029,35.12191],[136.80127,35.12237],[136.79826,35.12191],[136.79757,35.12192],[136.7942,35.12198],[136.79315,35.11922],[136.7936,35.11884],[136.79276,35.11637],[136.79285,35.11602],[136.79226,35.11469],[136.79224,35.11335],[136.79197,35.11226],[136.79276,35.11042],[136.79325,35.10962],[136.79501,35.10837],[136.79617,35.10597],[136.79745,35.10407],[136.79809,35.10185],[136.79794,35.09694],[136.8001,35.09611],[136.80328,35.09572],[136.80695,35.09487],[136.81006,35.09338],[136.8109,35.09268],[136.81305,35.09021],[136.81647,35.08696],[136.82471,35.08023],[136.82728,35.08288],[136.82753,35.08293],[136.83076,35.08209],[136.83292,35.08174],[136.83886,35.08243],[136.84725,35.08305],[136.84884,35.07893],[136.84966,35.07803],[136.84877,35.07572],[136.84858,35.07357],[136.84836,35.07251],[136.8472,35.06956],[136.84571,35.06428],[136.8426,35.05928],[136.84498,35.05951],[136.84504,35.0592],[136.84737,35.05951],[136.84729,35.05702],[136.84744,35.05666],[136.85348,35.05667],[136.85548,35.05659],[136.85551,35.05827],[136.85499,35.05858],[136.8551,35.05937],[136.85571,35.05937],[136.85806,35.05878],[136.85889,35.06222],[136.85921,35.06222],[136.85937,35.06356],[136.85995,35.06526],[136.85993,35.06832],[136.85836,35.06999],[136.85585,35.06998],[136.85586,35.06926],[136.85508,35.06926],[136.85507,35.07333],[136.85515,35.07353],[136.85514,35.07758],[136.85638,35.07818],[136.85638,35.07335],[136.85688,35.0724],[136.86009,35.07255],[136.86247,35.06978],[136.86371,35.07173],[136.86102,35.07486],[136.8621,35.07678],[136.86454,35.07395],[136.8647,35.07396],[136.86929,35.0821],[136.86671,35.08491],[136.86854,35.08821],[136.87141,35.08913],[136.87265,35.08938],[136.87343,35.08921],[136.87314,35.08853],[136.87231,35.08804],[136.87272,35.08739],[136.87389,35.08807],[136.87466,35.08987],[136.87533,35.0904],[136.87677,35.08971],[136.87884,35.08946],[136.87924,35.09175],[136.88089,35.09155],[136.88049,35.08927],[136.88482,35.08876],[136.8858,35.09104],[136.88821,35.09366],[136.89087,35.09299],[136.89202,35.09252],[136.89216,35.09178],[136.89109,35.09101],[136.89084,35.0899],[136.89034,35.08992],[136.89011,35.08628],[136.89092,35.08565],[136.8966,35.08498],[136.89642,35.08369],[136.89616,35.08358],[136.89364,35.08398],[136.89057,35.08431],[136.89046,35.08378],[136.89005,35.07796],[136.89049,35.07767],[136.89616,35.07737],[136.89608,35.07649],[136.89083,35.0768],[136.88981,35.07629],[136.8896,35.07298],[136.88972,35.07262],[136.88959,35.07034],[136.88675,35.07045],[136.88697,35.07441],[136.88521,35.07444],[136.88499,35.07052],[136.88342,35.07058],[136.88317,35.0694],[136.88396,35.06727],[136.89027,35.06714],[136.89167,35.06801],[136.89744,35.06805],[136.9016,35.06892],[136.9017,35.07124],[136.90206,35.07201],[136.90227,35.07346],[136.90364,35.07683],[136.90442,35.07708],[136.90339,35.078],[136.90407,35.08151],[136.90397,35.08204],[136.90418,35.08393],[136.90947,35.08339],[136.91069,35.08657],[136.91212,35.09068],[136.90478,35.0893],[136.90348,35.08928],[136.90221,35.09336],[136.90188,35.09401],[136.90055,35.0938],[136.90086,35.09553],[136.90071,35.09621],[136.90079,35.09778],[136.90131,35.10159],[136.90148,35.10342],[136.90107,35.10463],[136.90091,35.10697],[136.9013,35.10906],[136.90046,35.10974],[136.90154,35.11177],[136.90105,35.11196],[136.89803,35.11293],[136.896,35.11369],[136.89543,35.11378],[136.89429,35.11346],[136.89407,35.11306],[136.88949,35.11309],[136.88949,35.11845],[136.88256,35.11844]]],[[[136.87479,35.05262],[136.87611,35.05426],[136.88195,35.06935],[136.88229,35.07044],[136.88132,35.07155],[136.878,35.07168],[136.87816,35.07195],[136.87544,35.07206],[136.87543,35.07179],[136.87366,35.07186],[136.86946,35.06806],[136.8676,35.06325],[136.87018,35.06315],[136.8703,35.06301],[136.86525,35.05001],[136.87238,35.04973],[136.87479,35.05262]]],[[[136.83802,35.05173],[136.84552,35.03391],[136.84584,35.03388],[136.84663,35.03488],[136.84564,35.03725],[136.84614,35.03753],[136.84746,35.03593],[136.84815,35.0367],[136.84408,35.04162],[136.84563,35.0429],[136.84888,35.03984],[136.85024,35.0406],[136.84618,35.04553],[136.84773,35.0468],[136.85096,35.04375],[136.85203,35.04385],[136.85496,35.05531],[136.85245,35.05533],[136.8521,35.05398],[136.84869,35.05398],[136.84864,35.05605],[136.84059,35.05604],[136.83798,35.05184],[136.83802,35.05173]]]]}},
  {"type":"Feature","properties":{"name":"南区","code":"23112"},"geometry":{"type":"MultiPolygon","coordinates":[[[[136.91155,35.11611],[136.90817,35.11657],[136.90714,35.11685],[136.9074,35.11728],[136.906,35.11796],[136.90466,35.11811],[136.90399,35.11722],[136.90105,35.11196],[136.90154,35.11177],[136.90046,35.10974],[136.9013,35.10906],[136.90091,35.10697],[136.90107,35.10463],[136.90148,35.10342],[136.90131,35.10159],[136.90079,35.09778],[136.90071,35.09621],[136.90086,35.09553],[136.90055,35.0938],[136.90188,35.09401],[136.90221,35.09336],[136.90348,35.08928],[136.90478,35.0893],[136.91212,35.09068],[136.91069,35.08657],[136.90947,35.08339],[136.90418,35.08393],[136.90397,35.08204],[136.90407,35.08151],[136.90339,35.078],[136.90442,35.07708],[136.90364,35.07683],[136.90227,35.07346],[136.90206,35.07201],[136.9017,35.07124],[136.9016,35.06892],[136.90318,35.06888],[136.90579,35.06841],[136.90661,35.06877],[136.90971,35.06861],[136.91112,35.06876],[136.91564,35.06978],[136.92249,35.07026],[136.92366,35.07029],[136.92754,35.0706],[136.93111,35.07099],[136.93294,35.07169],[136.93662,35.07446],[136.93802,35.07587],[136.93989,35.07747],[136.9408,35.0788],[136.94102,35.08016],[136.94095,35.08324],[136.94102,35.08657],[136.94118,35.08854],[136.94149,35.08991],[136.94189,35.09069],[136.94294,35.09174],[136.94464,35.09319],[136.94621,35.09424],[136.94702,35.09495],[136.94773,35.09655],[136.94823,35.09942],[136.94887,35.1024],[136.94931,35.10574],[136.9493,35.1097],[136.94957,35.11115],[136.94881,35.11342],[136.94761,35.11299],[136.94696,35.1132],[136.94318,35.11521],[136.94074,35.11668],[136.93904,35.1175],[136.93834,35.11705],[136.9365,35.11661],[136.93513,35.11642],[136.9343,35.11584],[136.93338,35.11558],[136.93104,35.11574],[136.92988,35.11555],[136.92918,35.11474],[136.92649,35.11322],[136.92553,35.11235],[136.92382,35.11041],[136.92302,35.10918],[136.92153,35.10986],[136.92154,35.11105],[136.92115,35.11136],[136.91808,35.11165],[136.91645,35.11253],[136.91621,35.11372],[136.91555,35.11402],[136.9151,35.11501],[136.91144,35.11537],[136.91155,35.11611]]]]}},
  {"type":"Feature","properties":{"name":"守山区","code":"23113"},"geometry":{"type":"MultiPolygon","coordinates":[[[[136.98518,35.19348],[136.98982,35.19652],[136.99146,35.19722],[136.99284,35.19751],[136.99309,35.19706],[136.99453,35.19609],[136.99573,35.19431],[136.99704,35.19499],[136.99801,35.19527],[136.99958,35.1944],[137.00065,35.19434],[137.00158,35.19204],[137.0047,35.19239],[137.00732,35.19243],[137.00798,35.19016],[137.00939,35.19058],[137.01112,35.19071],[137.01237,35.19045],[137.0137,35.19044],[137.0168,35.19117],[137.01802,35.19112],[137.02001,35.19071],[137.02167,35.19076],[137.02316,35.19121],[137.02674,35.19102],[137.02836,35.19014],[137.02867,35.19066],[137.03001,35.19048],[137.03031,35.19095],[137.03178,35.19118],[137.03226,35.19181],[137.03136,35.192],[137.02685,35.19263],[137.02577,35.1925],[137.0255,35.19344],[137.02944,35.19462],[137.02999,35.19395],[137.0314,35.19436],[137.03006,35.19724],[137.02497,35.19574],[137.02431,35.19509],[137.02361,35.19661],[137.023,35.19735],[137.024,35.19761],[137.02512,35.19758],[137.02619,35.19859],[137.02611,35.20008],[137.02571,35.20073],[137.02587,35.20127],[137.02521,35.20173],[137.02303,35.20132],[137.02238,35.20091],[137.02147,35.19972],[137.0198,35.19848],[137.01972,35.19769],[137.02089,35.19705],[137.02327,35.19649],[137.0234,35.19574],[137.02093,35.19482],[137.02016,35.1939],[137.01903,35.19368],[137.01841,35.19393],[137.01687,35.1941],[137.01684,35.1946],[137.01362,35.19459],[137.01191,35.19499],[137.01227,35.19932],[137.01359,35.19943],[137.01444,35.19893],[137.01483,35.19999],[137.01436,35.20071],[137.0138,35.20002],[137.01327,35.20026],[137.01328,35.20104],[137.01099,35.20307],[137.01053,35.20378],[137.00972,35.20384],[137.00966,35.20608],[137.00916,35.20642],[137.00801,35.20649],[137.00725,35.20618],[137.00571,35.20608],[137.00622,35.20677],[137.00775,35.20835],[137.00893,35.2091],[137.00852,35.21012],[137.0063,35.21002],[137.00628,35.20963],[137.00417,35.2093],[137.00154,35.2093],[137.0016,35.20962],[137.00283,35.21103],[137.0037,35.21229],[137.00407,35.21238],[137.00476,35.21388],[137.00412,35.21432],[137.0049,35.21525],[137.00476,35.21639],[137.00511,35.21753],[137.00557,35.21821],[137.00674,35.21924],[137.00873,35.21988],[137.01085,35.22118],[137.01165,35.22207],[137.01325,35.22453],[137.01396,35.22503],[137.01431,35.22574],[137.01485,35.22602],[137.01595,35.22785],[137.0182,35.22972],[137.01945,35.23127],[137.02222,35.23118],[137.02407,35.23227],[137.02573,35.23422],[137.02899,35.23461],[137.03075,35.23461],[137.03125,35.23508],[137.03231,35.23553],[137.034,35.23715],[137.03454,35.23799],[137.03524,35.23815],[137.0366,35.23789],[137.03724,35.23744],[137.03844,35.23759],[137.03913,35.23812],[137.04035,35.24029],[137.04136,35.24078],[137.04378,35.24151],[137.04431,35.24088],[137.04488,35.23969],[137.04618,35.23842],[137.04934,35.23783],[137.0496,35.23857],[137.05126,35.23852],[137.0521,35.23903],[137.05177,35.23986],[137.05101,35.24055],[137.05113,35.24169],[137.05205,35.24311],[137.05318,35.24359],[137.05457,35.24365],[137.05566,35.24444],[137.0559,35.24508],[137.05667,35.246],[137.05854,35.24628],[137.05988,35.24628],[137.06087,35.24817],[137.06043,35.2494],[137.05938,35.2512],[137.05865,35.25131],[137.05758,35.25031],[137.05698,35.25014],[137.05497,35.25042],[137.05471,35.25121],[137.05407,35.25182],[137.05334,35.25338],[137.0533,35.25434],[137.05357,35.25502],[137.05303,35.25526],[137.05297,35.2561],[137.05358,35.25668],[137.05348,35.25783],[137.05254,35.25838],[137.0516,35.25936],[137.05034,35.26023],[137.04973,35.25994],[137.04772,35.25951],[137.0443,35.259],[137.04052,35.25861],[137.03697,35.25841],[137.03479,35.2586],[137.03135,35.25928],[137.02986,35.25932],[137.02915,35.259],[137.02655,35.25678],[137.02544,35.2556],[137.02386,35.25432],[137.02237,35.25338],[137.02014,35.25237],[137.01701,35.25186],[137.01452,35.25177],[137.01364,35.25162],[137.01212,35.25069],[137.01141,35.24899],[137.01077,35.24473],[137.01024,35.24377],[137.00944,35.24284],[137.00742,35.24112],[137.00665,35.24071],[137.00532,35.24041],[137.0036,35.24042],[137.00162,35.24062],[136.99704,35.24084],[136.99589,35.24075],[136.99317,35.24086],[136.99164,35.24018],[136.99056,35.23921],[136.98974,35.2379],[136.98955,35.23689],[136.98957,35.23493],[136.9902,35.2319],[136.99039,35.22986],[136.98964,35.22792],[136.98902,35.22672],[136.98828,35.22643],[136.98583,35.2261],[136.98297,35.22595],[136.98145,35.22523],[136.9787,35.22293],[136.97772,35.22194],[136.97656,35.2212],[136.97491,35.21942],[136.97364,35.21843],[136.97194,35.21764],[136.9703,35.21735],[136.9677,35.21709],[136.96651,35.21684],[136.96413,35.21679],[136.96021,35.21705],[136.95815,35.21738],[136.95623,35.21744],[136.95189,35.21702],[136.9484,35.21621],[136.94667,35.2161],[136.94469,35.21617],[136.94222,35.21643],[136.93866,35.21651],[136.93659,35.21615],[136.93484,35.21561],[136.93195,35.21501],[136.92792,35.21464],[136.92788,35.21398],[136.92902,35.21274],[136.9297,35.21257],[136.92917,35.21189],[136.92858,35.21041],[136.92831,35.21031],[136.92616,35.21121],[136.92579,35.21052],[136.92719,35.20994],[136.93137,35.20855],[136.93346,35.20817],[136.93616,35.20743],[136.93833,35.20662],[136.93929,35.20583],[136.94074,35.20373],[136.94129,35.20257],[136.94214,35.20138],[136.94385,35.19944],[136.94415,35.1991],[136.94671,35.19744],[136.94849,35.19581],[136.95083,35.19429],[136.95308,35.19348],[136.9556,35.19282],[136.95683,35.1923],[136.9596,35.19147],[136.96145,35.19101],[136.9633,35.19079],[136.96559,35.19071],[136.97369,35.19024],[136.97703,35.19089],[136.97899,35.19118],[136.9818,35.19194],[136.98354,35.19257],[136.98518,35.19348]]]]}},
  {"type":"Feature","properties":{"name":"緑区","code":"23114"},"geometry":{"type":"MultiPolygon","coordinates":[[[[136.90579,35.06841],[136.90657,35.0682],[136.91044,35.06803],[136.91305,35.06848],[136.91321,35.0682],[136.91626,35.0612],[136.91792,35.06186],[136.91777,35.06292],[136.91984,35.06352],[136.92025,35.06257],[136.92071,35.06268],[136.9201,35.06396],[136.92175,35.06441],[136.92206,35.06365],[136.92304,35.06374],[136.92442,35.06442],[136.9252,35.06315],[136.9246,35.06286],[136.92508,35.06208],[136.92453,35.06179],[136.92346,35.06174],[136.92204,35.06116],[136.92265,35.06013],[136.92365,35.05986],[136.92467,35.0591],[136.92454,35.05859],[136.92576,35.0586],[136.92608,35.05805],[136.92759,35.05665],[136.92846,35.05528],[136.9284,35.05488],[136.92953,35.05353],[136.92939,35.05304],[136.92867,35.05244],[136.92874,35.05189],[136.93038,35.05169],[136.93127,35.05074],[136.93128,35.05001],[136.93314,35.04986],[136.93358,35.04871],[136.9341,35.04971],[136.93492,35.04983],[136.93465,35.05071],[136.93569,35.0517],[136.93662,35.0532],[136.93765,35.05286],[136.93801,35.05338],[136.93935,35.05329],[136.94112,35.05216],[136.94123,35.05128],[136.94196,35.05004],[136.94194,35.04899],[136.94323,35.04795],[136.94362,35.04625],[136.94464,35.0456],[136.94634,35.04419],[136.9483,35.04422],[136.9501,35.04453],[136.9532,35.04477],[136.95317,35.0457],[136.95393,35.04579],[136.95522,35.04695],[136.95577,35.04788],[136.95715,35.0475],[136.95845,35.04641],[136.95891,35.04627],[136.95879,35.04489],[136.95921,35.044],[136.95995,35.04315],[136.96105,35.04262],[136.96085,35.04198],[136.96164,35.04098],[136.96137,35.04056],[136.95972,35.03994],[136.9598,35.03927],[136.9607,35.03977],[136.96189,35.03956],[136.96353,35.04115],[136.96485,35.04293],[136.96536,35.04304],[136.96796,35.04274],[136.9684,35.04301],[136.97016,35.04279],[136.97225,35.04306],[136.97257,35.04488],[136.97293,35.0456],[136.97381,35.04653],[136.97435,35.04738],[136.97388,35.04901],[136.97498,35.04949],[136.97528,35.05043],[136.97483,35.05192],[136.97337,35.05208],[136.97257,35.0528],[136.9725,35.05339],[136.97341,35.05388],[136.97281,35.05439],[136.97319,35.05514],[136.97285,35.05617],[136.9724,35.05643],[136.9732,35.05816],[136.97453,35.06012],[136.97589,35.06152],[136.97572,35.06191],[136.97485,35.06234],[136.97466,35.06308],[136.97604,35.06234],[136.97849,35.06145],[136.98021,35.06146],[136.98103,35.06114],[136.98427,35.06128],[136.9853,35.06052],[136.98586,35.06096],[136.98517,35.06198],[136.98573,35.06586],[136.9857,35.06632],[136.98655,35.06654],[136.98743,35.06762],[136.98717,35.06874],[136.98756,35.06951],[136.98745,35.07095],[136.98766,35.07255],[136.98836,35.07368],[136.9895,35.07314],[136.99015,35.0726],[136.99149,35.07292],[136.99472,35.07182],[136.99618,35.07211],[136.99675,35.07289],[136.9973,35.07296],[136.99812,35.07415],[136.99871,35.07431],[136.99908,35.0729],[136.99991,35.07311],[137.0016,35.07243],[137.00268,35.07218],[137.00474,35.07201],[137.00589,35.0725],[137.00711,35.07348],[137.00756,35.07445],[137.00867,35.07458],[137.00956,35.07532],[137.01007,35.07678],[137.01085,35.07813],[137.01118,35.07973],[137.01004,35.08026],[137.00975,35.08065],[137.01047,35.0812],[137.0117,35.08109],[137.01167,35.08192],[137.01267,35.08169],[137.0131,35.0819],[137.01327,35.08387],[137.01215,35.08448],[137.0121,35.08514],[137.01302,35.0852],[137.0138,35.08603],[137.01466,35.08658],[137.01504,35.08734],[137.0157,35.08747],[137.01562,35.08809],[137.01634,35.08996],[137.01683,35.09024],[137.01748,35.0921],[137.01641,35.09421],[137.01744,35.09436],[137.01884,35.0956],[137.01881,35.09474],[137.02003,35.095],[137.02075,35.09398],[137.02101,35.09323],[137.02087,35.09114],[137.02148,35.09122],[137.02152,35.09314],[137.02059,35.09485],[137.02063,35.09557],[137.02001,35.0961],[137.02155,35.09726],[137.02265,35.09887],[137.02291,35.09996],[137.02251,35.10099],[137.02339,35.10202],[137.02344,35.10273],[137.02219,35.10466],[137.02229,35.10599],[137.02111,35.1098],[137.01997,35.10957],[137.01878,35.10957],[137.01814,35.10934],[137.0178,35.10835],[137.0167,35.10917],[137.01505,35.10781],[137.0139,35.10744],[137.01286,35.10743],[137.01135,35.10659],[137.00948,35.10581],[137.00854,35.10495],[137.00547,35.1038],[137.00462,35.10293],[137.00347,35.10249],[137.003,35.10195],[137.00184,35.10135],[137.00066,35.10132],[137.00045,35.10292],[136.99946,35.10318],[136.99907,35.10445],[136.99849,35.10521],[136.99762,35.10571],[136.99675,35.10553],[136.99624,35.10612],[136.9957,35.10617],[136.9937,35.10575],[136.9922,35.10655],[136.99265,35.10702],[136.99144,35.10795],[136.99071,35.10912],[136.98999,35.10886],[136.98934,35.10819],[136.98853,35.1081],[136.98707,35.10627],[136.98595,35.10598],[136.98436,35.10436],[136.98222,35.10381],[136.97802,35.1036],[136.97814,35.10263],[136.97393,35.10274],[136.9739,35.10216],[136.9718,35.10224],[136.96997,35.10244],[136.96717,35.10228],[136.96513,35.10198],[136.96535,35.10143],[136.96407,35.10152],[136.96034,35.10111],[136.95697,35.10068],[136.95482,35.10176],[136.95309,35.10215],[136.9521,35.10212],[136.95111,35.10168],[136.94914,35.10037],[136.94823,35.09942],[136.94773,35.09655],[136.94702,35.09495],[136.94621,35.09424],[136.94464,35.09319],[136.94294,35.09174],[136.94189,35.09069],[136.94149,35.08991],[136.94118,35.08854],[136.94102,35.08657],[136.94095,35.08324],[136.94102,35.08016],[136.9408,35.0788],[136.93989,35.07747],[136.93802,35.07587],[136.93662,35.07446],[136.93294,35.07169],[136.93111,35.07099],[136.92754,35.0706],[136.92366,35.07029],[136.92249,35.07026],[136.91564,35.06978],[136.91112,35.06876],[136.90971,35.06861],[136.90661,35.06877],[136.90579,35.06841]]]]}},
  {"type":"Feature","properties":{"name":"名東区","code":"23115"},"geometry":{"type":"MultiPolygon","coordinates":[[[[136.98576,35.14927],[136.98708,35.14826],[136.98827,35.14817],[136.98911,35.14738],[136.99042,35.14771],[136.99218,35.1464],[136.9927,35.14584],[136.99417,35.14496],[136.99674,35.14496],[136.99675,35.14536],[136.99862,35.14534],[136.99874,35.14567],[137.00054,35.14532],[137.00067,35.14341],[137.00161,35.14197],[137.00255,35.14106],[137.00403,35.14024],[137.00527,35.13991],[137.00605,35.13921],[137.0054,35.13842],[137.00702,35.13831],[137.00763,35.13803],[137.01001,35.13902],[137.00999,35.13684],[137.01269,35.13812],[137.01362,35.13824],[137.01572,35.13753],[137.0165,35.13852],[137.0165,35.13909],[137.0174,35.13912],[137.01732,35.1384],[137.01647,35.13805],[137.01614,35.13739],[137.01696,35.13643],[137.01795,35.13639],[137.01807,35.13733],[137.0196,35.13845],[137.02328,35.13982],[137.02304,35.14137],[137.02224,35.14289],[137.02142,35.14356],[137.02044,35.14356],[137.02115,35.14449],[137.02144,35.14524],[137.02081,35.14576],[137.02079,35.14625],[137.01843,35.14705],[137.01858,35.14777],[137.01951,35.1484],[137.0204,35.1484],[137.02135,35.14952],[137.02161,35.15035],[137.02216,35.15108],[137.02206,35.15325],[137.02333,35.15422],[137.02545,35.15468],[137.02702,35.15617],[137.02571,35.15731],[137.0251,35.15808],[137.0251,35.15904],[137.02473,35.16038],[137.02437,35.16072],[137.02398,35.1621],[137.02419,35.16266],[137.02304,35.16274],[137.02288,35.1632],[137.02474,35.16502],[137.02497,35.16551],[137.02642,35.16689],[137.02746,35.16873],[137.02748,35.16931],[137.0267,35.16995],[137.02552,35.1703],[137.02549,35.17117],[137.0248,35.1719],[137.02525,35.1727],[137.02438,35.17308],[137.02402,35.17382],[137.02338,35.17353],[137.02249,35.17365],[137.02209,35.17409],[137.02275,35.17522],[137.02604,35.17531],[137.02633,35.17612],[137.02612,35.17691],[137.02646,35.17761],[137.02651,35.17878],[137.02684,35.1794],[137.02616,35.18096],[137.02561,35.18164],[137.0256,35.18256],[137.02622,35.18336],[137.0258,35.18512],[137.02475,35.18607],[137.02289,35.18684],[137.02081,35.18726],[137.01837,35.18796],[137.01792,35.18831],[137.02001,35.19071],[137.01802,35.19112],[137.0168,35.19117],[137.0137,35.19044],[137.01237,35.19045],[137.01112,35.19071],[137.00939,35.19058],[137.00798,35.19016],[137.00732,35.19243],[137.0047,35.19239],[137.00158,35.19204],[137.00065,35.19434],[136.99958,35.1944],[136.99801,35.19527],[136.99704,35.19499],[136.99573,35.19431],[136.99453,35.19609],[136.99309,35.19706],[136.99284,35.19751],[136.99146,35.19722],[136.98982,35.19652],[136.98518,35.19348],[136.98666,35.19191],[136.98714,35.19095],[136.9869,35.19073],[136.98717,35.18904],[136.98697,35.18446],[136.98487,35.1828],[136.9845,35.1818],[136.98437,35.17974],[136.98231,35.17958],[136.98168,35.17974],[136.97943,35.17967],[136.97787,35.17949],[136.97829,35.17872],[136.97861,35.17653],[136.97891,35.17561],[136.98026,35.17585],[136.98173,35.17509],[136.98312,35.1736],[136.98359,35.17238],[136.98499,35.17013],[136.98598,35.16995],[136.98628,35.16955],[136.98781,35.16883],[136.98942,35.16916],[136.99021,35.16883],[136.992,35.16648],[136.99214,35.16374],[136.99167,35.16367],[136.9908,35.16457],[136.99018,35.16442],[136.9903,35.16238],[136.98979,35.16132],[136.98902,35.16143],[136.98863,35.16068],[136.98865,35.15922],[136.9884,35.15822],[136.98868,35.15732],[136.98824,35.15683],[136.98841,35.15603],[136.988,35.15509],[136.98739,35.15468],[136.98743,35.15409],[136.98671,35.15384],[136.98529,35.153],[136.98576,35.15208],[136.98579,35.15119],[136.98516,35.1508],[136.98565,35.15002],[136.98576,35.14927]]]]}},
  {"type":"Feature","properties":{"name":"天白区","code":"23116"},"geometry":{"type":"MultiPolygon","coordinates":[[[[136.97253,35.14815],[136.9726,35.14757],[136.97246,35.14497],[136.97278,35.14378],[136.97218,35.14333],[136.97231,35.14177],[136.97194,35.14157],[136.96972,35.141],[136.96741,35.13998],[136.96827,35.13872],[136.96737,35.1375],[136.96672,35.13573],[136.96622,35.13563],[136.96417,35.1365],[136.96373,35.13623],[136.96165,35.13622],[136.96075,35.13561],[136.96018,35.13443],[136.95974,35.13258],[136.95865,35.13106],[136.95902,35.12944],[136.95992,35.12689],[136.96039,35.12622],[136.96122,35.12387],[136.96187,35.11992],[136.96219,35.11669],[136.96191,35.11567],[136.96139,35.11491],[136.96061,35.11431],[136.95874,35.11352],[136.9569,35.11312],[136.95534,35.11309],[136.95243,35.11259],[136.95009,35.11171],[136.94957,35.11115],[136.9493,35.1097],[136.94931,35.10574],[136.94887,35.1024],[136.94823,35.09942],[136.94914,35.10037],[136.95111,35.10168],[136.9521,35.10212],[136.95309,35.10215],[136.95482,35.10176],[136.95697,35.10068],[136.96034,35.10111],[136.96407,35.10152],[136.96535,35.10143],[136.96513,35.10198],[136.96717,35.10228],[136.96997,35.10244],[136.9718,35.10224],[136.9739,35.10216],[136.97393,35.10274],[136.97814,35.10263],[136.97802,35.1036],[136.98222,35.10381],[136.98436,35.10436],[136.98595,35.10598],[136.98707,35.10627],[136.98853,35.1081],[136.98934,35.10819],[136.98999,35.10886],[136.99071,35.10912],[136.99144,35.10795],[136.99265,35.10702],[136.9922,35.10655],[136.9937,35.10575],[136.9957,35.10617],[136.99624,35.10612],[136.99675,35.10553],[136.99762,35.10571],[136.99849,35.10521],[136.99907,35.10445],[136.99946,35.10318],[137.00045,35.10292],[137.00066,35.10132],[137.00184,35.10135],[137.003,35.10195],[137.00347,35.10249],[137.00462,35.10293],[137.00547,35.1038],[137.00854,35.10495],[137.00948,35.10581],[137.01135,35.10659],[137.01286,35.10743],[137.0139,35.10744],[137.01505,35.10781],[137.0167,35.10917],[137.0178,35.10835],[137.01814,35.10934],[137.01878,35.10957],[137.01997,35.10957],[137.01903,35.11124],[137.01882,35.11216],[137.01818,35.11257],[137.01698,35.11268],[137.01677,35.11364],[137.0153,35.11533],[137.0145,35.11699],[137.01362,35.11794],[137.01155,35.11949],[137.01056,35.12057],[137.00988,35.12189],[137.00898,35.1227],[137.00825,35.12382],[137.00659,35.12517],[137.00637,35.12559],[137.00547,35.12603],[137.00444,35.1275],[137.0033,35.1284],[137.00068,35.12951],[137.00013,35.13002],[137.00068,35.13052],[137.00226,35.13049],[137.00319,35.13065],[137.00463,35.13118],[137.00598,35.13121],[137.00659,35.13069],[137.00773,35.13089],[137.00816,35.1312],[137.00822,35.13302],[137.00794,35.13454],[137.00701,35.13584],[137.00702,35.13649],[137.00792,35.13671],[137.00927,35.13629],[137.00999,35.13684],[137.01001,35.13902],[137.00763,35.13803],[137.00702,35.13831],[137.0054,35.13842],[137.00605,35.13921],[137.00527,35.13991],[137.00403,35.14024],[137.00255,35.14106],[137.00161,35.14197],[137.00067,35.14341],[137.00054,35.14532],[136.99874,35.14567],[136.99862,35.14534],[136.99675,35.14536],[136.99674,35.14496],[136.99417,35.14496],[136.9927,35.14584],[136.99218,35.1464],[136.99042,35.14771],[136.98911,35.14738],[136.98827,35.14817],[136.98708,35.14826],[136.98576,35.14927],[136.98454,35.1495],[136.98319,35.1489],[136.98158,35.14921],[136.98081,35.14994],[136.98058,35.15116],[136.98071,35.1521],[136.98044,35.15275],[136.97963,35.15192],[136.97835,35.15155],[136.97757,35.15104],[136.97742,35.14894],[136.97565,35.14823],[136.97426,35.14877],[136.97253,35.14815]]]]}}
]}
