{"type":"FeatureCollection", "features": [
  {"type":"Feature","properties":{"name":"中央区","code":"12101"},"geometry":{"type":"MultiPolygon","coordinates":[[[[140.115489,35.550601],[140.116636,35.55059],[140.118471,35.551055],[140.119066,35.551525],[140.120963,35.551322],[140.121198,35.550554],[140.122128,35.549576],[140.12324,35.549768],[140.122628,35.548906],[140.123765,35.547838],[140.125886,35.548713],[140.126844,35.548849],[140.126912,35.548236],[140.128377,35.547631],[140.128479,35.547214],[140.127639,35.546667],[140.127662,35.546184],[140.128674,35.546026],[140.130081,35.547158],[140.130547,35.547102],[140.130922,35.546349],[140.130844,35.545392],[140.131298,35.545169],[140.13325,35.545503],[140.133897,35.545345],[140.134045,35.544789],[140.132183,35.54414],[140.133104,35.543091],[140.134114,35.542581],[140.13533,35.542526],[140.136034,35.543565],[140.136567,35.543621],[140.138827,35.546344],[140.137454,35.547126],[140.135388,35.548864],[140.136512,35.549411],[140.137987,35.551081],[140.139556,35.550159],[140.142364,35.547974],[140.143374,35.549324],[140.144035,35.549161],[140.14593,35.551222],[140.146491,35.55109],[140.14709,35.550295],[140.148527,35.550142],[140.149562,35.550214],[140.150949,35.550706],[140.152221,35.55149],[140.156092,35.552328],[140.1583,35.553469],[140.157626,35.555113],[140.157477,35.557042],[140.157103,35.557663],[140.15618,35.558091],[140.15699,35.558807],[140.157863,35.560042],[140.156941,35.560531],[140.157741,35.560916],[140.158737,35.563613],[140.159872,35.563852],[140.160146,35.564718],[140.169034,35.564637],[140.169398,35.565159],[140.169535,35.567614],[140.170558,35.567166],[140.170894,35.567634],[140.173079,35.568351],[140.17243,35.569095],[140.173853,35.570076],[140.172207,35.571362],[140.170722,35.573198],[140.170036,35.574586],[140.169237,35.5757],[140.168949,35.576629],[140.169748,35.576487],[140.171468,35.577771],[140.172104,35.578463],[140.172331,35.57918],[140.173864,35.580076],[140.175438,35.58119],[140.171292,35.585003],[140.169014,35.586589],[140.168265,35.587319],[140.16766,35.589151],[140.167568,35.591796],[140.163003,35.595464],[140.159799,35.598142],[140.157299,35.599526],[140.155805,35.600677],[140.155352,35.601417],[140.153046,35.603835],[140.154275,35.605191],[140.152474,35.605551],[140.150741,35.605551],[140.149717,35.606327],[140.149583,35.606849],[140.148223,35.606544],[140.147923,35.60723],[140.148289,35.608532],[140.148973,35.609122],[140.151321,35.608792],[140.150967,35.610249],[140.151017,35.612221],[140.152752,35.614397],[140.153647,35.616554],[140.153812,35.617407],[140.152233,35.617586],[140.152563,35.618441],[140.151112,35.618889],[140.150782,35.618341],[140.150045,35.618574],[140.147656,35.617349],[140.144695,35.617647],[140.142381,35.617193],[140.139206,35.616283],[140.134707,35.614651],[140.133835,35.614559],[140.133143,35.616222],[140.132542,35.617178],[140.131307,35.621165],[140.130307,35.622462],[140.129909,35.622198],[140.127079,35.625609],[140.126726,35.626554],[140.126206,35.628888],[140.124628,35.628434],[140.125009,35.627624],[140.124188,35.627559],[140.123665,35.62649],[140.123825,35.625134],[140.123265,35.624711],[140.122199,35.624549],[140.120794,35.624635],[140.119829,35.623901],[140.119529,35.624128],[140.118182,35.623861],[140.116279,35.623027],[140.11539,35.625121],[140.114391,35.62494],[140.10464,35.622507],[140.104307,35.623023],[140.102992,35.62246],[140.101814,35.623766],[140.099803,35.622651],[140.09927,35.622143],[140.096901,35.621196],[140.097055,35.620108],[140.099403,35.617845],[140.09927,35.61712],[140.102793,35.613662],[140.103796,35.612569],[140.105019,35.610706],[140.098313,35.606196],[140.099022,35.605321],[140.09983,35.60471],[140.099072,35.603759],[140.096063,35.601741],[140.095699,35.601333],[140.09665,35.600401],[140.096646,35.598742],[140.095328,35.59785],[140.094612,35.597884],[140.093935,35.598293],[140.093864,35.597306],[140.091896,35.597401],[140.091672,35.598402],[140.088799,35.594815],[140.088973,35.59453],[140.101651,35.59393],[140.105928,35.599255],[140.103931,35.601213],[140.106039,35.602653],[140.108868,35.599884],[140.105799,35.594083],[140.105517,35.593448],[140.107454,35.592355],[140.107615,35.59199],[140.112539,35.594327],[140.113755,35.593662],[140.114625,35.594381],[140.11343,35.595285],[140.115287,35.596899],[140.116668,35.596759],[140.117659,35.596445],[140.118258,35.595615],[140.117363,35.595145],[140.116951,35.59329],[140.118019,35.591781],[140.117364,35.591411],[140.116488,35.591604],[140.115295,35.593114],[140.11468,35.592721],[140.115239,35.591746],[140.110574,35.589541],[140.11278,35.580424],[140.112198,35.580717],[140.112768,35.578344],[140.113299,35.577716],[140.113011,35.577308],[140.114158,35.572516],[140.113969,35.57232],[140.111711,35.572242],[140.112125,35.570457],[140.113699,35.570517],[140.116062,35.569198],[140.119269,35.569332],[140.119573,35.569125],[140.12691,35.569411],[140.126797,35.567582],[140.122627,35.567421],[140.121506,35.567151],[140.113494,35.566875],[140.112932,35.567016],[140.096823,35.566396],[140.091978,35.565035],[140.091023,35.564488],[140.091207,35.561181],[140.095209,35.559758],[140.095286,35.559883],[140.102927,35.557166],[140.103607,35.557095],[140.10946,35.555006],[140.10956,35.554655],[140.113306,35.553322],[140.115069,35.552841],[140.115489,35.550601]]],[[[140.103807,35.583025],[140.103536,35.584973],[140.102962,35.58738],[140.096076,35.587652],[140.096099,35.588013],[140.092796,35.588157],[140.092771,35.587802],[140.081591,35.588288],[140.086102,35.569446],[140.111731,35.570433],[140.111305,35.572226],[140.110492,35.572431],[140.109471,35.576613],[140.105106,35.577624],[140.104591,35.579749],[140.104866,35.579883],[140.104121,35.582993],[140.103807,35.583025]]]]}},
  {"type":"Feature","properties":{"name":"花見川区","code":"12102"},"geometry":{"type":"MultiPolygon","coordinates":[[[[140.073802,35.641353],[140.075798,35.644206],[140.077591,35.645973],[140.07868,35.646695],[140.079628,35.646824],[140.081892,35.647988],[140.083044,35.648826],[140.08377,35.649818],[140.084137,35.651219],[140.084783,35.651086],[140.084759,35.650071],[140.085856,35.650107],[140.087376,35.649614],[140.092609,35.653765],[140.096875,35.656135],[140.098328,35.657449],[140.098651,35.658711],[140.0982,35.660266],[140.097683,35.660798],[140.093811,35.660978],[140.094367,35.661911],[140.096307,35.661841],[140.098301,35.662099],[140.099914,35.663117],[140.101817,35.663295],[140.103649,35.663307],[140.107503,35.66348],[140.10964,35.663131],[140.114995,35.663248],[140.116011,35.664133],[140.116942,35.665865],[140.118356,35.6693],[140.116686,35.669831],[140.115894,35.66991],[140.115975,35.670667],[140.117469,35.671096],[140.118349,35.671107],[140.119162,35.672213],[140.119797,35.674519],[140.120296,35.67478],[140.123313,35.673797],[140.125946,35.679213],[140.136991,35.675442],[140.137031,35.673854],[140.136632,35.671971],[140.135718,35.670822],[140.136499,35.670512],[140.137782,35.671848],[140.138314,35.673091],[140.138548,35.674566],[140.138384,35.675392],[140.136718,35.679522],[140.13663,35.680159],[140.137471,35.680951],[140.137517,35.681897],[140.137912,35.68278],[140.137694,35.683568],[140.138225,35.684938],[140.139268,35.685968],[140.139488,35.686615],[140.139492,35.688156],[140.141181,35.6893],[140.14197,35.690072],[140.142508,35.691055],[140.143122,35.691407],[140.145381,35.691242],[140.146967,35.691812],[140.147905,35.691363],[140.147811,35.68997],[140.14829,35.689919],[140.14863,35.691085],[140.150424,35.690215],[140.151702,35.689088],[140.151706,35.688389],[140.150125,35.687336],[140.149016,35.686098],[140.151989,35.687585],[140.152286,35.686159],[140.152865,35.685131],[140.152705,35.684417],[140.153086,35.682531],[140.153992,35.682539],[140.154404,35.683359],[140.153918,35.684017],[140.153573,35.685947],[140.153094,35.68677],[140.153114,35.687505],[140.152737,35.688291],[140.152644,35.689292],[140.152141,35.689402],[140.149392,35.691598],[140.147479,35.692089],[140.143527,35.691942],[140.141408,35.692762],[140.140694,35.693491],[140.140252,35.694664],[140.13811,35.696369],[140.136794,35.697546],[140.13612,35.697906],[140.134837,35.699179],[140.13398,35.699615],[140.129251,35.698952],[140.123965,35.698891],[140.123396,35.699325],[140.122485,35.701604],[140.122613,35.706756],[140.122391,35.707098],[140.120656,35.708083],[140.119339,35.708405],[140.118153,35.709198],[140.117681,35.709172],[140.117118,35.7102],[140.115203,35.713095],[140.11382,35.713579],[140.113384,35.714052],[140.112097,35.713189],[140.111218,35.7128],[140.110333,35.712053],[140.109115,35.709806],[140.10868,35.709432],[140.107705,35.709394],[140.106678,35.709819],[140.10553,35.709352],[140.104517,35.707868],[140.103283,35.706511],[140.102746,35.705061],[140.10189,35.703627],[140.101115,35.702834],[140.099138,35.701427],[140.097998,35.699779],[140.097105,35.699283],[140.095365,35.697162],[140.094707,35.696074],[140.093874,35.694238],[140.093895,35.693569],[140.093393,35.692412],[140.090275,35.693782],[140.088138,35.694078],[140.086739,35.694394],[140.083865,35.694752],[140.081641,35.694878],[140.081557,35.694536],[140.077363,35.688453],[140.075019,35.685981],[140.072511,35.683864],[140.070968,35.682855],[140.069664,35.681302],[140.068762,35.679513],[140.068303,35.677777],[140.067409,35.67782],[140.067335,35.677359],[140.065916,35.676761],[140.06414,35.678157],[140.062914,35.679441],[140.062234,35.678494],[140.062574,35.677682],[140.061474,35.676436],[140.05998,35.6771],[140.060934,35.678638],[140.057583,35.679738],[140.057304,35.678434],[140.055133,35.676983],[140.054477,35.675445],[140.053366,35.675862],[140.053587,35.677106],[140.052431,35.677835],[140.051264,35.677031],[140.050072,35.678242],[140.050377,35.678846],[140.0494,35.679149],[140.048745,35.678492],[140.048731,35.678028],[140.048027,35.676451],[140.046839,35.676763],[140.045647,35.676851],[140.045133,35.677607],[140.044209,35.676636],[140.04176,35.677848],[140.040167,35.675855],[140.035281,35.669908],[140.034948,35.669633],[140.040017,35.666287],[140.041263,35.665529],[140.041327,35.665139],[140.042956,35.663468],[140.046032,35.661379],[140.042466,35.658932],[140.047751,35.655767],[140.047918,35.655939],[140.05205,35.653165],[140.057698,35.649932],[140.058331,35.65209],[140.061093,35.649846],[140.061404,35.650544],[140.06357,35.648694],[140.067208,35.646312],[140.070356,35.643605],[140.071767,35.642544],[140.073802,35.641353]]]]}},
  {"type":"Feature","properties":{"name":"稲毛区","code":"12103"},"geometry":{"type":"MultiPolygon","coordinates":[[[[140.124628,35.628434],[140.123866,35.633362],[140.123986,35.63438],[140.123655,35.635579],[140.123971,35.636412],[140.123806,35.637993],[140.123919,35.638532],[140.125798,35.639597],[140.126648,35.640598],[140.12692,35.641777],[140.125981,35.642127],[140.124747,35.643473],[140.124205,35.644616],[140.124559,35.646974],[140.125221,35.647429],[140.128019,35.647977],[140.128395,35.648682],[140.128387,35.649515],[140.128824,35.651498],[140.12938,35.652769],[140.128636,35.654231],[140.128291,35.655311],[140.129346,35.655712],[140.131396,35.655252],[140.132937,35.655635],[140.133185,35.656469],[140.134985,35.65584],[140.135436,35.655178],[140.137709,35.654421],[140.137821,35.654034],[140.139889,35.653377],[140.141226,35.653236],[140.141486,35.653858],[140.146772,35.654229],[140.149466,35.656469],[140.150082,35.656696],[140.152699,35.655774],[140.152511,35.655265],[140.15348,35.654928],[140.153398,35.654478],[140.154705,35.654073],[140.154901,35.654454],[140.155958,35.654086],[140.156652,35.657354],[140.153031,35.659051],[140.152878,35.660119],[140.152208,35.660373],[140.15118,35.661469],[140.150915,35.662112],[140.151318,35.663241],[140.150344,35.665399],[140.150274,35.666436],[140.150637,35.667679],[140.151623,35.669602],[140.151944,35.670977],[140.152811,35.673184],[140.152811,35.673851],[140.152385,35.674775],[140.153075,35.675696],[140.153034,35.677116],[140.152249,35.678374],[140.151802,35.677894],[140.152655,35.677014],[140.15254,35.675983],[140.151938,35.674944],[140.152242,35.674188],[140.151437,35.671788],[140.151312,35.670019],[140.150656,35.668808],[140.149917,35.668126],[140.141307,35.667616],[140.14127,35.669002],[140.140688,35.669116],[140.136499,35.670512],[140.135718,35.670822],[140.136632,35.671971],[140.137031,35.673854],[140.136991,35.675442],[140.125946,35.679213],[140.123313,35.673797],[140.120296,35.67478],[140.119797,35.674519],[140.119162,35.672213],[140.118349,35.671107],[140.117469,35.671096],[140.115975,35.670667],[140.115894,35.66991],[140.116686,35.669831],[140.118356,35.6693],[140.116942,35.665865],[140.116011,35.664133],[140.114995,35.663248],[140.10964,35.663131],[140.107503,35.66348],[140.103649,35.663307],[140.101817,35.663295],[140.099914,35.663117],[140.098301,35.662099],[140.096307,35.661841],[140.094367,35.661911],[140.093811,35.660978],[140.097683,35.660798],[140.0982,35.660266],[140.098651,35.658711],[140.098328,35.657449],[140.096875,35.656135],[140.092609,35.653765],[140.087376,35.649614],[140.085856,35.650107],[140.084759,35.650071],[140.084783,35.651086],[140.084137,35.651219],[140.08377,35.649818],[140.083044,35.648826],[140.081892,35.647988],[140.079628,35.646824],[140.07868,35.646695],[140.077591,35.645973],[140.075798,35.644206],[140.073802,35.641353],[140.074781,35.640918],[140.078383,35.63801],[140.082288,35.634721],[140.087657,35.629828],[140.093763,35.623378],[140.097055,35.620108],[140.096901,35.621196],[140.09927,35.622143],[140.099803,35.622651],[140.101814,35.623766],[140.102992,35.62246],[140.104307,35.623023],[140.10464,35.622507],[140.114391,35.62494],[140.11539,35.625121],[140.116279,35.623027],[140.118182,35.623861],[140.119529,35.624128],[140.119829,35.623901],[140.120794,35.624635],[140.122199,35.624549],[140.123265,35.624711],[140.123825,35.625134],[140.123665,35.62649],[140.124188,35.627559],[140.125009,35.627624],[140.124628,35.628434]]]]}},
  {"type":"Feature","properties":{"name":"若葉区","code":"12104"},"geometry":{"type":"MultiPolygon","coordinates":[[[[140.175438,35.58119],[140.176731,35.580621],[140.177104,35.580667],[140.177726,35.581896],[140.179335,35.583025],[140.179328,35.583631],[140.183005,35.585396],[140.184136,35.585275],[140.186962,35.584541],[140.187433,35.586414],[140.189392,35.585739],[140.191509,35.585767],[140.193605,35.58509],[140.193198,35.583427],[140.194694,35.583055],[140.195904,35.584413],[140.196549,35.58445],[140.197049,35.58509],[140.198906,35.585275],[140.200535,35.585118],[140.20228,35.585377],[140.20209,35.583621],[140.202548,35.583152],[140.204398,35.58249],[140.204432,35.581853],[140.204082,35.580804],[140.202159,35.578611],[140.201949,35.577684],[140.200955,35.576052],[140.201273,35.575809],[140.202563,35.577759],[140.202932,35.577173],[140.20569,35.575212],[140.207432,35.572867],[140.209382,35.57092],[140.209925,35.574555],[140.212879,35.576523],[140.214861,35.577379],[140.215292,35.577281],[140.216876,35.57626],[140.217757,35.57785],[140.219265,35.57745],[140.219808,35.578078],[140.221244,35.577433],[140.222616,35.577399],[140.223581,35.577056],[140.224031,35.576571],[140.224207,35.575295],[140.224566,35.574843],[140.225887,35.574191],[140.226267,35.573117],[140.2268,35.572699],[140.227621,35.572697],[140.22802,35.572312],[140.226504,35.570594],[140.226105,35.569326],[140.22632,35.568363],[140.226842,35.5676],[140.228174,35.566336],[140.229609,35.565497],[140.230297,35.564867],[140.231742,35.564038],[140.232715,35.564029],[140.234306,35.563205],[140.236798,35.561696],[140.238274,35.561219],[140.23897,35.561479],[140.239586,35.563013],[140.239549,35.56439],[140.239733,35.565876],[140.240671,35.566935],[140.241279,35.566559],[140.244246,35.568905],[140.248399,35.565918],[140.250299,35.564755],[140.254037,35.561995],[140.25582,35.56404],[140.256656,35.563377],[140.257346,35.562176],[140.258981,35.561684],[140.259111,35.560477],[140.259774,35.559189],[140.261232,35.559647],[140.262623,35.559119],[140.265704,35.558952],[140.26631,35.558632],[140.26618,35.557823],[140.266709,35.557693],[140.266969,35.558903],[140.26755,35.559777],[140.268287,35.561637],[140.268196,35.562562],[140.269527,35.564352],[140.270649,35.565212],[140.269116,35.566579],[140.269207,35.567492],[140.270051,35.56793],[140.270084,35.568841],[140.27072,35.569331],[140.271923,35.568764],[140.272889,35.568677],[140.274588,35.569571],[140.27493,35.570753],[140.275681,35.571314],[140.27742,35.571708],[140.279157,35.571548],[140.279647,35.571025],[140.281692,35.571266],[140.282311,35.570934],[140.283942,35.571495],[140.286329,35.570985],[140.288728,35.570035],[140.288543,35.570643],[140.287087,35.572909],[140.284,35.573271],[140.283185,35.573778],[140.282515,35.576079],[140.2815,35.578235],[140.280521,35.578487],[140.280291,35.579294],[140.281106,35.579337],[140.280054,35.580667],[140.279397,35.581017],[140.277021,35.581192],[140.275138,35.581777],[140.27477,35.582139],[140.274357,35.583529],[140.274768,35.584174],[140.275263,35.585631],[140.275075,35.586355],[140.275234,35.587111],[140.277102,35.586122],[140.278971,35.586381],[140.280688,35.587407],[140.280519,35.587588],[140.278341,35.586473],[140.277078,35.586418],[140.275558,35.587467],[140.274879,35.588656],[140.274074,35.588782],[140.273728,35.589467],[140.27275,35.589148],[140.272164,35.590318],[140.271292,35.591252],[140.27066,35.592336],[140.269196,35.59343],[140.267573,35.594397],[140.264764,35.59574],[140.262881,35.598347],[140.26137,35.599597],[140.26167,35.600711],[140.261384,35.601043],[140.260957,35.602835],[140.261257,35.60364],[140.262049,35.604148],[140.262627,35.605538],[140.262601,35.606013],[140.263759,35.60608],[140.266413,35.607084],[140.267485,35.607164],[140.267764,35.607865],[140.267511,35.608663],[140.268037,35.610834],[140.267484,35.611409],[140.267171,35.612446],[140.26745,35.614252],[140.267304,35.615458],[140.267643,35.617263],[140.266612,35.618507],[140.266006,35.618936],[140.265793,35.619753],[140.264928,35.620565],[140.264914,35.621446],[140.26532,35.62253],[140.266332,35.624268],[140.266318,35.626412],[140.265606,35.627483],[140.264847,35.626865],[140.26343,35.626898],[140.26154,35.626658],[140.257755,35.625469],[140.256095,35.6247],[140.254974,35.624604],[140.254112,35.625522],[140.253191,35.625837],[140.25265,35.62488],[140.251758,35.62543],[140.250962,35.625585],[140.249705,35.627183],[140.248578,35.627329],[140.248882,35.628574],[140.248112,35.628783],[140.246208,35.629751],[140.244435,35.630333],[140.242841,35.630392],[140.243014,35.632196],[140.242512,35.632752],[140.241761,35.632627],[140.241275,35.631297],[140.240451,35.630827],[140.238768,35.630674],[140.238074,35.631177],[140.237078,35.63111],[140.236314,35.631373],[140.236011,35.631876],[140.235045,35.632498],[140.232955,35.632695],[140.231333,35.633207],[140.229484,35.632967],[140.228736,35.633139],[140.228109,35.634209],[140.227135,35.635087],[140.226824,35.636448],[140.225908,35.637075],[140.224896,35.637012],[140.223825,35.636385],[140.222613,35.637202],[140.221901,35.637277],[140.223086,35.639264],[140.223036,35.641644],[140.22241,35.643077],[140.221682,35.643991],[140.221765,35.645847],[140.222343,35.646796],[140.223571,35.647736],[140.222166,35.647766],[140.221187,35.648238],[140.219641,35.651972],[140.218209,35.653188],[140.215647,35.654624],[140.213405,35.654417],[140.213318,35.654575],[140.211886,35.654592],[140.210263,35.654147],[140.207764,35.652958],[140.206606,35.652246],[140.205106,35.651767],[140.20465,35.650966],[140.205055,35.648729],[140.206567,35.647444],[140.207041,35.646319],[140.207704,35.646375],[140.208299,35.64596],[140.206125,35.643986],[140.205478,35.642941],[140.203564,35.640491],[140.203788,35.640238],[140.199775,35.635732],[140.198879,35.63448],[140.198327,35.634354],[140.194799,35.628927],[140.19467,35.628224],[140.194161,35.627891],[140.193402,35.626777],[140.191114,35.625861],[140.189554,35.625601],[140.189339,35.626354],[140.188105,35.627383],[140.18618,35.628786],[140.185078,35.629123],[140.186777,35.63164],[140.18582,35.633171],[140.188107,35.634397],[140.188959,35.635593],[140.18929,35.636441],[140.19047,35.636821],[140.191668,35.637496],[140.191868,35.639498],[140.19279,35.639449],[140.193411,35.639111],[140.194089,35.639767],[140.192237,35.640154],[140.191796,35.641141],[140.191046,35.641661],[140.190156,35.643014],[140.188967,35.642993],[140.186137,35.641965],[140.185326,35.643572],[140.185197,35.644346],[140.185481,35.645418],[140.186024,35.646089],[140.185136,35.647157],[140.182264,35.645608],[140.180342,35.643698],[140.180307,35.644994],[140.182308,35.646713],[140.183593,35.647637],[140.182479,35.648694],[140.179762,35.648991],[140.179546,35.650647],[140.178417,35.651564],[140.177874,35.652253],[140.176452,35.653449],[140.174827,35.654026],[140.173673,35.654068],[140.173776,35.6513],[140.173638,35.649545],[140.172854,35.648813],[140.172405,35.647538],[140.170585,35.645334],[140.17006,35.645671],[140.171427,35.647492],[140.172337,35.649294],[140.172871,35.650068],[140.173173,35.651873],[140.172527,35.65238],[140.171972,35.65225],[140.170774,35.651329],[140.169533,35.650787],[140.168248,35.649138],[140.167126,35.648648],[140.166738,35.648114],[140.164416,35.645931],[140.163554,35.645351],[140.157801,35.646347],[140.157448,35.646811],[140.155429,35.650402],[140.155371,35.651697],[140.155958,35.654086],[140.154901,35.654454],[140.154705,35.654073],[140.153398,35.654478],[140.15348,35.654928],[140.152511,35.655265],[140.152699,35.655774],[140.150082,35.656696],[140.149466,35.656469],[140.146772,35.654229],[140.141486,35.653858],[140.141226,35.653236],[140.139889,35.653377],[140.137821,35.654034],[140.137709,35.654421],[140.135436,35.655178],[140.134985,35.65584],[140.133185,35.656469],[140.132937,35.655635],[140.131396,35.655252],[140.129346,35.655712],[140.128291,35.655311],[140.128636,35.654231],[140.12938,35.652769],[140.128824,35.651498],[140.128387,35.649515],[140.128395,35.648682],[140.128019,35.647977],[140.125221,35.647429],[140.124559,35.646974],[140.124205,35.644616],[140.124747,35.643473],[140.125981,35.642127],[140.12692,35.641777],[140.126648,35.640598],[140.125798,35.639597],[140.123919,35.638532],[140.123806,35.637993],[140.123971,35.636412],[140.123655,35.635579],[140.123986,35.63438],[140.123866,35.633362],[140.124628,35.628434],[140.126206,35.628888],[140.126726,35.626554],[140.127079,35.625609],[140.129909,35.622198],[140.130307,35.622462],[140.131307,35.621165],[140.132542,35.617178],[140.133143,35.616222],[140.133835,35.614559],[140.134707,35.614651],[140.139206,35.616283],[140.142381,35.617193],[140.144695,35.617647],[140.147656,35.617349],[140.150045,35.618574],[140.150782,35.618341],[140.151112,35.618889],[140.152563,35.618441],[140.152233,35.617586],[140.153812,35.617407],[140.153647,35.616554],[140.152752,35.614397],[140.151017,35.612221],[140.150967,35.610249],[140.151321,35.608792],[140.148973,35.609122],[140.148289,35.608532],[140.147923,35.60723],[140.148223,35.606544],[140.149583,35.606849],[140.149717,35.606327],[140.150741,35.605551],[140.152474,35.605551],[140.154275,35.605191],[140.153046,35.603835],[140.155352,35.601417],[140.155805,35.600677],[140.157299,35.599526],[140.159799,35.598142],[140.163003,35.595464],[140.167568,35.591796],[140.16766,35.589151],[140.168265,35.587319],[140.169014,35.586589],[140.171292,35.585003],[140.175438,35.58119]]]]}},
  {"type":"Feature","properties":{"name":"緑区","code":"12105"},"geometry":{"type":"MultiPolygon","coordinates":[[[[140.142364,35.547974],[140.147961,35.543662],[140.149339,35.54311],[140.150344,35.542217],[140.152851,35.540681],[140.1544,35.538878],[140.156602,35.536868],[140.158161,35.535753],[140.158969,35.535506],[140.159858,35.536105],[140.160914,35.536481],[140.161015,35.536952],[140.162123,35.538023],[140.164205,35.536981],[140.16527,35.536022],[140.166306,35.536995],[140.167048,35.536321],[140.168415,35.536231],[140.168781,35.535999],[140.170102,35.535977],[140.171577,35.536156],[140.173907,35.535084],[140.174723,35.533406],[140.17596,35.533443],[140.176345,35.533106],[140.179108,35.532733],[140.180528,35.5331],[140.183034,35.534592],[140.185059,35.534779],[140.18803,35.536271],[140.188728,35.536437],[140.191238,35.536519],[140.192063,35.536856],[140.192366,35.537315],[140.192394,35.538341],[140.19287,35.539346],[140.192174,35.53997],[140.192064,35.5411],[140.194404,35.543258],[140.195989,35.54239],[140.198686,35.541099],[140.201309,35.539572],[140.20205,35.540103],[140.201886,35.541034],[140.202976,35.542336],[140.204866,35.543335],[140.206177,35.544191],[140.206784,35.543582],[140.208198,35.544365],[140.208198,35.544835],[140.209338,35.545452],[140.210769,35.545065],[140.210739,35.543398],[140.211316,35.542622],[140.212435,35.542614],[140.21304,35.541997],[140.213727,35.539738],[140.214654,35.539845],[140.215231,35.541528],[140.214786,35.542528],[140.215916,35.545255],[140.216302,35.545738],[140.217642,35.545312],[140.217972,35.544985],[140.217921,35.544023],[140.219568,35.543825],[140.219931,35.543536],[140.223203,35.543108],[140.224626,35.542555],[140.226402,35.541638],[140.22738,35.540979],[140.229256,35.539238],[140.229599,35.538487],[140.231203,35.53649],[140.231949,35.534442],[140.232131,35.533404],[140.230909,35.532668],[140.230385,35.531797],[140.229486,35.530877],[140.229657,35.530168],[140.228749,35.529267],[140.229172,35.528633],[140.228194,35.52855],[140.227648,35.527882],[140.225954,35.527865],[140.226337,35.527371],[140.225267,35.524828],[140.224248,35.524836],[140.222332,35.523729],[140.220638,35.52368],[140.220923,35.522096],[140.221689,35.521659],[140.221145,35.521146],[140.22313,35.520718],[140.224179,35.519966],[140.224094,35.519145],[140.223,35.51877],[140.221679,35.518004],[140.222759,35.517252],[140.224142,35.516031],[140.225454,35.515164],[140.226483,35.514027],[140.227301,35.513548],[140.228601,35.513737],[140.227845,35.51249],[140.228239,35.511236],[140.230366,35.509924],[140.228642,35.507929],[140.230022,35.50708],[140.230739,35.506008],[140.231325,35.505766],[140.232033,35.504104],[140.232552,35.503774],[140.233571,35.504126],[140.236731,35.504945],[140.239467,35.50529],[140.24287,35.505468],[140.242413,35.503773],[140.243379,35.503357],[140.245884,35.503716],[140.247087,35.50405],[140.248177,35.50343],[140.248748,35.501896],[140.250526,35.501852],[140.251809,35.502328],[140.254265,35.501743],[140.254739,35.500526],[140.253935,35.498965],[140.254847,35.498343],[140.253649,35.497445],[140.254748,35.49659],[140.254284,35.496334],[140.255071,35.495269],[140.255044,35.494509],[140.25634,35.494312],[140.257387,35.494056],[140.258093,35.493588],[140.260094,35.493925],[140.261327,35.494451],[140.262818,35.494408],[140.262398,35.49557],[140.262664,35.497182],[140.262226,35.497921],[140.263505,35.497897],[140.263705,35.498237],[140.262975,35.499056],[140.261187,35.498885],[140.260285,35.499533],[140.260088,35.500212],[140.259489,35.500914],[140.259704,35.501703],[140.260277,35.502153],[140.261055,35.502284],[140.261117,35.501678],[140.262851,35.502109],[140.265144,35.500424],[140.266966,35.5018],[140.268655,35.500777],[140.270076,35.500332],[140.271166,35.499491],[140.271205,35.4985],[140.269865,35.496304],[140.269704,35.495398],[140.269766,35.49402],[140.270213,35.49372],[140.272115,35.493603],[140.272263,35.494376],[140.270817,35.495658],[140.270631,35.496374],[140.271254,35.497004],[140.272455,35.497516],[140.273019,35.498346],[140.274052,35.499224],[140.274201,35.499847],[140.273951,35.502499],[140.274834,35.504114],[140.27506,35.504939],[140.274369,35.507261],[140.274435,35.508046],[140.275315,35.508858],[140.275761,35.50986],[140.276762,35.511487],[140.277221,35.511906],[140.2782,35.511727],[140.279243,35.512047],[140.280615,35.512034],[140.282271,35.512783],[140.283237,35.514997],[140.28321,35.515836],[140.284704,35.517937],[140.286016,35.518822],[140.288664,35.519323],[140.289404,35.518358],[140.289566,35.517257],[140.289292,35.516195],[140.291045,35.515363],[140.292588,35.515317],[140.29352,35.515975],[140.294801,35.516419],[140.295174,35.517191],[140.296614,35.517292],[140.298279,35.518363],[140.299579,35.518896],[140.300621,35.520423],[140.29932,35.520447],[140.297874,35.521717],[140.296056,35.521817],[140.2946,35.521085],[140.292762,35.521863],[140.290179,35.522271],[140.287759,35.523491],[140.288519,35.524954],[140.288918,35.526079],[140.289933,35.528013],[140.291231,35.529025],[140.291379,35.530426],[140.292018,35.531165],[140.289804,35.532275],[140.289085,35.534204],[140.288238,35.535254],[140.287312,35.536012],[140.286497,35.53808],[140.286011,35.538925],[140.28473,35.539789],[140.283337,35.540268],[140.282305,35.541067],[140.281523,35.541288],[140.280964,35.541841],[140.280583,35.543721],[140.280883,35.545263],[140.28035,35.5465],[140.280617,35.547284],[140.281362,35.54779],[140.28167,35.55001],[140.282236,35.549957],[140.282556,35.549105],[140.283378,35.548436],[140.284683,35.549175],[140.285749,35.549368],[140.288946,35.54889],[140.291868,35.548225],[140.292018,35.549436],[140.291625,35.549782],[140.291078,35.551544],[140.291244,35.552935],[140.290971,35.555648],[140.291604,35.55705],[140.294212,35.560625],[140.293205,35.56162],[140.293352,35.562605],[140.292285,35.564267],[140.291245,35.56484],[140.289797,35.565887],[140.288658,35.566373],[140.288478,35.567471],[140.288152,35.568028],[140.288198,35.56888],[140.288728,35.570035],[140.286329,35.570985],[140.283942,35.571495],[140.282311,35.570934],[140.281692,35.571266],[140.279647,35.571025],[140.279157,35.571548],[140.27742,35.571708],[140.275681,35.571314],[140.27493,35.570753],[140.274588,35.569571],[140.272889,35.568677],[140.271923,35.568764],[140.27072,35.569331],[140.270084,35.568841],[140.270051,35.56793],[140.269207,35.567492],[140.269116,35.566579],[140.270649,35.565212],[140.269527,35.564352],[140.268196,35.562562],[140.268287,35.561637],[140.26755,35.559777],[140.266969,35.558903],[140.266709,35.557693],[140.26618,35.557823],[140.26631,35.558632],[140.265704,35.558952],[140.262623,35.559119],[140.261232,35.559647],[140.259774,35.559189],[140.259111,35.560477],[140.258981,35.561684],[140.257346,35.562176],[140.256656,35.563377],[140.25582,35.56404],[140.254037,35.561995],[140.250299,35.564755],[140.248399,35.565918],[140.244246,35.568905],[140.241279,35.566559],[140.240671,35.566935],[140.239733,35.565876],[140.239549,35.56439],[140.239586,35.563013],[140.23897,35.561479],[140.238274,35.561219],[140.236798,35.561696],[140.234306,35.563205],[140.232715,35.564029],[140.231742,35.564038],[140.230297,35.564867],[140.229609,35.565497],[140.228174,35.566336],[140.226842,35.5676],[140.22632,35.568363],[140.226105,35.569326],[140.226504,35.570594],[140.22802,35.572312],[140.227621,35.572697],[140.2268,35.572699],[140.226267,35.573117],[140.225887,35.574191],[140.224566,35.574843],[140.224207,35.575295],[140.224031,35.576571],[140.223581,35.577056],[140.222616,35.577399],[140.221244,35.577433],[140.219808,35.578078],[140.219265,35.57745],[140.217757,35.57785],[140.216876,35.57626],[140.215292,35.577281],[140.214861,35.577379],[140.212879,35.576523],[140.209925,35.574555],[140.209382,35.57092],[140.207432,35.572867],[140.20569,35.575212],[140.202932,35.577173],[140.202563,35.577759],[140.201273,35.575809],[140.200955,35.576052],[140.201949,35.577684],[140.202159,35.578611],[140.204082,35.580804],[140.204432,35.581853],[140.204398,35.58249],[140.202548,35.583152],[140.20209,35.583621],[140.20228,35.585377],[140.200535,35.585118],[140.198906,35.585275],[140.197049,35.58509],[140.196549,35.58445],[140.195904,35.584413],[140.194694,35.583055],[140.193198,35.583427],[140.193605,35.58509],[140.191509,35.585767],[140.189392,35.585739],[140.187433,35.586414],[140.186962,35.584541],[140.184136,35.585275],[140.183005,35.585396],[140.179328,35.583631],[140.179335,35.583025],[140.177726,35.581896],[140.177104,35.580667],[140.176731,35.580621],[140.175438,35.58119],[140.173864,35.580076],[140.172331,35.57918],[140.172104,35.578463],[140.171468,35.577771],[140.169748,35.576487],[140.168949,35.576629],[140.169237,35.5757],[140.170036,35.574586],[140.170722,35.573198],[140.172207,35.571362],[140.173853,35.570076],[140.17243,35.569095],[140.173079,35.568351],[140.170894,35.567634],[140.170558,35.567166],[140.169535,35.567614],[140.169398,35.565159],[140.169034,35.564637],[140.160146,35.564718],[140.159872,35.563852],[140.158737,35.563613],[140.157741,35.560916],[140.156941,35.560531],[140.157863,35.560042],[140.15699,35.558807],[140.15618,35.558091],[140.157103,35.557663],[140.157477,35.557042],[140.157626,35.555113],[140.1583,35.553469],[140.156092,35.552328],[140.152221,35.55149],[140.150949,35.550706],[140.149562,35.550214],[140.148527,35.550142],[140.14709,35.550295],[140.146491,35.55109],[140.14593,35.551222],[140.144035,35.549161],[140.143374,35.549324],[140.142364,35.547974]],[[140.259667,35.496606],[140.260247,35.496357],[140.259437,35.495729],[140.259106,35.495985],[140.259667,35.496606]],[[140.261788,35.498244],[140.2621,35.497879],[140.261387,35.497031],[140.260876,35.497414],[140.261788,35.498244]]]]}},
  {"type":"Feature","properties":{"name":"美浜区","code":"12106"},"geometry":{"type":"MultiPolygon","coordinates":[[[[140.097055,35.620108],[140.093763,35.623378],[140.087657,35.629828],[140.082288,35.634721],[140.078383,35.63801],[140.074781,35.640918],[140.073802,35.641353],[140.071767,35.642544],[140.070356,35.643605],[140.067208,35.646312],[140.06357,35.648694],[140.061404,35.650544],[140.061093,35.649846],[140.058331,35.65209],[140.057698,35.649932],[140.05205,35.653165],[140.047918,35.655939],[140.047751,35.655767],[140.042466,35.658932],[140.046032,35.661379],[140.042956,35.663468],[140.041327,35.665139],[140.041263,35.665529],[140.040017,35.666287],[140.034948,35.669633],[140.031498,35.665605],[140.030949,35.665147],[140.019652,35.652478],[140.020096,35.652086],[140.019488,35.651582],[140.020828,35.650523],[140.022637,35.649368],[140.024311,35.648604],[140.0268,35.646448],[140.029184,35.644568],[140.028725,35.644156],[140.03645,35.638018],[140.037553,35.636531],[140.039994,35.635174],[140.042962,35.632626],[140.045283,35.630772],[140.0444,35.630024],[140.044993,35.629604],[140.046745,35.629081],[140.048354,35.627996],[140.048505,35.62698],[140.050294,35.626413],[140.052411,35.624728],[140.053796,35.622479],[140.054683,35.621872],[140.055576,35.622332],[140.058432,35.619986],[140.057963,35.619444],[140.058834,35.619133],[140.060398,35.617856],[140.061726,35.616538],[140.066641,35.612222],[140.067041,35.611727],[140.067713,35.612091],[140.068537,35.611693],[140.069664,35.610754],[140.083907,35.596797],[140.086628,35.601894],[140.080278,35.608114],[140.080661,35.608218],[140.079138,35.609709],[140.077922,35.610415],[140.080044,35.611862],[140.080258,35.611788],[140.081861,35.612872],[140.083002,35.61388],[140.083144,35.613268],[140.088278,35.608232],[140.087857,35.609124],[140.093351,35.603742],[140.094125,35.603686],[140.098101,35.606404],[140.098313,35.606196],[140.105019,35.610706],[140.103796,35.612569],[140.102793,35.613662],[140.09927,35.61712],[140.099403,35.617845],[140.097055,35.620108]]]]}}
]}
