{"type":"FeatureCollection", "features": [
  {"type":"Feature","properties":{"name":"中区","code":"34101"},"geometry":{"type":"MultiPolygon","coordinates":[[[[132.42048,34.35925],[132.42267,34.35825],[132.42356,34.3596],[132.4249,34.35899],[132.42401,34.35765],[132.42827,34.35571],[132.42915,34.35639],[132.42962,34.35617],[132.42952,34.35514],[132.43318,34.35348],[132.43353,34.35377],[132.43668,34.35308],[132.44553,34.35709],[132.44648,34.3577],[132.45169,34.36134],[132.45424,34.36331],[132.45516,34.36425],[132.45625,34.36567],[132.45738,34.36686],[132.45922,34.36853],[132.46014,34.3699],[132.46057,34.3709],[132.46092,34.37478],[132.46272,34.37801],[132.46438,34.38001],[132.46525,34.38078],[132.46826,34.38387],[132.46974,34.38623],[132.47026,34.38723],[132.47028,34.38807],[132.46966,34.39005],[132.46947,34.39139],[132.4695,34.3925],[132.4699,34.39447],[132.4708,34.39725],[132.47082,34.3982],[132.46974,34.39996],[132.46785,34.40157],[132.46741,34.40296],[132.4678,34.40387],[132.46839,34.40474],[132.46994,34.40613],[132.47004,34.40701],[132.46924,34.40848],[132.46716,34.41008],[132.46637,34.41081],[132.4657,34.4128],[132.4654,34.41329],[132.46291,34.41486],[132.4618,34.41533],[132.46131,34.41348],[132.46034,34.41102],[132.45946,34.4093],[132.45823,34.40824],[132.45537,34.40675],[132.45332,34.40544],[132.45245,34.40521],[132.45001,34.40558],[132.44876,34.40549],[132.4472,34.40433],[132.446,34.403],[132.44516,34.40129],[132.44317,34.39903],[132.44274,34.39738],[132.44363,34.39515],[132.44321,34.39143],[132.44287,34.39008],[132.44218,34.38857],[132.44134,34.38788],[132.43804,34.38577],[132.43763,34.38418],[132.43724,34.38351],[132.43586,34.3819],[132.43345,34.37843],[132.43181,34.37645],[132.42289,34.36296],[132.42048,34.35925]]]]}},
  {"type":"Feature","properties":{"name":"東区","code":"34102"},"geometry":{"type":"MultiPolygon","coordinates":[[[[132.4678,34.40387],[132.46854,34.40351],[132.46945,34.40238],[132.47063,34.40011],[132.47213,34.39894],[132.47374,34.39817],[132.47456,34.39991],[132.47747,34.39841],[132.477,34.39784],[132.47797,34.39694],[132.47989,34.39564],[132.48126,34.39505],[132.48589,34.39423],[132.48821,34.39404],[132.49154,34.3936],[132.495,34.39202],[132.4984,34.38983],[132.49972,34.38931],[132.50131,34.39075],[132.50118,34.39137],[132.49934,34.39203],[132.49748,34.39367],[132.49584,34.39532],[132.49748,34.3963],[132.49841,34.39664],[132.49997,34.39896],[132.5012,34.40107],[132.50414,34.40435],[132.5057,34.40372],[132.50634,34.40415],[132.5069,34.40319],[132.50965,34.40402],[132.5111,34.40496],[132.51268,34.4057],[132.51434,34.40668],[132.5161,34.40848],[132.51574,34.40992],[132.51631,34.41035],[132.51695,34.41146],[132.51695,34.41242],[132.51723,34.41353],[132.5187,34.41492],[132.52068,34.41444],[132.52156,34.41547],[132.52357,34.41652],[132.52449,34.41751],[132.52594,34.41799],[132.52667,34.41872],[132.52822,34.41886],[132.52949,34.41964],[132.53022,34.42104],[132.53118,34.42149],[132.53249,34.42118],[132.53413,34.42123],[132.53537,34.42087],[132.53666,34.41961],[132.5374,34.4193],[132.53824,34.41857],[132.53949,34.41831],[132.54072,34.41767],[132.54145,34.41817],[132.54267,34.41806],[132.54436,34.4198],[132.54515,34.42088],[132.54568,34.42118],[132.54651,34.42219],[132.54952,34.42325],[132.55111,34.42348],[132.55271,34.42427],[132.55355,34.42488],[132.55453,34.42599],[132.55497,34.42763],[132.55603,34.42807],[132.55785,34.42762],[132.55971,34.42765],[132.56022,34.42822],[132.56216,34.42911],[132.56415,34.42883],[132.56702,34.42987],[132.56746,34.43071],[132.56841,34.43073],[132.56928,34.4316],[132.57085,34.43212],[132.57139,34.43293],[132.57157,34.43526],[132.57222,34.43635],[132.57087,34.43734],[132.56941,34.43759],[132.56695,34.43917],[132.5664,34.4407],[132.5651,34.4422],[132.56348,34.44508],[132.56378,34.44709],[132.56446,34.44821],[132.56356,34.44918],[132.56298,34.45012],[132.56267,34.45153],[132.56151,34.45227],[132.56094,34.45293],[132.55947,34.45335],[132.55873,34.45387],[132.55803,34.4547],[132.55477,34.45605],[132.55376,34.45671],[132.55274,34.45796],[132.55336,34.45915],[132.55344,34.45992],[132.5523,34.4614],[132.55146,34.46202],[132.55087,34.46325],[132.54942,34.46292],[132.54699,34.46285],[132.54514,34.46189],[132.54373,34.46149],[132.54225,34.46216],[132.5414,34.46166],[132.54055,34.46163],[132.53994,34.46209],[132.53878,34.46204],[132.5368,34.46226],[132.53597,34.46257],[132.53491,34.46332],[132.534,34.46263],[132.53186,34.46176],[132.53127,34.46051],[132.53168,34.45962],[132.53017,34.45727],[132.52955,34.45665],[132.52793,34.4557],[132.52789,34.4548],[132.52737,34.45408],[132.52678,34.45169],[132.52582,34.44931],[132.52574,34.44805],[132.5235,34.44773],[132.52182,34.44676],[132.51944,34.44714],[132.51837,34.44826],[132.51655,34.44887],[132.51535,34.44852],[132.51478,34.448],[132.51429,34.4467],[132.51372,34.44629],[132.51147,34.44534],[132.51112,34.44594],[132.50963,34.44598],[132.50894,34.44676],[132.50838,34.44633],[132.50643,34.44693],[132.5053,34.44649],[132.50437,34.4459],[132.504,34.44518],[132.50325,34.44477],[132.50115,34.44488],[132.50057,34.4429],[132.50076,34.44179],[132.50014,34.44118],[132.50009,34.44052],[132.49918,34.4403],[132.4968,34.44031],[132.49611,34.44139],[132.49509,34.44172],[132.49373,34.44258],[132.49234,34.44291],[132.48973,34.44335],[132.48945,34.44239],[132.4889,34.44167],[132.48779,34.44094],[132.48677,34.44055],[132.48448,34.44002],[132.48337,34.43989],[132.48102,34.43923],[132.47803,34.43783],[132.477,34.43715],[132.47527,34.43572],[132.47085,34.43082],[132.46798,34.42826],[132.46523,34.42622],[132.46377,34.42577],[132.46302,34.42007],[132.4618,34.41533],[132.46291,34.41486],[132.4654,34.41329],[132.4657,34.4128],[132.46637,34.41081],[132.46716,34.41008],[132.46924,34.40848],[132.47004,34.40701],[132.46994,34.40613],[132.46839,34.40474],[132.4678,34.40387]]]]}},
  {"type":"Feature","properties":{"name":"南区","code":"34103"},"geometry":{"type":"MultiPolygon","coordinates":[[[[132.43668,34.35308],[132.43992,34.35236],[132.43796,34.34562],[132.44188,34.34483],[132.44103,34.34197],[132.44181,34.34177],[132.44275,34.34081],[132.44399,34.34054],[132.44539,34.34103],[132.44642,34.34087],[132.44659,34.34149],[132.44982,34.34084],[132.4511,34.34516],[132.44974,34.34624],[132.44949,34.34684],[132.45072,34.34979],[132.4497,34.35097],[132.44992,34.3513],[132.45249,34.3528],[132.45681,34.3517],[132.45751,34.35144],[132.45796,34.35214],[132.45904,34.35225],[132.46002,34.35198],[132.46017,34.3531],[132.46336,34.35313],[132.46505,34.35301],[132.46913,34.35291],[132.46905,34.35208],[132.47016,34.35193],[132.47119,34.35336],[132.47851,34.35672],[132.47812,34.35731],[132.47904,34.35766],[132.47914,34.36275],[132.477,34.36373],[132.47734,34.36438],[132.48059,34.36294],[132.48066,34.36173],[132.47985,34.36174],[132.47979,34.3595],[132.48121,34.35946],[132.48111,34.35497],[132.48263,34.3536],[132.49197,34.35348],[132.49642,34.35702],[132.49749,34.35718],[132.50073,34.35731],[132.50082,34.35575],[132.50616,34.35573],[132.50865,34.35696],[132.50933,34.35903],[132.50983,34.35916],[132.51468,34.36261],[132.51463,34.36326],[132.51518,34.36381],[132.51592,34.36407],[132.5169,34.36509],[132.51759,34.3651],[132.51709,34.36727],[132.51604,34.3686],[132.51526,34.37039],[132.51513,34.37133],[132.51552,34.37229],[132.51639,34.37319],[132.51622,34.37503],[132.5137,34.37529],[132.51249,34.37517],[132.51104,34.3748],[132.51082,34.37614],[132.50934,34.37609],[132.50906,34.3755],[132.50448,34.37572],[132.5014,34.37603],[132.50081,34.37851],[132.50069,34.3806],[132.50034,34.38073],[132.49993,34.3832],[132.49922,34.3857],[132.49912,34.38825],[132.49972,34.38931],[132.4984,34.38983],[132.495,34.39202],[132.49154,34.3936],[132.48821,34.39404],[132.48589,34.39423],[132.48126,34.39505],[132.47989,34.39564],[132.47797,34.39694],[132.477,34.39784],[132.47747,34.39841],[132.47456,34.39991],[132.47374,34.39817],[132.47213,34.39894],[132.47063,34.40011],[132.46945,34.40238],[132.46854,34.40351],[132.4678,34.40387],[132.46741,34.40296],[132.46785,34.40157],[132.46974,34.39996],[132.47082,34.3982],[132.4708,34.39725],[132.4699,34.39447],[132.4695,34.3925],[132.46947,34.39139],[132.46966,34.39005],[132.47028,34.38807],[132.47026,34.38723],[132.46974,34.38623],[132.46826,34.38387],[132.46525,34.38078],[132.46438,34.38001],[132.46272,34.37801],[132.46092,34.37478],[132.46057,34.3709],[132.46014,34.3699],[132.45922,34.36853],[132.45738,34.36686],[132.45625,34.36567],[132.45516,34.36425],[132.45424,34.36331],[132.45169,34.36134],[132.44648,34.3577],[132.44553,34.35709],[132.43668,34.35308]]],[[[132.41647,34.29966],[132.41785,34.3007],[132.41859,34.30015],[132.4211,34.29939],[132.42144,34.29996],[132.42254,34.30021],[132.42277,34.30089],[132.42351,34.30138],[132.42334,34.30237],[132.42403,34.30281],[132.42522,34.30251],[132.42571,34.30185],[132.42583,34.30114],[132.42645,34.30058],[132.42809,34.30099],[132.43047,34.29925],[132.43184,34.29806],[132.43247,34.29817],[132.43341,34.29778],[132.43395,34.29845],[132.43477,34.2984],[132.43547,34.30035],[132.43685,34.30067],[132.43825,34.30022],[132.4396,34.29956],[132.43993,34.299],[132.44148,34.29806],[132.44177,34.29715],[132.44285,34.29701],[132.44256,34.29785],[132.44333,34.29878],[132.44262,34.29987],[132.44275,34.30054],[132.44223,34.30236],[132.44085,34.30224],[132.44025,34.30275],[132.43826,34.3039],[132.43812,34.30446],[132.43831,34.306],[132.44081,34.30707],[132.44172,34.30673],[132.44424,34.30782],[132.44392,34.3086],[132.444,34.30952],[132.44439,34.30998],[132.44433,34.31063],[132.44475,34.31172],[132.44475,34.31258],[132.44625,34.31425],[132.44769,34.31501],[132.44812,34.31612],[132.447,34.31658],[132.44554,34.31781],[132.4454,34.31966],[132.44597,34.32117],[132.44487,34.32171],[132.44451,34.32234],[132.44456,34.32379],[132.44412,34.32419],[132.44415,34.32524],[132.44269,34.32551],[132.43984,34.32565],[132.43914,34.32473],[132.43861,34.32456],[132.43668,34.32251],[132.4358,34.32228],[132.43454,34.32138],[132.4339,34.32143],[132.43254,34.3201],[132.43265,34.3185],[132.43253,34.31761],[132.43329,34.31678],[132.43368,34.31472],[132.43326,34.31348],[132.43285,34.31295],[132.43163,34.31256],[132.43038,34.31195],[132.4299,34.31219],[132.42928,34.31132],[132.42849,34.30902],[132.42862,34.30816],[132.427,34.30687],[132.42544,34.30635],[132.42403,34.30609],[132.42412,34.3057],[132.42328,34.30502],[132.42253,34.30486],[132.42189,34.3036],[132.42068,34.30287],[132.4185,34.30303],[132.41784,34.30294],[132.41634,34.30222],[132.41543,34.30234],[132.41452,34.30071],[132.41534,34.2997],[132.41583,34.30002],[132.41647,34.29966]]],[[[132.48488,34.33324],[132.48493,34.33377],[132.48552,34.33424],[132.48572,34.33513],[132.4866,34.33597],[132.48661,34.33747],[132.48688,34.3391],[132.48661,34.34002],[132.48535,34.34079],[132.48498,34.34049],[132.4839,34.34112],[132.48389,34.342],[132.4855,34.34371],[132.48556,34.34413],[132.48381,34.34575],[132.48233,34.34624],[132.48146,34.34697],[132.48035,34.34666],[132.47899,34.34678],[132.47748,34.34634],[132.4768,34.34586],[132.47677,34.3451],[132.47709,34.34421],[132.477,34.34363],[132.47752,34.34312],[132.47789,34.34218],[132.47728,34.34038],[132.47881,34.33883],[132.47947,34.33708],[132.47967,34.33613],[132.47946,34.33449],[132.48015,34.33376],[132.48048,34.33295],[132.48068,34.33126],[132.48119,34.33075],[132.48235,34.33073],[132.48488,34.33324]]],[[[132.45785,34.34612],[132.45827,34.34468],[132.45874,34.34415],[132.4586,34.34364],[132.45986,34.34323],[132.46075,34.34199],[132.46107,34.34082],[132.46217,34.34054],[132.463,34.33996],[132.46362,34.34091],[132.46491,34.34244],[132.46385,34.34446],[132.46444,34.34464],[132.46374,34.34759],[132.46301,34.34819],[132.46342,34.34848],[132.46298,34.35045],[132.46242,34.35096],[132.46137,34.35124],[132.46006,34.35103],[132.46001,34.35186],[132.4593,34.35169],[132.45878,34.3485],[132.45778,34.3465],[132.45785,34.34612]]],[[[132.4631,34.3111],[132.4641,34.3105],[132.46436,34.3113],[132.4653,34.31259],[132.46533,34.31314],[132.46462,34.31422],[132.46473,34.31523],[132.46398,34.31572],[132.46376,34.31639],[132.46267,34.31715],[132.46155,34.31665],[132.46043,34.31548],[132.46019,34.31358],[132.46048,34.31224],[132.46127,34.3113],[132.46194,34.31093],[132.4631,34.3111]]]]}},
  {"type":"Feature","properties":{"name":"西区","code":"34104"},"geometry":{"type":"MultiPolygon","coordinates":[[[[132.4618,34.41533],[132.46302,34.42007],[132.46377,34.42577],[132.46027,34.42559],[132.45851,34.42534],[132.45711,34.42495],[132.4555,34.42426],[132.45394,34.42548],[132.45322,34.42583],[132.45121,34.42598],[132.45033,34.42573],[132.44918,34.4249],[132.44749,34.42317],[132.44667,34.42279],[132.44515,34.42287],[132.44358,34.42316],[132.44189,34.42282],[132.43934,34.42385],[132.43853,34.42458],[132.43662,34.42509],[132.43431,34.42585],[132.432,34.42548],[132.43095,34.42495],[132.42923,34.42592],[132.42805,34.42725],[132.42671,34.42805],[132.42635,34.42774],[132.42525,34.42831],[132.42454,34.4284],[132.4235,34.42914],[132.42229,34.42959],[132.42106,34.42949],[132.41866,34.42775],[132.41796,34.4267],[132.41646,34.42673],[132.41487,34.42558],[132.41458,34.42507],[132.41492,34.42407],[132.41471,34.42307],[132.41405,34.42208],[132.41425,34.42093],[132.41278,34.41991],[132.41132,34.41751],[132.41008,34.41665],[132.40915,34.41456],[132.40814,34.41391],[132.40798,34.41275],[132.40747,34.41141],[132.4068,34.41083],[132.4066,34.40791],[132.40597,34.40661],[132.40496,34.40559],[132.40305,34.40404],[132.40218,34.40307],[132.40037,34.40422],[132.39864,34.40429],[132.39729,34.40456],[132.39671,34.40315],[132.39457,34.40386],[132.39365,34.40539],[132.39361,34.40618],[132.394,34.40766],[132.39345,34.40832],[132.39252,34.40873],[132.39083,34.40869],[132.39073,34.4076],[132.38942,34.40728],[132.38755,34.40828],[132.38666,34.40604],[132.38579,34.40519],[132.38561,34.40442],[132.38513,34.40433],[132.38442,34.4034],[132.38326,34.40336],[132.38267,34.40201],[132.38194,34.40133],[132.38061,34.40065],[132.38193,34.40023],[132.38345,34.39925],[132.38402,34.39866],[132.38523,34.39923],[132.386,34.39855],[132.38601,34.39767],[132.38894,34.39766],[132.39104,34.39641],[132.3915,34.39591],[132.39215,34.39638],[132.3926,34.39614],[132.39289,34.39528],[132.3921,34.39443],[132.39198,34.3935],[132.39226,34.3931],[132.39227,34.39211],[132.39124,34.39104],[132.39063,34.39097],[132.38992,34.39044],[132.38919,34.38922],[132.38742,34.38874],[132.38763,34.3878],[132.38733,34.38599],[132.38672,34.38535],[132.38658,34.38468],[132.38693,34.38411],[132.3848,34.38367],[132.38413,34.38411],[132.38319,34.38403],[132.38241,34.38497],[132.38121,34.38508],[132.38012,34.386],[132.37988,34.3853],[132.37864,34.38401],[132.37808,34.38284],[132.37654,34.38221],[132.37507,34.38088],[132.37451,34.38076],[132.37307,34.37916],[132.37153,34.37884],[132.37149,34.37803],[132.37091,34.37797],[132.37106,34.37678],[132.37175,34.37688],[132.3717,34.3756],[132.37188,34.37506],[132.37152,34.37156],[132.37147,34.37022],[132.37095,34.36953],[132.37249,34.36875],[132.37361,34.36777],[132.37493,34.36633],[132.37649,34.36399],[132.37819,34.36089],[132.38001,34.36124],[132.38131,34.36204],[132.38195,34.36127],[132.39414,34.36266],[132.3942,34.3623],[132.39647,34.36255],[132.3975,34.36302],[132.39926,34.36536],[132.40295,34.36345],[132.40197,34.36215],[132.40229,34.36198],[132.40327,34.36328],[132.40855,34.36053],[132.40794,34.35959],[132.41013,34.35859],[132.41137,34.35842],[132.41149,34.35803],[132.41321,34.3572],[132.41485,34.35973],[132.41747,34.35854],[132.41876,34.36002],[132.42048,34.35925],[132.42289,34.36296],[132.43181,34.37645],[132.43345,34.37843],[132.43586,34.3819],[132.43724,34.38351],[132.43763,34.38418],[132.43804,34.38577],[132.44134,34.38788],[132.44218,34.38857],[132.44287,34.39008],[132.44321,34.39143],[132.44363,34.39515],[132.44274,34.39738],[132.44317,34.39903],[132.44516,34.40129],[132.446,34.403],[132.4472,34.40433],[132.44876,34.40549],[132.45001,34.40558],[132.45245,34.40521],[132.45332,34.40544],[132.45537,34.40675],[132.45823,34.40824],[132.45946,34.4093],[132.46034,34.41102],[132.46131,34.41348],[132.4618,34.41533]]]]}},
  {"type":"Feature","properties":{"name":"安佐南区","code":"34105"},"geometry":{"type":"MultiPolygon","coordinates":[[[[132.48973,34.44335],[132.48965,34.44514],[132.48842,34.45209],[132.48842,34.45404],[132.48897,34.45585],[132.4899,34.45742],[132.49138,34.45928],[132.492,34.46025],[132.4926,34.46165],[132.49321,34.46402],[132.49391,34.46793],[132.49431,34.46942],[132.49521,34.47172],[132.49598,34.47313],[132.5,34.47688],[132.5015,34.47816],[132.50632,34.48245],[132.51043,34.48645],[132.51095,34.48709],[132.51155,34.48877],[132.51153,34.49004],[132.51116,34.49196],[132.51035,34.49443],[132.51041,34.49662],[132.51076,34.49791],[132.51089,34.50002],[132.51076,34.50071],[132.5099,34.50323],[132.50835,34.50741],[132.50783,34.50839],[132.50614,34.51048],[132.50497,34.51163],[132.50234,34.51355],[132.49987,34.51441],[132.49676,34.51503],[132.49486,34.51486],[132.49074,34.51377],[132.4883,34.51285],[132.48685,34.51218],[132.48652,34.51099],[132.48725,34.50721],[132.48743,34.50583],[132.48741,34.50406],[132.48652,34.50285],[132.48541,34.50246],[132.48413,34.50246],[132.4826,34.50307],[132.4819,34.50239],[132.48181,34.50011],[132.484,34.49759],[132.48436,34.49654],[132.48406,34.49572],[132.48443,34.49446],[132.48552,34.49408],[132.48584,34.49348],[132.48548,34.49223],[132.48566,34.49127],[132.48539,34.49076],[132.48416,34.48937],[132.48337,34.48816],[132.48126,34.48778],[132.4797,34.4877],[132.47892,34.4874],[132.47665,34.4875],[132.47492,34.48775],[132.47243,34.48838],[132.47198,34.48825],[132.47061,34.48708],[132.46978,34.48611],[132.46909,34.48565],[132.46824,34.48552],[132.46746,34.48629],[132.46607,34.48683],[132.46553,34.48767],[132.46344,34.48805],[132.4638,34.48909],[132.46224,34.48949],[132.46207,34.48995],[132.46102,34.48977],[132.45917,34.49039],[132.45847,34.49007],[132.45723,34.49034],[132.45694,34.49063],[132.45704,34.49208],[132.45747,34.49374],[132.45706,34.4944],[132.45557,34.49415],[132.45468,34.49418],[132.45374,34.49509],[132.45231,34.49535],[132.45149,34.49484],[132.44985,34.49413],[132.4487,34.49335],[132.44639,34.49357],[132.44451,34.494],[132.44316,34.49446],[132.44191,34.49546],[132.43975,34.49598],[132.43746,34.49602],[132.43595,34.49584],[132.43413,34.49631],[132.43236,34.49654],[132.42973,34.49578],[132.42864,34.49509],[132.42756,34.4948],[132.42569,34.49495],[132.42306,34.49352],[132.4232,34.49097],[132.42424,34.49009],[132.42437,34.48925],[132.42334,34.48884],[132.42175,34.48927],[132.41912,34.48791],[132.41816,34.48813],[132.41673,34.4878],[132.41332,34.48793],[132.41225,34.48829],[132.40889,34.48802],[132.40743,34.48739],[132.40638,34.48725],[132.40549,34.48609],[132.40385,34.48517],[132.40307,34.48562],[132.40219,34.48517],[132.40305,34.48455],[132.40258,34.4835],[132.40345,34.48309],[132.40318,34.48259],[132.40189,34.48264],[132.40089,34.48333],[132.39967,34.48468],[132.39891,34.48493],[132.39779,34.48485],[132.39743,34.48521],[132.39568,34.4858],[132.39399,34.48598],[132.39198,34.48711],[132.39057,34.48726],[132.38941,34.48685],[132.38874,34.48742],[132.3883,34.48896],[132.38776,34.4898],[132.38743,34.49124],[132.38928,34.49222],[132.39004,34.49335],[132.38962,34.4941],[132.38981,34.49506],[132.38925,34.49621],[132.38964,34.49851],[132.3904,34.50029],[132.39021,34.5014],[132.38977,34.50213],[132.38959,34.50323],[132.39003,34.50351],[132.39059,34.50492],[132.3904,34.50575],[132.3889,34.50718],[132.38786,34.5071],[132.38715,34.50773],[132.38593,34.50815],[132.38328,34.50853],[132.38222,34.5092],[132.38204,34.50992],[132.38118,34.51085],[132.3801,34.51127],[132.38016,34.51248],[132.38091,34.51332],[132.38033,34.51482],[132.37996,34.51527],[132.37893,34.51544],[132.378,34.51525],[132.37618,34.51552],[132.37287,34.51508],[132.37248,34.51602],[132.37183,34.51639],[132.37168,34.51718],[132.37107,34.51714],[132.3702,34.51616],[132.37004,34.51544],[132.36946,34.51531],[132.36801,34.51584],[132.36749,34.5163],[132.36596,34.51555],[132.36489,34.51547],[132.36404,34.51578],[132.36293,34.5157],[132.36162,34.51594],[132.36037,34.51583],[132.35941,34.51643],[132.35784,34.51671],[132.35641,34.51632],[132.35457,34.51651],[132.35356,34.51688],[132.35129,34.5162],[132.34976,34.51634],[132.34786,34.51631],[132.34732,34.5166],[132.34677,34.51746],[132.3458,34.51842],[132.34496,34.51893],[132.34447,34.51961],[132.34346,34.51861],[132.34333,34.518],[132.34273,34.51747],[132.34204,34.51635],[132.3408,34.51526],[132.34066,34.51463],[132.34123,34.51408],[132.34164,34.51288],[132.34246,34.51143],[132.3431,34.51072],[132.34275,34.50992],[132.34177,34.50881],[132.34165,34.50686],[132.34196,34.50613],[132.34168,34.50527],[132.3428,34.5042],[132.34274,34.50323],[132.34235,34.5024],[132.34236,34.50066],[132.34154,34.50031],[132.34162,34.49872],[132.3403,34.49823],[132.34019,34.4976],[132.33938,34.4971],[132.3386,34.49601],[132.33767,34.49571],[132.33727,34.49528],[132.33721,34.4945],[132.33625,34.49344],[132.33464,34.49251],[132.33275,34.49208],[132.33055,34.49204],[132.32972,34.4907],[132.32876,34.49036],[132.32916,34.48865],[132.32967,34.48806],[132.33025,34.48612],[132.33062,34.48551],[132.3295,34.48425],[132.32767,34.48338],[132.32562,34.48203],[132.32443,34.48088],[132.32373,34.48067],[132.32318,34.48093],[132.32171,34.48053],[132.32058,34.47921],[132.31987,34.47871],[132.31892,34.47885],[132.31651,34.4776],[132.31432,34.47764],[132.31271,34.47789],[132.3088,34.47739],[132.30763,34.47586],[132.3078,34.47371],[132.30886,34.47294],[132.30955,34.47163],[132.31082,34.47059],[132.31236,34.47026],[132.31279,34.46988],[132.31302,34.46897],[132.31394,34.46859],[132.31408,34.46565],[132.31383,34.46424],[132.31501,34.4628],[132.31522,34.46204],[132.31473,34.46187],[132.31325,34.4604],[132.31186,34.45984],[132.31096,34.45869],[132.30988,34.45697],[132.3105,34.45629],[132.31233,34.45575],[132.31363,34.45499],[132.31445,34.45404],[132.31643,34.45284],[132.31893,34.45187],[132.3202,34.45121],[132.32039,34.45081],[132.31995,34.45003],[132.31993,34.44941],[132.32182,34.44821],[132.32278,34.44714],[132.3239,34.44678],[132.32426,34.44593],[132.3253,34.44485],[132.32602,34.44357],[132.32748,34.44259],[132.32913,34.44129],[132.33078,34.43906],[132.33194,34.43789],[132.33325,34.43863],[132.33666,34.43949],[132.33914,34.44097],[132.33995,34.44073],[132.34107,34.44072],[132.34224,34.44045],[132.34376,34.44076],[132.34475,34.44062],[132.34619,34.43967],[132.34747,34.4396],[132.34838,34.43997],[132.34928,34.43981],[132.3502,34.43901],[132.35142,34.43964],[132.35229,34.44056],[132.35316,34.44095],[132.35357,34.44163],[132.35543,34.44225],[132.35653,34.44214],[132.35801,34.44255],[132.35855,34.44287],[132.35933,34.44392],[132.35894,34.44478],[132.35894,34.44558],[132.35856,34.44671],[132.35896,34.44745],[132.35883,34.44816],[132.35907,34.44925],[132.35953,34.44975],[132.36065,34.4501],[132.36164,34.45015],[132.36365,34.44933],[132.36417,34.44926],[132.36587,34.44752],[132.36705,34.44796],[132.36821,34.44792],[132.36996,34.44753],[132.3733,34.44787],[132.37444,34.4482],[132.3751,34.44811],[132.37655,34.4484],[132.37669,34.44808],[132.37782,34.44792],[132.37705,34.44662],[132.37757,34.44522],[132.37893,34.44527],[132.38493,34.44638],[132.38505,34.44596],[132.38621,34.44619],[132.38758,34.44623],[132.3885,34.44598],[132.3889,34.44521],[132.38865,34.44472],[132.38994,34.44412],[132.39084,34.44414],[132.39241,34.44384],[132.39283,34.44321],[132.39265,34.44275],[132.39132,34.44262],[132.39067,34.4429],[132.39028,34.44246],[132.38817,34.44224],[132.38735,34.44106],[132.38734,34.44026],[132.38701,34.43968],[132.3878,34.43811],[132.38782,34.43629],[132.38714,34.43548],[132.38755,34.43425],[132.38809,34.43375],[132.39025,34.43447],[132.39093,34.43447],[132.39244,34.4355],[132.39403,34.43516],[132.39476,34.43547],[132.39603,34.43491],[132.39604,34.43457],[132.39801,34.43302],[132.39859,34.43343],[132.39963,34.43349],[132.39985,34.43147],[132.40018,34.4313],[132.40172,34.43143],[132.40218,34.43128],[132.40419,34.43133],[132.40582,34.43066],[132.40678,34.43054],[132.40742,34.42995],[132.40953,34.42892],[132.41096,34.42903],[132.41189,34.42931],[132.41448,34.42866],[132.41459,34.42682],[132.41411,34.42597],[132.41458,34.42507],[132.41487,34.42558],[132.41646,34.42673],[132.41796,34.4267],[132.41866,34.42775],[132.42106,34.42949],[132.42229,34.42959],[132.4235,34.42914],[132.42454,34.4284],[132.42525,34.42831],[132.42635,34.42774],[132.42671,34.42805],[132.42805,34.42725],[132.42923,34.42592],[132.43095,34.42495],[132.432,34.42548],[132.43431,34.42585],[132.43662,34.42509],[132.43853,34.42458],[132.43934,34.42385],[132.44189,34.42282],[132.44358,34.42316],[132.44515,34.42287],[132.44667,34.42279],[132.44749,34.42317],[132.44918,34.4249],[132.45033,34.42573],[132.45121,34.42598],[132.45322,34.42583],[132.45394,34.42548],[132.4555,34.42426],[132.45711,34.42495],[132.45851,34.42534],[132.46027,34.42559],[132.46377,34.42577],[132.46523,34.42622],[132.46798,34.42826],[132.47085,34.43082],[132.47527,34.43572],[132.477,34.43715],[132.47803,34.43783],[132.48102,34.43923],[132.48337,34.43989],[132.48448,34.44002],[132.48677,34.44055],[132.48779,34.44094],[132.4889,34.44167],[132.48945,34.44239],[132.48973,34.44335]]]]}},
  {"type":"Feature","properties":{"name":"安佐北区","code":"34106"},"geometry":{"type":"MultiPolygon","coordinates":[[[[132.57222,34.43635],[132.57293,34.43759],[132.57433,34.43879],[132.57517,34.43898],[132.5754,34.43996],[132.57682,34.44191],[132.57704,34.44253],[132.57819,34.44289],[132.57879,34.44354],[132.58076,34.44423],[132.58152,34.44555],[132.58235,34.44576],[132.5838,34.44684],[132.58416,34.44747],[132.58496,34.44794],[132.58595,34.44787],[132.58684,34.44748],[132.58744,34.44753],[132.58839,34.44825],[132.58945,34.44977],[132.59151,34.45054],[132.59372,34.4519],[132.59404,34.45253],[132.59522,34.45323],[132.59592,34.45428],[132.59782,34.45515],[132.59851,34.45595],[132.60052,34.45728],[132.60044,34.45754],[132.60104,34.45911],[132.60112,34.45975],[132.60068,34.46048],[132.60055,34.46208],[132.60143,34.46285],[132.60135,34.4636],[132.60182,34.46385],[132.60228,34.46541],[132.60281,34.46624],[132.60252,34.46806],[132.60387,34.46935],[132.6039,34.46985],[132.60488,34.47096],[132.606,34.47175],[132.60608,34.47254],[132.60668,34.47389],[132.60628,34.47443],[132.60562,34.47596],[132.60569,34.47649],[132.60651,34.47733],[132.60729,34.47757],[132.60897,34.47772],[132.60898,34.47799],[132.61023,34.47839],[132.6088,34.47954],[132.60779,34.48012],[132.60685,34.48105],[132.60525,34.48143],[132.60475,34.48185],[132.60192,34.48325],[132.60104,34.48345],[132.60147,34.48443],[132.60194,34.48486],[132.60187,34.48559],[132.60303,34.48717],[132.60382,34.48759],[132.60481,34.48854],[132.60677,34.48912],[132.60886,34.49],[132.60916,34.49029],[132.61114,34.49074],[132.61314,34.49091],[132.61389,34.4912],[132.61544,34.49079],[132.61866,34.49078],[132.62014,34.49162],[132.62228,34.49344],[132.62371,34.49425],[132.62555,34.49598],[132.62616,34.49731],[132.6283,34.4983],[132.62886,34.50006],[132.62975,34.50131],[132.62985,34.5018],[132.63089,34.50321],[132.63105,34.50378],[132.63099,34.50557],[132.63343,34.50704],[132.63531,34.50642],[132.63618,34.50545],[132.63811,34.50544],[132.64028,34.50524],[132.64258,34.50552],[132.64439,34.50529],[132.64556,34.50576],[132.64669,34.50679],[132.64675,34.50951],[132.64827,34.51174],[132.64851,34.51286],[132.64901,34.51386],[132.64913,34.51461],[132.64825,34.51573],[132.64809,34.51623],[132.64866,34.51733],[132.64917,34.51942],[132.64993,34.51966],[132.65098,34.51961],[132.65296,34.52136],[132.65414,34.52194],[132.65436,34.52236],[132.65596,34.52337],[132.65699,34.5235],[132.66104,34.5255],[132.66234,34.52601],[132.66294,34.52654],[132.66355,34.52938],[132.66348,34.52973],[132.66538,34.53155],[132.66666,34.53037],[132.668,34.52948],[132.66883,34.52915],[132.6695,34.5314],[132.67124,34.53316],[132.67222,34.53387],[132.67301,34.53313],[132.67334,34.53126],[132.67369,34.53043],[132.67506,34.52982],[132.67582,34.52977],[132.6782,34.5288],[132.67908,34.52818],[132.6806,34.52759],[132.68146,34.5276],[132.68257,34.52715],[132.68356,34.5271],[132.68422,34.52681],[132.68491,34.52534],[132.68824,34.5277],[132.68948,34.52925],[132.69066,34.52908],[132.69313,34.52938],[132.69337,34.53018],[132.69401,34.53101],[132.69446,34.53214],[132.69389,34.53306],[132.69424,34.53447],[132.6951,34.53486],[132.6961,34.53583],[132.69354,34.53662],[132.69168,34.536],[132.69148,34.53548],[132.68945,34.5348],[132.6881,34.53582],[132.68817,34.53663],[132.68897,34.53705],[132.69019,34.53818],[132.69008,34.53893],[132.68885,34.54],[132.6879,34.54004],[132.68728,34.54057],[132.68688,34.54136],[132.68816,34.54211],[132.68952,34.5434],[132.69029,34.54369],[132.69138,34.54512],[132.69204,34.54551],[132.69208,34.54626],[132.69047,34.54833],[132.69016,34.54947],[132.69113,34.55113],[132.69116,34.55156],[132.69056,34.55307],[132.68962,34.55421],[132.68955,34.55465],[132.68827,34.55527],[132.6876,34.55667],[132.68835,34.55836],[132.68884,34.55885],[132.69048,34.5586],[132.6911,34.55884],[132.69151,34.55964],[132.69064,34.56003],[132.68998,34.56096],[132.68988,34.56183],[132.68875,34.56282],[132.68728,34.56297],[132.68638,34.56371],[132.68559,34.56469],[132.68329,34.56552],[132.68336,34.56649],[132.68384,34.56684],[132.68423,34.5677],[132.68403,34.56931],[132.68461,34.56996],[132.68561,34.57211],[132.68645,34.5724],[132.68788,34.5737],[132.68864,34.57474],[132.68861,34.57546],[132.68775,34.57613],[132.68825,34.57695],[132.68961,34.57762],[132.69007,34.57838],[132.69126,34.57884],[132.6914,34.57967],[132.69209,34.5805],[132.69273,34.58232],[132.69409,34.5839],[132.69351,34.58506],[132.69204,34.58703],[132.69209,34.58838],[132.69351,34.58951],[132.69292,34.58985],[132.69205,34.59114],[132.69116,34.59208],[132.68937,34.59338],[132.68802,34.5951],[132.68639,34.59628],[132.68565,34.59648],[132.68412,34.59788],[132.68337,34.59874],[132.68314,34.59955],[132.68218,34.60072],[132.68182,34.60147],[132.68058,34.60274],[132.67911,34.60398],[132.67767,34.60401],[132.67732,34.60426],[132.67608,34.60419],[132.6746,34.60485],[132.67325,34.60524],[132.67157,34.60675],[132.67246,34.60851],[132.67449,34.60921],[132.67421,34.61068],[132.67284,34.61106],[132.67182,34.61092],[132.67032,34.61022],[132.66945,34.6082],[132.66847,34.60679],[132.6684,34.60603],[132.66704,34.60634],[132.6656,34.60703],[132.66483,34.60691],[132.66308,34.60506],[132.66091,34.60395],[132.66006,34.60241],[132.65984,34.60111],[132.65911,34.60088],[132.6576,34.60133],[132.65702,34.60085],[132.65578,34.60084],[132.65396,34.59953],[132.65248,34.59907],[132.65129,34.59943],[132.65056,34.60098],[132.64826,34.60075],[132.64759,34.60117],[132.64653,34.60108],[132.64572,34.60203],[132.64393,34.60174],[132.64284,34.60108],[132.64076,34.60061],[132.64016,34.60001],[132.63775,34.59889],[132.63615,34.59839],[132.63568,34.59778],[132.63572,34.59667],[132.63387,34.59589],[132.63248,34.59716],[132.63126,34.59773],[132.62829,34.59878],[132.62711,34.59866],[132.62636,34.59886],[132.62527,34.59875],[132.62462,34.59926],[132.6245,34.60005],[132.62325,34.60014],[132.62158,34.59974],[132.61958,34.59875],[132.61777,34.59934],[132.61715,34.59995],[132.61497,34.60034],[132.61425,34.60112],[132.61359,34.60119],[132.61223,34.60035],[132.60997,34.59698],[132.60864,34.59629],[132.60804,34.59471],[132.6078,34.59299],[132.60913,34.59235],[132.61037,34.59228],[132.61073,34.59163],[132.61028,34.59074],[132.6089,34.58967],[132.60847,34.58904],[132.60834,34.58775],[132.6086,34.58719],[132.6082,34.58604],[132.6073,34.58593],[132.60647,34.58621],[132.6051,34.58538],[132.60384,34.58591],[132.60241,34.58484],[132.60131,34.58444],[132.60034,34.583],[132.59963,34.58295],[132.59862,34.58211],[132.59794,34.58221],[132.59696,34.58358],[132.59673,34.58456],[132.59619,34.58534],[132.59555,34.58522],[132.595,34.58459],[132.59403,34.58414],[132.59241,34.58295],[132.59056,34.58201],[132.59026,34.58158],[132.59095,34.58043],[132.59062,34.57915],[132.59061,34.57759],[132.59131,34.57657],[132.59081,34.57523],[132.58927,34.5741],[132.58833,34.5732],[132.58771,34.57217],[132.5876,34.57124],[132.58643,34.57028],[132.58537,34.5699],[132.58505,34.56935],[132.58363,34.56856],[132.58294,34.56895],[132.58152,34.56862],[132.58076,34.56925],[132.58027,34.56888],[132.58039,34.56802],[132.58021,34.56711],[132.57962,34.56659],[132.57966,34.56549],[132.57814,34.56402],[132.5776,34.56374],[132.57652,34.56373],[132.57559,34.56319],[132.5745,34.56317],[132.57377,34.56274],[132.57319,34.56319],[132.57333,34.56403],[132.57278,34.56469],[132.57297,34.56594],[132.57157,34.56658],[132.57192,34.56778],[132.57075,34.56839],[132.5706,34.56954],[132.56993,34.56999],[132.57013,34.57094],[132.56939,34.57142],[132.56919,34.57256],[132.56832,34.57223],[132.5675,34.57224],[132.56652,34.57269],[132.56566,34.57212],[132.56464,34.57246],[132.56445,34.57312],[132.56369,34.57341],[132.56273,34.57521],[132.56168,34.57616],[132.56055,34.57686],[132.55938,34.577],[132.55802,34.57617],[132.55722,34.57612],[132.55637,34.57645],[132.55541,34.57736],[132.5544,34.57692],[132.55386,34.57701],[132.55318,34.57791],[132.55187,34.57778],[132.55073,34.57829],[132.55059,34.5791],[132.54969,34.58013],[132.54693,34.58152],[132.54599,34.58223],[132.54495,34.58251],[132.54475,34.58316],[132.54401,34.58365],[132.54316,34.58381],[132.54006,34.5838],[132.53852,34.58322],[132.53723,34.58431],[132.53524,34.58474],[132.53354,34.58685],[132.53156,34.58747],[132.53074,34.58818],[132.53145,34.58959],[132.53265,34.5909],[132.53251,34.59191],[132.53282,34.59275],[132.53351,34.59326],[132.53346,34.59417],[132.53277,34.59481],[132.5324,34.59402],[132.53095,34.59399],[132.53032,34.59529],[132.52957,34.59725],[132.5282,34.59826],[132.52747,34.59856],[132.52766,34.59924],[132.52737,34.60004],[132.52766,34.60084],[132.52812,34.60106],[132.52719,34.60185],[132.52629,34.60296],[132.52603,34.60393],[132.52567,34.60415],[132.52537,34.6053],[132.52484,34.60638],[132.5243,34.60673],[132.52186,34.60612],[132.52127,34.60633],[132.52113,34.607],[132.52016,34.60727],[132.51938,34.60698],[132.51909,34.6063],[132.51838,34.60555],[132.51735,34.60488],[132.51717,34.60335],[132.51686,34.60284],[132.51509,34.60192],[132.51486,34.60106],[132.51381,34.59977],[132.513,34.5985],[132.51275,34.59757],[132.51182,34.59643],[132.51013,34.59588],[132.5091,34.59589],[132.50788,34.59539],[132.50693,34.59479],[132.50603,34.59477],[132.50538,34.59536],[132.50456,34.59502],[132.5015,34.59435],[132.50063,34.59386],[132.49935,34.5937],[132.49858,34.59495],[132.49806,34.5971],[132.4983,34.59802],[132.49818,34.59896],[132.49688,34.60009],[132.4959,34.60117],[132.49402,34.60208],[132.49246,34.60201],[132.48959,34.60333],[132.48933,34.60393],[132.48788,34.60535],[132.48759,34.60597],[132.48648,34.60589],[132.48548,34.60621],[132.484,34.60631],[132.48299,34.60594],[132.48126,34.60611],[132.4797,34.60779],[132.47907,34.6076],[132.47856,34.60817],[132.4795,34.61043],[132.48023,34.61115],[132.48035,34.61176],[132.47966,34.61236],[132.47751,34.61348],[132.47559,34.61397],[132.47478,34.61435],[132.47242,34.61477],[132.46973,34.61405],[132.46826,34.61415],[132.46533,34.61356],[132.46442,34.61384],[132.46298,34.61265],[132.46224,34.61267],[132.46136,34.61177],[132.46161,34.60992],[132.4606,34.60864],[132.46009,34.60828],[132.45975,34.60747],[132.45901,34.60647],[132.45657,34.6048],[132.45656,34.6042],[132.45723,34.6036],[132.45665,34.60324],[132.45464,34.60315],[132.45406,34.60205],[132.45285,34.60144],[132.45082,34.60021],[132.44971,34.59976],[132.44902,34.59886],[132.44823,34.59863],[132.44701,34.59767],[132.4461,34.59653],[132.44478,34.59566],[132.44426,34.59499],[132.44182,34.59343],[132.43894,34.592],[132.43749,34.59317],[132.43548,34.59444],[132.43499,34.5956],[132.43398,34.59642],[132.43305,34.59671],[132.43249,34.59735],[132.43121,34.59751],[132.43067,34.59728],[132.43029,34.59885],[132.43058,34.59947],[132.43019,34.60067],[132.42954,34.60099],[132.42844,34.60055],[132.42775,34.60145],[132.42585,34.60318],[132.42302,34.60289],[132.42214,34.60327],[132.42072,34.60312],[132.42004,34.60282],[132.4198,34.60225],[132.41888,34.60168],[132.41838,34.601],[132.41715,34.60001],[132.41529,34.59913],[132.41363,34.5996],[132.41254,34.59961],[132.41164,34.60021],[132.41026,34.60079],[132.40883,34.60158],[132.40699,34.60299],[132.40617,34.60305],[132.40468,34.60235],[132.40389,34.59962],[132.40225,34.60068],[132.40089,34.60206],[132.40005,34.60389],[132.3996,34.60414],[132.39899,34.60292],[132.39678,34.60069],[132.39466,34.59913],[132.39445,34.59756],[132.393,34.59601],[132.39271,34.59534],[132.39124,34.59392],[132.39035,34.5924],[132.39014,34.59163],[132.3905,34.58975],[132.39099,34.58885],[132.39149,34.58615],[132.39178,34.58538],[132.39019,34.5846],[132.3891,34.58378],[132.38776,34.58371],[132.38729,34.58311],[132.38772,34.58179],[132.38786,34.58071],[132.38758,34.57995],[132.38796,34.57775],[132.39028,34.57796],[132.38952,34.57668],[132.38913,34.57643],[132.3889,34.57538],[132.38814,34.57327],[132.38955,34.57174],[132.39068,34.57107],[132.38986,34.56951],[132.38965,34.56764],[132.39057,34.56574],[132.39054,34.5648],[132.38977,34.56219],[132.38802,34.56182],[132.38675,34.56121],[132.38583,34.55981],[132.38578,34.55858],[132.38686,34.55633],[132.38668,34.55425],[132.3849,34.55343],[132.38346,34.55419],[132.38232,34.55423],[132.38145,34.5537],[132.37961,34.55182],[132.3787,34.55121],[132.37727,34.5509],[132.37481,34.55099],[132.37469,34.55037],[132.37476,34.54803],[132.37373,34.54801],[132.37305,34.54728],[132.37151,34.54756],[132.36987,34.54681],[132.36871,34.54583],[132.36882,34.54514],[132.36767,34.54498],[132.36777,34.54433],[132.36857,34.54348],[132.36827,34.54278],[132.36848,34.5418],[132.36747,34.54087],[132.367,34.54007],[132.36516,34.53925],[132.36432,34.53916],[132.36359,34.53875],[132.36179,34.5387],[132.35992,34.53815],[132.35918,34.53769],[132.35982,34.53579],[132.3605,34.53535],[132.36043,34.53476],[132.35732,34.53421],[132.35591,34.53345],[132.35549,34.53302],[132.35384,34.53224],[132.35311,34.53167],[132.35241,34.53076],[132.35124,34.53137],[132.35056,34.5312],[132.34832,34.52906],[132.34659,34.52896],[132.34499,34.5278],[132.34451,34.52719],[132.3439,34.52697],[132.34319,34.52523],[132.34254,34.52447],[132.34302,34.52364],[132.34426,34.52233],[132.34503,34.52188],[132.34506,34.52069],[132.34447,34.51961],[132.34496,34.51893],[132.3458,34.51842],[132.34677,34.51746],[132.34732,34.5166],[132.34786,34.51631],[132.34976,34.51634],[132.35129,34.5162],[132.35356,34.51688],[132.35457,34.51651],[132.35641,34.51632],[132.35784,34.51671],[132.35941,34.51643],[132.36037,34.51583],[132.36162,34.51594],[132.36293,34.5157],[132.36404,34.51578],[132.36489,34.51547],[132.36596,34.51555],[132.36749,34.5163],[132.36801,34.51584],[132.36946,34.51531],[132.37004,34.51544],[132.3702,34.51616],[132.37107,34.51714],[132.37168,34.51718],[132.37183,34.51639],[132.37248,34.51602],[132.37287,34.51508],[132.37618,34.51552],[132.378,34.51525],[132.37893,34.51544],[132.37996,34.51527],[132.38033,34.51482],[132.38091,34.51332],[132.38016,34.51248],[132.3801,34.51127],[132.38118,34.51085],[132.38204,34.50992],[132.38222,34.5092],[132.38328,34.50853],[132.38593,34.50815],[132.38715,34.50773],[132.38786,34.5071],[132.3889,34.50718],[132.3904,34.50575],[132.39059,34.50492],[132.39003,34.50351],[132.38959,34.50323],[132.38977,34.50213],[132.39021,34.5014],[132.3904,34.50029],[132.38964,34.49851],[132.38925,34.49621],[132.38981,34.49506],[132.38962,34.4941],[132.39004,34.49335],[132.38928,34.49222],[132.38743,34.49124],[132.38776,34.4898],[132.3883,34.48896],[132.38874,34.48742],[132.38941,34.48685],[132.39057,34.48726],[132.39198,34.48711],[132.39399,34.48598],[132.39568,34.4858],[132.39743,34.48521],[132.39779,34.48485],[132.39891,34.48493],[132.39967,34.48468],[132.40089,34.48333],[132.40189,34.48264],[132.40318,34.48259],[132.40345,34.48309],[132.40258,34.4835],[132.40305,34.48455],[132.40219,34.48517],[132.40307,34.48562],[132.40385,34.48517],[132.40549,34.48609],[132.40638,34.48725],[132.40743,34.48739],[132.40889,34.48802],[132.41225,34.48829],[132.41332,34.48793],[132.41673,34.4878],[132.41816,34.48813],[132.41912,34.48791],[132.42175,34.48927],[132.42334,34.48884],[132.42437,34.48925],[132.42424,34.49009],[132.4232,34.49097],[132.42306,34.49352],[132.42569,34.49495],[132.42756,34.4948],[132.42864,34.49509],[132.42973,34.49578],[132.43236,34.49654],[132.43413,34.49631],[132.43595,34.49584],[132.43746,34.49602],[132.43975,34.49598],[132.44191,34.49546],[132.44316,34.49446],[132.44451,34.494],[132.44639,34.49357],[132.4487,34.49335],[132.44985,34.49413],[132.45149,34.49484],[132.45231,34.49535],[132.45374,34.49509],[132.45468,34.49418],[132.45557,34.49415],[132.45706,34.4944],[132.45747,34.49374],[132.45704,34.49208],[132.45694,34.49063],[132.45723,34.49034],[132.45847,34.49007],[132.45917,34.49039],[132.46102,34.48977],[132.46207,34.48995],[132.46224,34.48949],[132.4638,34.48909],[132.46344,34.48805],[132.46553,34.48767],[132.46607,34.48683],[132.46746,34.48629],[132.46824,34.48552],[132.46909,34.48565],[132.46978,34.48611],[132.47061,34.48708],[132.47198,34.48825],[132.47243,34.48838],[132.47492,34.48775],[132.47665,34.4875],[132.47892,34.4874],[132.4797,34.4877],[132.48126,34.48778],[132.48337,34.48816],[132.48416,34.48937],[132.48539,34.49076],[132.48566,34.49127],[132.48548,34.49223],[132.48584,34.49348],[132.48552,34.49408],[132.48443,34.49446],[132.48406,34.49572],[132.48436,34.49654],[132.484,34.49759],[132.48181,34.50011],[132.4819,34.50239],[132.4826,34.50307],[132.48413,34.50246],[132.48541,34.50246],[132.48652,34.50285],[132.48741,34.50406],[132.48743,34.50583],[132.48725,34.50721],[132.48652,34.51099],[132.48685,34.51218],[132.4883,34.51285],[132.49074,34.51377],[132.49486,34.51486],[132.49676,34.51503],[132.49987,34.51441],[132.50234,34.51355],[132.50497,34.51163],[132.50614,34.51048],[132.50783,34.50839],[132.50835,34.50741],[132.5099,34.50323],[132.51076,34.50071],[132.51089,34.50002],[132.51076,34.49791],[132.51041,34.49662],[132.51035,34.49443],[132.51116,34.49196],[132.51153,34.49004],[132.51155,34.48877],[132.51095,34.48709],[132.51043,34.48645],[132.50632,34.48245],[132.5015,34.47816],[132.5,34.47688],[132.49598,34.47313],[132.49521,34.47172],[132.49431,34.46942],[132.49391,34.46793],[132.49321,34.46402],[132.4926,34.46165],[132.492,34.46025],[132.49138,34.45928],[132.4899,34.45742],[132.48897,34.45585],[132.48842,34.45404],[132.48842,34.45209],[132.48965,34.44514],[132.48973,34.44335],[132.49234,34.44291],[132.49373,34.44258],[132.49509,34.44172],[132.49611,34.44139],[132.4968,34.44031],[132.49918,34.4403],[132.50009,34.44052],[132.50014,34.44118],[132.50076,34.44179],[132.50057,34.4429],[132.50115,34.44488],[132.50325,34.44477],[132.504,34.44518],[132.50437,34.4459],[132.5053,34.44649],[132.50643,34.44693],[132.50838,34.44633],[132.50894,34.44676],[132.50963,34.44598],[132.51112,34.44594],[132.51147,34.44534],[132.51372,34.44629],[132.51429,34.4467],[132.51478,34.448],[132.51535,34.44852],[132.51655,34.44887],[132.51837,34.44826],[132.51944,34.44714],[132.52182,34.44676],[132.5235,34.44773],[132.52574,34.44805],[132.52582,34.44931],[132.52678,34.45169],[132.52737,34.45408],[132.52789,34.4548],[132.52793,34.4557],[132.52955,34.45665],[132.53017,34.45727],[132.53168,34.45962],[132.53127,34.46051],[132.53186,34.46176],[132.534,34.46263],[132.53491,34.46332],[132.53597,34.46257],[132.5368,34.46226],[132.53878,34.46204],[132.53994,34.46209],[132.54055,34.46163],[132.5414,34.46166],[132.54225,34.46216],[132.54373,34.46149],[132.54514,34.46189],[132.54699,34.46285],[132.54942,34.46292],[132.55087,34.46325],[132.55146,34.46202],[132.5523,34.4614],[132.55344,34.45992],[132.55336,34.45915],[132.55274,34.45796],[132.55376,34.45671],[132.55477,34.45605],[132.55803,34.4547],[132.55873,34.45387],[132.55947,34.45335],[132.56094,34.45293],[132.56151,34.45227],[132.56267,34.45153],[132.56298,34.45012],[132.56356,34.44918],[132.56446,34.44821],[132.56378,34.44709],[132.56348,34.44508],[132.5651,34.4422],[132.5664,34.4407],[132.56695,34.43917],[132.56941,34.43759],[132.57087,34.43734],[132.57222,34.43635]]]]}},
  {"type":"Feature","properties":{"name":"安芸区","code":"34107"},"geometry":{"type":"MultiPolygon","coordinates":[[[[132.54072,34.41767],[132.5397,34.41619],[132.53969,34.4154],[132.53932,34.41503],[132.53883,34.41209],[132.53768,34.4113],[132.53556,34.41049],[132.53526,34.40977],[132.53477,34.40948],[132.53435,34.40815],[132.53364,34.40787],[132.53301,34.40666],[132.53309,34.40592],[132.53223,34.40451],[132.53304,34.40263],[132.53278,34.4012],[132.53216,34.40005],[132.5307,34.39961],[132.53033,34.39854],[132.53123,34.39666],[132.53009,34.39589],[132.5293,34.39422],[132.52834,34.39349],[132.52863,34.39235],[132.52782,34.39101],[132.52775,34.38841],[132.52683,34.3878],[132.52534,34.38777],[132.52352,34.38682],[132.5232,34.38562],[132.52274,34.38488],[132.52188,34.38436],[132.52077,34.38322],[132.51877,34.38305],[132.51828,34.38083],[132.51607,34.37933],[132.5149,34.37802],[132.51493,34.37699],[132.5159,34.3767],[132.51622,34.37503],[132.51639,34.37319],[132.51552,34.37229],[132.51513,34.37133],[132.51526,34.37039],[132.51604,34.3686],[132.51709,34.36727],[132.51759,34.3651],[132.51853,34.3646],[132.51785,34.3638],[132.51816,34.36221],[132.52379,34.36673],[132.5274,34.36849],[132.52843,34.37152],[132.52942,34.37288],[132.52986,34.37316],[132.53054,34.37445],[132.53063,34.3753],[132.53105,34.37605],[132.53191,34.37663],[132.53343,34.377],[132.53346,34.37746],[132.53469,34.3784],[132.53547,34.37877],[132.53635,34.3802],[132.53721,34.38052],[132.53863,34.38149],[132.53969,34.38164],[132.54065,34.38247],[132.54191,34.38276],[132.54248,34.38384],[132.54398,34.38518],[132.54617,34.38605],[132.54876,34.38577],[132.54959,34.38532],[132.55066,34.38512],[132.55132,34.38549],[132.55307,34.38502],[132.55393,34.38451],[132.55456,34.38356],[132.55626,34.38413],[132.558,34.38515],[132.5586,34.38406],[132.56057,34.38293],[132.56158,34.38277],[132.56271,34.38321],[132.56369,34.38264],[132.56393,34.38222],[132.56577,34.38157],[132.56691,34.38166],[132.56734,34.38059],[132.56666,34.38011],[132.56666,34.37874],[132.56608,34.37814],[132.56641,34.37755],[132.56606,34.37608],[132.56742,34.37574],[132.56797,34.3762],[132.56898,34.37613],[132.57001,34.37538],[132.57267,34.37495],[132.57342,34.37513],[132.57456,34.375],[132.5767,34.37406],[132.57816,34.37412],[132.57874,34.37449],[132.57969,34.37519],[132.57974,34.37585],[132.58054,34.37731],[132.58106,34.37794],[132.5812,34.38076],[132.584,34.38025],[132.58494,34.37959],[132.5866,34.38002],[132.58877,34.38006],[132.58981,34.38035],[132.59152,34.38045],[132.59246,34.37993],[132.59351,34.37995],[132.59424,34.37951],[132.59472,34.3788],[132.59826,34.37846],[132.5987,34.3792],[132.59978,34.38],[132.60131,34.38026],[132.604,34.37976],[132.60592,34.37913],[132.60729,34.37796],[132.60811,34.37803],[132.60936,34.37758],[132.61052,34.37667],[132.6116,34.37634],[132.61253,34.37569],[132.61359,34.37556],[132.61449,34.3749],[132.61572,34.37499],[132.61759,34.37562],[132.61831,34.37539],[132.61949,34.37459],[132.62014,34.37377],[132.62081,34.37341],[132.62289,34.37313],[132.62358,34.37233],[132.62386,34.37063],[132.625,34.3701],[132.62582,34.36909],[132.62636,34.36755],[132.6272,34.36647],[132.62711,34.36599],[132.62752,34.36515],[132.62834,34.36496],[132.62944,34.36399],[132.62989,34.36336],[132.63082,34.36274],[132.6314,34.36159],[132.63122,34.36042],[132.63063,34.35875],[132.6296,34.35789],[132.6289,34.3559],[132.62847,34.35526],[132.62796,34.35353],[132.62751,34.35316],[132.62846,34.35239],[132.62982,34.35237],[132.63049,34.35149],[132.63252,34.35215],[132.63296,34.35289],[132.63348,34.35316],[132.63451,34.35311],[132.63606,34.35271],[132.63757,34.35296],[132.63968,34.35304],[132.64095,34.35206],[132.64152,34.35195],[132.64181,34.35261],[132.64278,34.35329],[132.64332,34.35453],[132.64414,34.35526],[132.64475,34.35629],[132.6447,34.35737],[132.64439,34.35846],[132.64459,34.35905],[132.64432,34.36013],[132.6442,34.36172],[132.64481,34.36286],[132.64618,34.36324],[132.64706,34.36423],[132.64907,34.36361],[132.64999,34.36425],[132.65104,34.36471],[132.65134,34.36529],[132.65266,34.3666],[132.65362,34.36874],[132.65283,34.36942],[132.65283,34.37083],[132.65307,34.37141],[132.65268,34.37214],[132.65254,34.37319],[132.65156,34.37387],[132.65082,34.37505],[132.65067,34.37574],[132.65011,34.37652],[132.65045,34.37711],[132.65037,34.37778],[132.65126,34.37845],[132.65111,34.37937],[132.65034,34.38017],[132.64903,34.38196],[132.64902,34.3829],[132.64933,34.38359],[132.64904,34.38421],[132.64816,34.38466],[132.64829,34.3856],[132.64684,34.38621],[132.64573,34.38714],[132.64524,34.38795],[132.64431,34.38876],[132.6442,34.38934],[132.64456,34.39128],[132.64553,34.39181],[132.64645,34.3929],[132.64676,34.39413],[132.64646,34.39593],[132.64502,34.39586],[132.64439,34.39622],[132.64335,34.39785],[132.64217,34.39848],[132.64084,34.3984],[132.64037,34.39906],[132.64161,34.40019],[132.64208,34.4016],[132.64344,34.40227],[132.64348,34.40284],[132.64264,34.40369],[132.6425,34.40464],[132.64278,34.40577],[132.64307,34.40784],[132.64383,34.40921],[132.64361,34.41059],[132.64488,34.41155],[132.64434,34.4131],[132.64469,34.41353],[132.64645,34.41411],[132.64636,34.41513],[132.64691,34.41544],[132.64909,34.41769],[132.65041,34.41873],[132.65132,34.4213],[132.65216,34.42234],[132.65445,34.42219],[132.65564,34.42195],[132.65653,34.42209],[132.65753,34.42299],[132.65978,34.42328],[132.66094,34.42447],[132.6619,34.42521],[132.66305,34.42695],[132.66364,34.4273],[132.66607,34.42762],[132.66708,34.42812],[132.6661,34.42921],[132.66575,34.43054],[132.66568,34.43161],[132.66533,34.43298],[132.66466,34.43397],[132.66466,34.43509],[132.66351,34.43747],[132.66219,34.43793],[132.66106,34.43916],[132.66027,34.441],[132.65914,34.44124],[132.65728,34.44026],[132.6565,34.44109],[132.65641,34.44176],[132.65571,34.44222],[132.65462,34.44348],[132.654,34.44317],[132.65252,34.44286],[132.65166,34.4422],[132.65111,34.44103],[132.65058,34.44058],[132.64917,34.44055],[132.65008,34.43815],[132.6485,34.4377],[132.6475,34.4376],[132.64673,34.43782],[132.64603,34.43871],[132.64456,34.43965],[132.64415,34.44064],[132.64306,34.44134],[132.64151,34.44197],[132.64055,34.44174],[132.63934,34.44119],[132.63804,34.44212],[132.63747,34.44298],[132.63573,34.44336],[132.63565,34.44439],[132.63512,34.44601],[132.63391,34.44837],[132.63332,34.4491],[132.63325,34.45002],[132.63225,34.45012],[132.63129,34.44927],[132.63038,34.44936],[132.62961,34.44916],[132.62684,34.44758],[132.62402,34.44627],[132.62346,34.44568],[132.6221,34.44634],[132.62041,34.44776],[132.61858,34.44718],[132.61598,34.44676],[132.61544,34.44652],[132.61454,34.4475],[132.61387,34.44792],[132.61257,34.44824],[132.61289,34.44918],[132.61351,34.44968],[132.61396,34.45125],[132.61255,34.45179],[132.61164,34.45363],[132.61104,34.45434],[132.60906,34.45538],[132.60792,34.45655],[132.60719,34.45665],[132.60566,34.45612],[132.60367,34.45583],[132.60301,34.45626],[132.60052,34.45728],[132.59851,34.45595],[132.59782,34.45515],[132.59592,34.45428],[132.59522,34.45323],[132.59404,34.45253],[132.59372,34.4519],[132.59151,34.45054],[132.58945,34.44977],[132.58839,34.44825],[132.58744,34.44753],[132.58684,34.44748],[132.58595,34.44787],[132.58496,34.44794],[132.58416,34.44747],[132.5838,34.44684],[132.58235,34.44576],[132.58152,34.44555],[132.58076,34.44423],[132.57879,34.44354],[132.57819,34.44289],[132.57704,34.44253],[132.57682,34.44191],[132.5754,34.43996],[132.57517,34.43898],[132.57433,34.43879],[132.57293,34.43759],[132.57222,34.43635],[132.57157,34.43526],[132.57139,34.43293],[132.57085,34.43212],[132.56928,34.4316],[132.56841,34.43073],[132.56746,34.43071],[132.56702,34.42987],[132.56415,34.42883],[132.56216,34.42911],[132.56022,34.42822],[132.55971,34.42765],[132.55785,34.42762],[132.55603,34.42807],[132.55497,34.42763],[132.55453,34.42599],[132.55355,34.42488],[132.55271,34.42427],[132.55111,34.42348],[132.54952,34.42325],[132.54651,34.42219],[132.54568,34.42118],[132.54515,34.42088],[132.54436,34.4198],[132.54267,34.41806],[132.54145,34.41817],[132.54072,34.41767]]],[[[132.53644,34.31475],[132.53817,34.31556],[132.53951,34.31584],[132.54241,34.31433],[132.54392,34.31421],[132.54454,34.31379],[132.54594,34.31408],[132.54722,34.31353],[132.54929,34.31343],[132.55082,34.31267],[132.55245,34.31288],[132.55446,34.31285],[132.55653,34.31332],[132.55611,34.31376],[132.55531,34.31583],[132.55561,34.31625],[132.5552,34.31741],[132.55643,34.31803],[132.55631,34.3197],[132.55629,34.32204],[132.55666,34.32286],[132.55616,34.32443],[132.5546,34.32534],[132.55448,34.32637],[132.55394,34.3272],[132.55366,34.32887],[132.5528,34.32951],[132.55262,34.33088],[132.55173,34.33157],[132.55237,34.333],[132.55227,34.33378],[132.55143,34.33424],[132.55121,34.3348],[132.55131,34.33625],[132.55119,34.33813],[132.55138,34.3398],[132.55223,34.34143],[132.55218,34.34211],[132.55315,34.34271],[132.55435,34.34413],[132.55367,34.34642],[132.55359,34.34702],[132.55233,34.34841],[132.55257,34.34905],[132.55225,34.35043],[132.55148,34.35145],[132.55051,34.35207],[132.55019,34.35347],[132.54966,34.35414],[132.5498,34.35487],[132.54888,34.35615],[132.54892,34.35681],[132.54831,34.35762],[132.54772,34.35759],[132.54698,34.35835],[132.54615,34.35838],[132.54523,34.35986],[132.54542,34.36049],[132.54628,34.36124],[132.54611,34.36188],[132.54478,34.36304],[132.54397,34.36462],[132.54349,34.36479],[132.5426,34.36434],[132.54271,34.36349],[132.54201,34.36282],[132.54158,34.36304],[132.5403,34.36241],[132.53915,34.36151],[132.53916,34.3605],[132.53839,34.35999],[132.53803,34.35813],[132.53368,34.35946],[132.52813,34.36013],[132.52478,34.35863],[132.51917,34.35656],[132.52055,34.3547],[132.51841,34.35372],[132.51939,34.35239],[132.51985,34.35225],[132.5203,34.35047],[132.52078,34.34946],[132.52097,34.34843],[132.5215,34.34748],[132.52187,34.34412],[132.52251,34.34349],[132.52292,34.34185],[132.5234,34.34134],[132.52439,34.34114],[132.5249,34.34022],[132.52559,34.33966],[132.52546,34.33818],[132.52623,34.33725],[132.52607,34.33658],[132.52644,34.33611],[132.5278,34.33553],[132.5279,34.33415],[132.53009,34.33368],[132.53035,34.3311],[132.53135,34.32965],[132.53186,34.32741],[132.53176,34.3264],[132.53229,34.32575],[132.53283,34.3238],[132.53255,34.32218],[132.53276,34.32114],[132.5336,34.32086],[132.53394,34.31988],[132.53281,34.31869],[132.53311,34.31802],[132.53297,34.31727],[132.53369,34.31702],[132.53361,34.31644],[132.5348,34.31583],[132.53599,34.31543],[132.53644,34.31475]]],[[[132.51917,34.35656],[132.51896,34.35782],[132.51031,34.35353],[132.51212,34.35399],[132.51917,34.35656]]]]}},
  {"type":"Feature","properties":{"name":"佐伯区","code":"34108"},"geometry":{"type":"MultiPolygon","coordinates":[[[[132.41458,34.42507],[132.41411,34.42597],[132.41459,34.42682],[132.41448,34.42866],[132.41189,34.42931],[132.41096,34.42903],[132.40953,34.42892],[132.40742,34.42995],[132.40678,34.43054],[132.40582,34.43066],[132.40419,34.43133],[132.40218,34.43128],[132.40172,34.43143],[132.40018,34.4313],[132.39985,34.43147],[132.39963,34.43349],[132.39859,34.43343],[132.39801,34.43302],[132.39604,34.43457],[132.39603,34.43491],[132.39476,34.43547],[132.39403,34.43516],[132.39244,34.4355],[132.39093,34.43447],[132.39025,34.43447],[132.38809,34.43375],[132.38755,34.43425],[132.38714,34.43548],[132.38782,34.43629],[132.3878,34.43811],[132.38701,34.43968],[132.38734,34.44026],[132.38735,34.44106],[132.38817,34.44224],[132.39028,34.44246],[132.39067,34.4429],[132.39132,34.44262],[132.39265,34.44275],[132.39283,34.44321],[132.39241,34.44384],[132.39084,34.44414],[132.38994,34.44412],[132.38865,34.44472],[132.3889,34.44521],[132.3885,34.44598],[132.38758,34.44623],[132.38621,34.44619],[132.38505,34.44596],[132.38493,34.44638],[132.37893,34.44527],[132.37757,34.44522],[132.37705,34.44662],[132.37782,34.44792],[132.37669,34.44808],[132.37655,34.4484],[132.3751,34.44811],[132.37444,34.4482],[132.3733,34.44787],[132.36996,34.44753],[132.36821,34.44792],[132.36705,34.44796],[132.36587,34.44752],[132.36417,34.44926],[132.36365,34.44933],[132.36164,34.45015],[132.36065,34.4501],[132.35953,34.44975],[132.35907,34.44925],[132.35883,34.44816],[132.35896,34.44745],[132.35856,34.44671],[132.35894,34.44558],[132.35894,34.44478],[132.35933,34.44392],[132.35855,34.44287],[132.35801,34.44255],[132.35653,34.44214],[132.35543,34.44225],[132.35357,34.44163],[132.35316,34.44095],[132.35229,34.44056],[132.35142,34.43964],[132.3502,34.43901],[132.34928,34.43981],[132.34838,34.43997],[132.34747,34.4396],[132.34619,34.43967],[132.34475,34.44062],[132.34376,34.44076],[132.34224,34.44045],[132.34107,34.44072],[132.33995,34.44073],[132.33914,34.44097],[132.33666,34.43949],[132.33325,34.43863],[132.33194,34.43789],[132.33078,34.43906],[132.32913,34.44129],[132.32748,34.44259],[132.32602,34.44357],[132.3253,34.44485],[132.32426,34.44593],[132.3239,34.44678],[132.32278,34.44714],[132.32182,34.44821],[132.31993,34.44941],[132.31995,34.45003],[132.32039,34.45081],[132.3202,34.45121],[132.31893,34.45187],[132.31643,34.45284],[132.31445,34.45404],[132.31363,34.45499],[132.31233,34.45575],[132.3105,34.45629],[132.30988,34.45697],[132.31096,34.45869],[132.31186,34.45984],[132.31325,34.4604],[132.31473,34.46187],[132.31522,34.46204],[132.31501,34.4628],[132.31383,34.46424],[132.31408,34.46565],[132.31394,34.46859],[132.31302,34.46897],[132.31279,34.46988],[132.31236,34.47026],[132.31082,34.47059],[132.30955,34.47163],[132.30886,34.47294],[132.3078,34.47371],[132.30763,34.47586],[132.3088,34.47739],[132.31271,34.47789],[132.31432,34.47764],[132.31651,34.4776],[132.31892,34.47885],[132.31987,34.47871],[132.32058,34.47921],[132.32171,34.48053],[132.32318,34.48093],[132.32373,34.48067],[132.32443,34.48088],[132.32562,34.48203],[132.32767,34.48338],[132.3295,34.48425],[132.33062,34.48551],[132.33025,34.48612],[132.32967,34.48806],[132.32916,34.48865],[132.32876,34.49036],[132.32972,34.4907],[132.33055,34.49204],[132.33275,34.49208],[132.33464,34.49251],[132.33625,34.49344],[132.33721,34.4945],[132.33727,34.49528],[132.33767,34.49571],[132.3386,34.49601],[132.33938,34.4971],[132.34019,34.4976],[132.3403,34.49823],[132.34162,34.49872],[132.34154,34.50031],[132.34236,34.50066],[132.34235,34.5024],[132.34274,34.50323],[132.3428,34.5042],[132.34168,34.50527],[132.34196,34.50613],[132.34165,34.50686],[132.34177,34.50881],[132.34275,34.50992],[132.3431,34.51072],[132.34246,34.51143],[132.34164,34.51288],[132.34123,34.51408],[132.34066,34.51463],[132.3408,34.51526],[132.34204,34.51635],[132.34273,34.51747],[132.34333,34.518],[132.34346,34.51861],[132.34447,34.51961],[132.34506,34.52069],[132.34503,34.52188],[132.34426,34.52233],[132.34302,34.52364],[132.34254,34.52447],[132.34319,34.52523],[132.3439,34.52697],[132.34451,34.52719],[132.34499,34.5278],[132.34659,34.52896],[132.34832,34.52906],[132.35056,34.5312],[132.35124,34.53137],[132.35241,34.53076],[132.35311,34.53167],[132.35384,34.53224],[132.35549,34.53302],[132.35591,34.53345],[132.35732,34.53421],[132.36043,34.53476],[132.3605,34.53535],[132.35982,34.53579],[132.35918,34.53769],[132.35992,34.53815],[132.35975,34.54009],[132.36083,34.54114],[132.36105,34.54289],[132.36255,34.54342],[132.36355,34.54356],[132.36401,34.54477],[132.36381,34.54551],[132.36405,34.54612],[132.36354,34.54746],[132.36212,34.54936],[132.36192,34.55026],[132.3607,34.55064],[132.36085,34.55131],[132.36148,34.55226],[132.36214,34.55268],[132.36251,34.55333],[132.36251,34.55439],[132.36172,34.55576],[132.36106,34.55743],[132.36064,34.55895],[132.35926,34.55878],[132.35875,34.55818],[132.35839,34.55692],[132.35837,34.55606],[132.35912,34.55459],[132.35939,34.55346],[132.35871,34.55239],[132.35755,34.55228],[132.35595,34.55259],[132.35426,34.55346],[132.35258,34.55453],[132.35153,34.55457],[132.34957,34.55409],[132.3477,34.55306],[132.34428,34.55226],[132.34351,34.55177],[132.34277,34.55187],[132.34144,34.55415],[132.34047,34.55518],[132.33905,34.55538],[132.33574,34.55489],[132.33356,34.55485],[132.33103,34.55524],[132.33054,34.5541],[132.32928,34.55293],[132.32863,34.5528],[132.32501,34.55316],[132.32352,34.55382],[132.32248,34.55346],[132.32076,34.55364],[132.32023,34.55349],[132.31851,34.55155],[132.31795,34.55167],[132.31635,34.55259],[132.31601,34.55258],[132.31346,34.55158],[132.30962,34.5515],[132.30497,34.55072],[132.30374,34.55039],[132.30113,34.5499],[132.29749,34.549],[132.2961,34.54847],[132.29539,34.54859],[132.29446,34.54835],[132.29334,34.54765],[132.29222,34.54745],[132.29172,34.54599],[132.29152,34.54468],[132.29099,34.54429],[132.28997,34.54414],[132.2891,34.54348],[132.28845,34.54336],[132.28598,34.54383],[132.28513,34.54348],[132.28377,34.54236],[132.28153,34.54113],[132.27986,34.54196],[132.27895,34.54227],[132.27809,34.54137],[132.27738,34.54103],[132.27702,34.54037],[132.27585,34.53967],[132.2748,34.53969],[132.27288,34.53926],[132.27172,34.53831],[132.2713,34.53766],[132.27098,34.53642],[132.26952,34.53537],[132.26844,34.53528],[132.26556,34.53587],[132.26459,34.53459],[132.26321,34.53502],[132.26174,34.53467],[132.26117,34.53414],[132.25985,34.53376],[132.25775,34.53241],[132.25721,34.53184],[132.25564,34.53129],[132.25445,34.53147],[132.25375,34.53136],[132.25266,34.53083],[132.25183,34.53107],[132.25054,34.53018],[132.24921,34.52966],[132.24851,34.52857],[132.24826,34.52675],[132.24604,34.52478],[132.24461,34.52396],[132.24394,34.52289],[132.24425,34.52183],[132.24332,34.52088],[132.24276,34.52067],[132.24231,34.51916],[132.24142,34.519],[132.24079,34.51809],[132.23955,34.51696],[132.23942,34.5155],[132.23984,34.51455],[132.23987,34.51376],[132.24042,34.5131],[132.24115,34.51287],[132.24114,34.51217],[132.24198,34.51147],[132.2424,34.51043],[132.24207,34.50944],[132.24129,34.50836],[132.24039,34.50785],[132.23898,34.50748],[132.23789,34.5078],[132.23493,34.50902],[132.23475,34.50988],[132.23322,34.51106],[132.23194,34.51065],[132.23136,34.50987],[132.22987,34.50936],[132.22904,34.50956],[132.22776,34.50951],[132.22579,34.51038],[132.22506,34.51044],[132.2244,34.51093],[132.22255,34.51086],[132.22209,34.51106],[132.22069,34.51314],[132.21952,34.5131],[132.21862,34.51391],[132.21744,34.51354],[132.2161,34.51407],[132.21549,34.51464],[132.21503,34.51421],[132.2138,34.51375],[132.21273,34.51272],[132.212,34.5124],[132.21037,34.51207],[132.20951,34.51159],[132.20916,34.51108],[132.2078,34.51055],[132.2073,34.51062],[132.20569,34.50977],[132.20491,34.50898],[132.20459,34.50795],[132.20514,34.50745],[132.2043,34.50645],[132.20379,34.50616],[132.20462,34.50497],[132.20401,34.5039],[132.20488,34.50273],[132.20524,34.50185],[132.2049,34.50113],[132.20395,34.50024],[132.20394,34.4994],[132.2014,34.49832],[132.2007,34.49846],[132.19955,34.49827],[132.19883,34.49749],[132.19748,34.49718],[132.19719,34.49658],[132.19609,34.49639],[132.19387,34.4967],[132.19359,34.49741],[132.19206,34.49754],[132.19111,34.49744],[132.19018,34.49808],[132.1889,34.49826],[132.1905,34.49637],[132.19206,34.49522],[132.19418,34.49529],[132.19476,34.49509],[132.19516,34.49445],[132.19604,34.49409],[132.19831,34.49252],[132.19858,34.49179],[132.2,34.49093],[132.2003,34.4889],[132.20199,34.48752],[132.20304,34.48616],[132.20328,34.48473],[132.20276,34.48361],[132.20193,34.48318],[132.20144,34.4822],[132.19998,34.48168],[132.19964,34.47974],[132.19792,34.47887],[132.19772,34.47837],[132.19669,34.47762],[132.19626,34.47663],[132.19601,34.47465],[132.19536,34.47394],[132.1951,34.47298],[132.19522,34.47236],[132.19457,34.47148],[132.19456,34.4709],[132.19499,34.46957],[132.1945,34.46836],[132.19349,34.46794],[132.19336,34.46667],[132.19309,34.46606],[132.19323,34.46514],[132.19395,34.46393],[132.19456,34.46232],[132.19531,34.4625],[132.19544,34.46163],[132.19467,34.46131],[132.19474,34.4606],[132.1943,34.4596],[132.19456,34.45909],[132.19334,34.45901],[132.19304,34.45842],[132.19361,34.4574],[132.19433,34.45695],[132.19566,34.45672],[132.19647,34.45616],[132.19678,34.45509],[132.196,34.45464],[132.19614,34.45316],[132.19588,34.45267],[132.19499,34.45263],[132.19379,34.452],[132.19432,34.45127],[132.19526,34.45073],[132.19451,34.44972],[132.19305,34.45068],[132.19127,34.45009],[132.19043,34.44943],[132.18779,34.45056],[132.18772,34.45141],[132.18672,34.4508],[132.18459,34.44993],[132.184,34.45004],[132.18228,34.44856],[132.18403,34.44684],[132.18451,34.44608],[132.18454,34.44547],[132.18258,34.44481],[132.18193,34.44393],[132.18133,34.44405],[132.18045,34.44343],[132.17855,34.44265],[132.17895,34.44046],[132.1802,34.44003],[132.18222,34.43897],[132.18324,34.43868],[132.18509,34.43942],[132.18649,34.43851],[132.18797,34.43798],[132.18857,34.43704],[132.19037,34.43619],[132.19138,34.43516],[132.19146,34.43312],[132.19247,34.43199],[132.19353,34.43234],[132.19361,34.43136],[132.19305,34.43067],[132.19319,34.42945],[132.19243,34.42827],[132.19237,34.42716],[132.19086,34.42622],[132.19059,34.4256],[132.19095,34.42432],[132.19174,34.42332],[132.19249,34.4227],[132.19239,34.42148],[132.19287,34.42028],[132.19387,34.41973],[132.19435,34.41851],[132.195,34.41745],[132.1956,34.41586],[132.19624,34.4152],[132.19699,34.41495],[132.19809,34.4155],[132.19898,34.41546],[132.2025,34.41629],[132.20422,34.41567],[132.20575,34.41455],[132.20652,34.41474],[132.20804,34.41568],[132.21125,34.41583],[132.21411,34.41572],[132.21539,34.41505],[132.21661,34.41577],[132.21779,34.41587],[132.2182,34.41633],[132.21889,34.4199],[132.22058,34.42128],[132.22117,34.42308],[132.22195,34.42416],[132.22342,34.42538],[132.22431,34.42574],[132.22495,34.42648],[132.22561,34.42672],[132.2265,34.42772],[132.22674,34.42847],[132.22757,34.42904],[132.2284,34.43059],[132.22897,34.43114],[132.23016,34.43142],[132.23137,34.43125],[132.23294,34.43145],[132.23444,34.43092],[132.23566,34.43114],[132.23642,34.42979],[132.23709,34.42913],[132.23801,34.42779],[132.23953,34.42654],[132.24137,34.42605],[132.2421,34.42536],[132.24363,34.42441],[132.24511,34.42326],[132.2475,34.42371],[132.24783,34.42346],[132.24945,34.42361],[132.251,34.4244],[132.25165,34.42342],[132.25177,34.42278],[132.25254,34.42244],[132.25263,34.42139],[132.25181,34.42082],[132.25343,34.41936],[132.25433,34.41783],[132.25406,34.41708],[132.25465,34.41647],[132.2549,34.41505],[132.25475,34.41405],[132.25557,34.4138],[132.25657,34.41403],[132.25801,34.41387],[132.2585,34.41337],[132.25973,34.41354],[132.26131,34.41299],[132.26251,34.41299],[132.26414,34.41278],[132.26534,34.41242],[132.26628,34.41294],[132.26763,34.41315],[132.26908,34.41371],[132.27136,34.41286],[132.27227,34.41166],[132.27314,34.4116],[132.2743,34.41064],[132.27665,34.41122],[132.27745,34.41188],[132.27842,34.41134],[132.27812,34.41052],[132.27837,34.40995],[132.28008,34.40989],[132.28133,34.40956],[132.28217,34.40852],[132.28321,34.40631],[132.28316,34.4054],[132.28363,34.40455],[132.28358,34.40386],[132.28478,34.40246],[132.2846,34.40206],[132.28311,34.40015],[132.28328,34.39919],[132.2831,34.39765],[132.2838,34.39679],[132.28454,34.39675],[132.28463,34.3962],[132.28384,34.39544],[132.28375,34.39467],[132.28434,34.39414],[132.28453,34.39329],[132.28379,34.39247],[132.28392,34.39141],[132.28463,34.39082],[132.28485,34.39013],[132.28439,34.38972],[132.2864,34.38892],[132.28894,34.3884],[132.28999,34.38797],[132.29132,34.3867],[132.29319,34.38532],[132.29478,34.3848],[132.29775,34.38469],[132.30008,34.38426],[132.30074,34.38488],[132.30104,34.3862],[132.30236,34.38731],[132.30293,34.38863],[132.30272,34.38943],[132.30304,34.3909],[132.30297,34.3918],[132.30346,34.3926],[132.3029,34.3932],[132.3016,34.39512],[132.30094,34.3976],[132.30051,34.39829],[132.30038,34.39913],[132.30066,34.40035],[132.30048,34.40086],[132.30054,34.40278],[132.30013,34.40389],[132.30031,34.40439],[132.30002,34.40624],[132.29956,34.4073],[132.30082,34.40865],[132.3019,34.40919],[132.30224,34.40962],[132.30215,34.41031],[132.30274,34.41066],[132.303,34.41135],[132.30387,34.41202],[132.30458,34.4137],[132.30519,34.41445],[132.30573,34.41457],[132.30695,34.41534],[132.30725,34.41599],[132.308,34.41666],[132.30891,34.41801],[132.31025,34.41794],[132.31139,34.41926],[132.31246,34.41872],[132.31262,34.41771],[132.31439,34.41591],[132.31445,34.41284],[132.31458,34.41229],[132.31319,34.4115],[132.31296,34.41008],[132.31329,34.40941],[132.31487,34.40748],[132.31481,34.40651],[132.31569,34.40651],[132.31669,34.40613],[132.31774,34.40641],[132.3182,34.40624],[132.3208,34.40625],[132.32184,34.40649],[132.32254,34.40597],[132.32428,34.40584],[132.32449,34.40474],[132.32419,34.40394],[132.32354,34.4037],[132.32287,34.40176],[132.3223,34.40116],[132.32227,34.40016],[132.32183,34.39934],[132.32182,34.39871],[132.32074,34.39728],[132.32072,34.39574],[132.32035,34.39474],[132.3205,34.39352],[132.31985,34.39316],[132.31854,34.39305],[132.31759,34.39197],[132.31698,34.39165],[132.31682,34.39077],[132.31724,34.39009],[132.31829,34.38966],[132.3188,34.38887],[132.32091,34.38805],[132.32008,34.38718],[132.31922,34.38546],[132.31817,34.38473],[132.31837,34.38299],[132.31826,34.38225],[132.317,34.38126],[132.31834,34.38097],[132.32136,34.38003],[132.32291,34.37985],[132.3236,34.37961],[132.3244,34.37875],[132.32555,34.37812],[132.32701,34.37763],[132.32861,34.37667],[132.32993,34.37644],[132.33077,34.37486],[132.33204,34.37432],[132.33271,34.37336],[132.33361,34.37305],[132.33465,34.37225],[132.33566,34.3705],[132.33495,34.3696],[132.33539,34.36856],[132.33544,34.36765],[132.33667,34.36799],[132.3377,34.36798],[132.3395,34.36739],[132.34066,34.36729],[132.34149,34.36662],[132.34234,34.36634],[132.34346,34.36753],[132.34461,34.36779],[132.34532,34.36712],[132.34478,34.36663],[132.34485,34.36451],[132.34338,34.36439],[132.34409,34.36175],[132.34402,34.36094],[132.34462,34.35961],[132.34546,34.35847],[132.34548,34.35793],[132.34701,34.35654],[132.34932,34.35596],[132.35192,34.35685],[132.35296,34.35741],[132.35367,34.35717],[132.36064,34.35814],[132.36145,34.35856],[132.36266,34.3587],[132.36244,34.36009],[132.36449,34.36031],[132.36566,34.35943],[132.3664,34.35795],[132.36032,34.35572],[132.36473,34.34747],[132.36977,34.34873],[132.36915,34.35046],[132.37685,34.35237],[132.37547,34.35775],[132.37512,34.35963],[132.37553,34.36036],[132.37819,34.36089],[132.37649,34.36399],[132.37493,34.36633],[132.37361,34.36777],[132.37249,34.36875],[132.37095,34.36953],[132.37147,34.37022],[132.37152,34.37156],[132.37188,34.37506],[132.3717,34.3756],[132.37175,34.37688],[132.37106,34.37678],[132.37091,34.37797],[132.37149,34.37803],[132.37153,34.37884],[132.37307,34.37916],[132.37451,34.38076],[132.37507,34.38088],[132.37654,34.38221],[132.37808,34.38284],[132.37864,34.38401],[132.37988,34.3853],[132.38012,34.386],[132.38121,34.38508],[132.38241,34.38497],[132.38319,34.38403],[132.38413,34.38411],[132.3848,34.38367],[132.38693,34.38411],[132.38658,34.38468],[132.38672,34.38535],[132.38733,34.38599],[132.38763,34.3878],[132.38742,34.38874],[132.38919,34.38922],[132.38992,34.39044],[132.39063,34.39097],[132.39124,34.39104],[132.39227,34.39211],[132.39226,34.3931],[132.39198,34.3935],[132.3921,34.39443],[132.39289,34.39528],[132.3926,34.39614],[132.39215,34.39638],[132.3915,34.39591],[132.39104,34.39641],[132.38894,34.39766],[132.38601,34.39767],[132.386,34.39855],[132.38523,34.39923],[132.38402,34.39866],[132.38345,34.39925],[132.38193,34.40023],[132.38061,34.40065],[132.38194,34.40133],[132.38267,34.40201],[132.38326,34.40336],[132.38442,34.4034],[132.38513,34.40433],[132.38561,34.40442],[132.38579,34.40519],[132.38666,34.40604],[132.38755,34.40828],[132.38942,34.40728],[132.39073,34.4076],[132.39083,34.40869],[132.39252,34.40873],[132.39345,34.40832],[132.394,34.40766],[132.39361,34.40618],[132.39365,34.40539],[132.39457,34.40386],[132.39671,34.40315],[132.39729,34.40456],[132.39864,34.40429],[132.40037,34.40422],[132.40218,34.40307],[132.40305,34.40404],[132.40496,34.40559],[132.40597,34.40661],[132.4066,34.40791],[132.4068,34.41083],[132.40747,34.41141],[132.40798,34.41275],[132.40814,34.41391],[132.40915,34.41456],[132.41008,34.41665],[132.41132,34.41751],[132.41278,34.41991],[132.41425,34.42093],[132.41405,34.42208],[132.41471,34.42307],[132.41492,34.42407],[132.41458,34.42507]]],[[[132.35501,34.34884],[132.35654,34.3494],[132.35416,34.35386],[132.35277,34.35335],[132.35231,34.35421],[132.35011,34.35345],[132.35067,34.35243],[132.35274,34.35318],[132.35501,34.34884]]]]}}
]}
