{"type":"FeatureCollection", "features": [
  {"type":"Feature","properties":{"name":"中央区","code":"01101"},"geometry":{"type":"MultiPolygon","coordinates":[[[[141.202356,43.019246],[141.202402,43.01827],[141.201894,43.016728],[141.203158,43.016723],[141.204603,43.016309],[141.205452,43.015765],[141.206712,43.014002],[141.208558,43.013698],[141.210571,43.01263],[141.211574,43.012536],[141.21462,43.010274],[141.216282,43.010193],[141.218661,43.009313],[141.219224,43.008873],[141.220456,43.008821],[141.222016,43.00948],[141.223081,43.009441],[141.225187,43.009774],[141.225643,43.009698],[141.226057,43.008478],[141.227057,43.007839],[141.229679,43.007089],[141.232994,43.006595],[141.237366,43.006778],[141.239116,43.006056],[141.240071,43.005944],[141.242293,43.004759],[141.244842,43.004101],[141.245008,43.003799],[141.2476,43.003216],[141.249178,43.003175],[141.250339,43.004044],[141.251443,43.003472],[141.253516,43.000047],[141.254201,42.997834],[141.254766,42.997938],[141.258031,42.997821],[141.25889,42.997516],[141.259942,42.997657],[141.261903,42.999313],[141.262502,43.000039],[141.26296,43.001544],[141.263674,43.002104],[141.265139,43.002449],[141.264995,43.003523],[141.265697,43.004138],[141.266666,43.00442],[141.270446,43.004489],[141.271161,43.003976],[141.272222,43.004312],[141.276909,43.006417],[141.278164,43.007336],[141.281442,43.008644],[141.282921,43.009347],[141.283645,43.011756],[141.284775,43.012073],[141.285046,43.013073],[141.285853,43.013368],[141.288142,43.01356],[141.290355,43.013888],[141.291043,43.014321],[141.291553,43.016008],[141.291542,43.016622],[141.292745,43.01856],[141.292847,43.019409],[141.293352,43.020119],[141.300742,43.0244],[141.304109,43.026429],[141.304627,43.027108],[141.306114,43.026757],[141.307265,43.026673],[141.308536,43.027095],[141.30946,43.027655],[141.310775,43.028085],[141.310343,43.029444],[141.309358,43.029933],[141.308541,43.030938],[141.307238,43.031402],[141.306816,43.031975],[141.307139,43.032824],[141.308223,43.034183],[141.307819,43.035545],[141.30816,43.035777],[141.31034,43.035764],[141.310373,43.035146],[141.312477,43.035089],[141.314353,43.033928],[141.316014,43.033855],[141.316884,43.034113],[141.319326,43.035509],[141.320331,43.035282],[141.322173,43.035405],[141.323607,43.035131],[141.32343,43.03371],[141.323133,43.033403],[141.320777,43.032723],[141.319774,43.031079],[141.319493,43.030225],[141.319889,43.029241],[141.322162,43.029309],[141.32367,43.029687],[141.328174,43.028455],[141.332419,43.028502],[141.334091,43.027976],[141.336318,43.028096],[141.338317,43.026279],[141.339528,43.025378],[141.340715,43.024237],[141.341679,43.022716],[141.343882,43.01954],[141.344528,43.018436],[141.346038,43.017103],[141.347788,43.018285],[141.349751,43.020785],[141.351701,43.022456],[141.352433,43.022884],[141.353339,43.026586],[141.354589,43.029065],[141.355453,43.031544],[141.355963,43.035314],[141.356749,43.037226],[141.357723,43.03909],[141.359322,43.041658],[141.359926,43.042855],[141.360103,43.045256],[141.360514,43.047423],[141.362009,43.050506],[141.36229,43.05223],[141.363134,43.054526],[141.366446,43.057969],[141.367492,43.059286],[141.368086,43.060364],[141.368956,43.061458],[141.370341,43.061932],[141.372705,43.063028],[141.375549,43.063965],[141.381043,43.065559],[141.387048,43.067236],[141.389636,43.068598],[141.388461,43.06916],[141.38711,43.069523],[141.386282,43.069527],[141.379668,43.068981],[141.375309,43.068533],[141.373171,43.068413],[141.367101,43.068492],[141.366231,43.068415],[141.356024,43.068618],[141.355201,43.068587],[141.354638,43.068597],[141.349472,43.067904],[141.345811,43.067191],[141.343259,43.066821],[141.341233,43.066909],[141.340051,43.067154],[141.337958,43.067894],[141.335036,43.069138],[141.336098,43.070346],[141.336442,43.071133],[141.33627,43.071888],[141.335624,43.072679],[141.332364,43.076012],[141.331004,43.079131],[141.329781,43.082384],[141.33003,43.084871],[141.328273,43.086116],[141.32728,43.085151],[141.327374,43.083136],[141.326609,43.082277],[141.325364,43.081772],[141.323927,43.081563],[141.322271,43.080225],[141.321984,43.07797],[141.32238,43.077329],[141.321458,43.076686],[141.320443,43.076389],[141.319526,43.075613],[141.319456,43.073983],[141.31912,43.073001],[141.316272,43.068013],[141.314257,43.064643],[141.309484,43.067059],[141.306348,43.06878],[141.303086,43.0662],[141.296548,43.060916],[141.293394,43.058432],[141.292678,43.05801],[141.284116,43.054406],[141.283791,43.053469],[141.284723,43.052852],[141.285283,43.050954],[141.28475,43.050412],[141.284414,43.049428],[141.284744,43.048769],[141.284385,43.047159],[141.284807,43.046269],[141.284932,43.044697],[141.285635,43.043713],[141.285744,43.040484],[141.284771,43.037979],[141.283266,43.037677],[141.282209,43.036739],[141.279934,43.036336],[141.279181,43.036681],[141.277798,43.036527],[141.276536,43.037035],[141.275148,43.036837],[141.274564,43.037135],[141.274345,43.038062],[141.271079,43.039452],[141.268007,43.039504],[141.26615,43.039291],[141.265661,43.039439],[141.26577,43.040442],[141.265468,43.04123],[141.26384,43.04216],[141.265215,43.044206],[141.265411,43.046279],[141.265774,43.048518],[141.264775,43.048175],[141.264512,43.047289],[141.263775,43.046266],[141.26347,43.04517],[141.262585,43.044842],[141.261515,43.043954],[141.258643,43.04381],[141.25795,43.043342],[141.258234,43.042028],[141.257224,43.041764],[141.255862,43.040368],[141.254727,43.040019],[141.253453,43.040113],[141.253169,43.039275],[141.251493,43.038426],[141.250704,43.037708],[141.249571,43.037205],[141.249535,43.035958],[141.248774,43.035624],[141.24778,43.033561],[141.248041,43.033203],[141.248301,43.031593],[141.247658,43.030973],[141.247366,43.030185],[141.246702,43.02976],[141.245994,43.028783],[141.245687,43.027629],[141.244918,43.026786],[141.243453,43.026119],[141.242757,43.026033],[141.241719,43.025085],[141.241633,43.024598],[141.240359,43.023604],[141.238724,43.021814],[141.237326,43.020833],[141.236665,43.020776],[141.235956,43.020164],[141.235597,43.01939],[141.234196,43.018359],[141.233191,43.0182],[141.232215,43.016575],[141.231093,43.015831],[141.229733,43.015195],[141.227833,43.015542],[141.226353,43.015453],[141.224822,43.015867],[141.222724,43.015729],[141.220776,43.015846],[141.21901,43.015565],[141.216654,43.016028],[141.214964,43.015708],[141.212669,43.015601],[141.210121,43.016505],[141.209761,43.016835],[141.208495,43.016879],[141.207454,43.017173],[141.202356,43.019246]]]]}},
  {"type":"Feature","properties":{"name":"北区","code":"01102"},"geometry":{"type":"MultiPolygon","coordinates":[[[[141.355201,43.068587],[141.35331,43.07594],[141.352732,43.077945],[141.351451,43.081195],[141.350383,43.083142],[141.349421,43.086089],[141.347788,43.091721],[141.34696,43.095083],[141.345254,43.101541],[141.344876,43.10592],[141.34378,43.111411],[141.344105,43.113497],[141.34355,43.115913],[141.343238,43.117892],[141.344036,43.122233],[141.345055,43.1226],[141.350761,43.12421],[141.352707,43.12468],[141.354962,43.124977],[141.355665,43.124605],[141.356704,43.124995],[141.357871,43.124748],[141.35954,43.123818],[141.360321,43.123978],[141.360534,43.124657],[141.361858,43.125962],[141.362993,43.12593],[141.364084,43.125126],[141.365706,43.126409],[141.366864,43.126787],[141.368123,43.126558],[141.372474,43.12642],[141.377317,43.126152],[141.377316,43.126027],[141.385077,43.125712],[141.387157,43.126418],[141.388139,43.127462],[141.387056,43.128753],[141.392699,43.131722],[141.392798,43.131933],[141.395076,43.133035],[141.404726,43.138051],[141.40621,43.136619],[141.407314,43.137103],[141.408595,43.136661],[141.410371,43.13906],[141.414079,43.138822],[141.414178,43.14002],[141.414912,43.144572],[141.415183,43.144749],[141.421484,43.147051],[141.427644,43.14425],[141.428848,43.143781],[141.429984,43.14551],[141.432618,43.14977],[141.433556,43.149353],[141.435066,43.151702],[141.434149,43.152135],[141.433356,43.152113],[141.435586,43.157743],[141.438722,43.156051],[141.441606,43.160123],[141.4388,43.161782],[141.437565,43.161414],[141.436539,43.16155],[141.434789,43.162394],[141.434341,43.162929],[141.433799,43.169102],[141.433537,43.169453],[141.432138,43.170208],[141.431068,43.170349],[141.428425,43.170125],[141.427618,43.169911],[141.426543,43.169266],[141.42542,43.168205],[141.423528,43.169102],[141.420033,43.171583],[141.419184,43.17184],[141.416733,43.171566],[141.414286,43.171449],[141.412026,43.171139],[141.406786,43.170176],[141.403852,43.169874],[141.401425,43.170408],[141.400243,43.170905],[141.399464,43.171488],[141.398623,43.172511],[141.39817,43.173472],[141.398099,43.174467],[141.398316,43.175446],[141.399313,43.176914],[141.402825,43.180581],[141.40345,43.181709],[141.404586,43.182776],[141.40677,43.183818],[141.408387,43.183948],[141.409376,43.185242],[141.408895,43.186094],[141.407364,43.187364],[141.405407,43.189422],[141.404046,43.189459],[141.402577,43.188895],[141.399039,43.185806],[141.396173,43.183743],[141.394829,43.182538],[141.393377,43.180676],[141.392498,43.179174],[141.390944,43.176003],[141.389634,43.17459],[141.387732,43.173379],[141.384824,43.172362],[141.379819,43.171673],[141.375689,43.171899],[141.372148,43.172727],[141.36829,43.174275],[141.364767,43.175765],[141.36227,43.176387],[141.358997,43.176103],[141.358046,43.175839],[141.356719,43.175027],[141.355942,43.174336],[141.354626,43.17243],[141.353451,43.1691],[141.350947,43.167001],[141.351365,43.165909],[141.353375,43.163712],[141.35238,43.163426],[141.350771,43.162324],[141.349224,43.161457],[141.348917,43.1609],[141.348761,43.15952],[141.347183,43.159381],[141.346009,43.159707],[141.345714,43.160884],[141.344407,43.160816],[141.343413,43.159197],[141.344011,43.157968],[141.34367,43.157153],[141.341712,43.157509],[141.341163,43.156978],[141.342043,43.155697],[141.34153,43.155281],[141.339892,43.155239],[141.338626,43.154369],[141.33734,43.154817],[141.336504,43.154801],[141.336273,43.154333],[141.337431,43.153736],[141.335153,43.152276],[141.333749,43.15213],[141.334919,43.151463],[141.334546,43.15088],[141.334629,43.149836],[141.333276,43.149867],[141.332705,43.148654],[141.331315,43.148656],[141.331031,43.149344],[141.329726,43.148797],[141.328383,43.148901],[141.327761,43.148235],[141.327182,43.148193],[141.325995,43.148787],[141.325766,43.147917],[141.324782,43.147615],[141.324243,43.148404],[141.323071,43.148774],[141.322344,43.148219],[141.321342,43.148162],[141.317102,43.147386],[141.315371,43.147466],[141.314988,43.146704],[141.313923,43.146167],[141.313168,43.146503],[141.312121,43.146339],[141.311108,43.145331],[141.309546,43.145628],[141.309007,43.144354],[141.308343,43.144053],[141.306736,43.144211],[141.306171,43.143912],[141.305974,43.143256],[141.304304,43.142862],[141.304148,43.142263],[141.303309,43.141896],[141.303083,43.141277],[141.301669,43.140847],[141.300581,43.140277],[141.299938,43.140256],[141.299209,43.141178],[141.298464,43.140568],[141.297599,43.140412],[141.296818,43.139855],[141.295022,43.138975],[141.292938,43.138256],[141.292699,43.137782],[141.290288,43.137058],[141.287965,43.135709],[141.286491,43.135694],[141.28571,43.134902],[141.284481,43.134829],[141.282872,43.134162],[141.282758,43.133621],[141.280177,43.132587],[141.279227,43.132358],[141.279487,43.131746],[141.278196,43.131022],[141.27743,43.131761],[141.275759,43.13135],[141.276019,43.132181],[141.274316,43.132123],[141.273248,43.133417],[141.27272,43.133521],[141.271009,43.132816],[141.268022,43.132011],[141.266455,43.13104],[141.271267,43.127608],[141.276626,43.123684],[141.282626,43.119344],[141.285994,43.116953],[141.28724,43.116107],[141.295807,43.109934],[141.299554,43.106921],[141.304018,43.103635],[141.304427,43.103401],[141.309588,43.099693],[141.311908,43.097938],[141.315658,43.095277],[141.320502,43.091736],[141.324559,43.088851],[141.328273,43.086116],[141.33003,43.084871],[141.329781,43.082384],[141.331004,43.079131],[141.332364,43.076012],[141.335624,43.072679],[141.33627,43.071888],[141.336442,43.071133],[141.336098,43.070346],[141.335036,43.069138],[141.337958,43.067894],[141.340051,43.067154],[141.341233,43.066909],[141.343259,43.066821],[141.345811,43.067191],[141.349472,43.067904],[141.354638,43.068597],[141.355201,43.068587]]]]}},
  {"type":"Feature","properties":{"name":"東区","code":"01103"},"geometry":{"type":"MultiPolygon","coordinates":[[[[141.389636,43.068598],[141.391495,43.069319],[141.393521,43.069564],[141.395193,43.069189],[141.396468,43.0692],[141.398739,43.069924],[141.40191,43.071637],[141.4024,43.072137],[141.402759,43.073132],[141.40404,43.075652],[141.406363,43.077298],[141.407686,43.077892],[141.412727,43.079652],[141.415393,43.079652],[141.416664,43.08011],[141.417164,43.080652],[141.417684,43.083027],[141.418872,43.084246],[141.42125,43.085664],[141.422927,43.08724],[141.423495,43.087443],[141.426916,43.087925],[141.428278,43.087982],[141.430606,43.08786],[141.432215,43.088342],[141.433077,43.088821],[141.433814,43.089636],[141.434225,43.091011],[141.434941,43.09161],[141.436881,43.09267],[141.43835,43.094506],[141.440488,43.095029],[141.441563,43.095151],[141.443794,43.094435],[141.445154,43.093151],[141.446,43.09273],[141.447388,43.092691],[141.448888,43.091795],[141.451586,43.091467],[141.454236,43.091678],[141.455189,43.091934],[141.456854,43.092931],[141.457258,43.093416],[141.452266,43.096506],[141.444392,43.101046],[141.44737,43.105182],[141.448537,43.107442],[141.449485,43.109536],[141.453719,43.119957],[141.454682,43.123368],[141.455171,43.126763],[141.455369,43.12895],[141.455348,43.131929],[141.455004,43.134731],[141.454431,43.137022],[141.453128,43.141022],[141.451571,43.14524],[141.450868,43.147427],[141.449279,43.15126],[141.448596,43.153254],[141.447101,43.154869],[141.44694,43.155868],[141.448476,43.158738],[141.448773,43.160431],[141.449393,43.162633],[141.449616,43.164495],[141.449564,43.165971],[141.448965,43.166724],[141.447634,43.16694],[141.446205,43.166341],[141.440917,43.163211],[141.4388,43.161782],[141.441606,43.160123],[141.438722,43.156051],[141.435586,43.157743],[141.433356,43.152113],[141.434149,43.152135],[141.435066,43.151702],[141.433556,43.149353],[141.432618,43.14977],[141.429984,43.14551],[141.428848,43.143781],[141.427644,43.14425],[141.421484,43.147051],[141.415183,43.144749],[141.414912,43.144572],[141.414178,43.14002],[141.414079,43.138822],[141.410371,43.13906],[141.408595,43.136661],[141.407314,43.137103],[141.40621,43.136619],[141.404726,43.138051],[141.395076,43.133035],[141.392798,43.131933],[141.392699,43.131722],[141.387056,43.128753],[141.388139,43.127462],[141.387157,43.126418],[141.385077,43.125712],[141.377316,43.126027],[141.377317,43.126152],[141.372474,43.12642],[141.368123,43.126558],[141.366864,43.126787],[141.365706,43.126409],[141.364084,43.125126],[141.362993,43.12593],[141.361858,43.125962],[141.360534,43.124657],[141.360321,43.123978],[141.35954,43.123818],[141.357871,43.124748],[141.356704,43.124995],[141.355665,43.124605],[141.354962,43.124977],[141.352707,43.12468],[141.350761,43.12421],[141.345055,43.1226],[141.344036,43.122233],[141.343238,43.117892],[141.34355,43.115913],[141.344105,43.113497],[141.34378,43.111411],[141.344876,43.10592],[141.345254,43.101541],[141.34696,43.095083],[141.347788,43.091721],[141.349421,43.086089],[141.350383,43.083142],[141.351451,43.081195],[141.352732,43.077945],[141.35331,43.07594],[141.355201,43.068587],[141.356024,43.068618],[141.366231,43.068415],[141.367101,43.068492],[141.373171,43.068413],[141.375309,43.068533],[141.379668,43.068981],[141.386282,43.069527],[141.38711,43.069523],[141.388461,43.06916],[141.389636,43.068598]]]]}},
  {"type":"Feature","properties":{"name":"白石区","code":"01104"},"geometry":{"type":"MultiPolygon","coordinates":[[[[141.366446,43.057969],[141.371836,43.054586],[141.374658,43.052883],[141.377184,43.051253],[141.380638,43.049196],[141.384793,43.046598],[141.38558,43.047207],[141.387486,43.045895],[141.387444,43.045561],[141.388996,43.045072],[141.394678,43.041624],[141.397423,43.040421],[141.400844,43.039037],[141.407303,43.036667],[141.420395,43.031439],[141.429046,43.028127],[141.434069,43.026091],[141.443868,43.022274],[141.444222,43.023472],[141.444326,43.026081],[141.4448,43.027628],[141.445393,43.028607],[141.446164,43.029315],[141.447825,43.030341],[141.449377,43.030934],[141.450663,43.031851],[141.451148,43.032617],[141.452221,43.032065],[141.453496,43.034544],[141.455179,43.034616],[141.45622,43.034481],[141.457064,43.033966],[141.457647,43.035189],[141.457788,43.036096],[141.457532,43.039356],[141.457345,43.040309],[141.456532,43.04173],[141.455282,43.042876],[141.454975,43.044688],[141.453678,43.046761],[141.449896,43.052536],[141.44898,43.05438],[141.4486,43.056072],[141.448626,43.056906],[141.449214,43.062108],[141.449375,43.062744],[141.450531,43.064725],[141.465589,43.085333],[141.468271,43.089065],[141.473462,43.096119],[141.470376,43.096228],[141.468121,43.097035],[141.466272,43.098595],[141.466137,43.099579],[141.464996,43.100111],[141.461249,43.1001],[141.460132,43.099946],[141.459077,43.099399],[141.459166,43.097925],[141.458739,43.097103],[141.458903,43.096264],[141.458478,43.094725],[141.457258,43.093416],[141.456854,43.092931],[141.455189,43.091934],[141.454236,43.091678],[141.451586,43.091467],[141.448888,43.091795],[141.447388,43.092691],[141.446,43.09273],[141.445154,43.093151],[141.443794,43.094435],[141.441563,43.095151],[141.440488,43.095029],[141.43835,43.094506],[141.436881,43.09267],[141.434941,43.09161],[141.434225,43.091011],[141.433814,43.089636],[141.433077,43.088821],[141.432215,43.088342],[141.430606,43.08786],[141.428278,43.087982],[141.426916,43.087925],[141.423495,43.087443],[141.422927,43.08724],[141.42125,43.085664],[141.418872,43.084246],[141.417684,43.083027],[141.417164,43.080652],[141.416664,43.08011],[141.415393,43.079652],[141.412727,43.079652],[141.407686,43.077892],[141.406363,43.077298],[141.40404,43.075652],[141.402759,43.073132],[141.4024,43.072137],[141.40191,43.071637],[141.398739,43.069924],[141.396468,43.0692],[141.395193,43.069189],[141.393521,43.069564],[141.391495,43.069319],[141.389636,43.068598],[141.387048,43.067236],[141.381043,43.065559],[141.375549,43.063965],[141.372705,43.063028],[141.370341,43.061932],[141.368956,43.061458],[141.368086,43.060364],[141.367492,43.059286],[141.366446,43.057969]]]]}},
  {"type":"Feature","properties":{"name":"豊平区","code":"01105"},"geometry":{"type":"MultiPolygon","coordinates":[[[[141.352433,43.022884],[141.352605,43.020339],[141.353105,43.017707],[141.353269,43.015085],[141.353186,43.013877],[141.352741,43.012262],[141.354191,43.011801],[141.354506,43.012687],[141.355348,43.012668],[141.356288,43.014593],[141.358675,43.013697],[141.358959,43.014476],[141.358668,43.015739],[141.358985,43.016416],[141.358667,43.018233],[141.36026,43.019866],[141.360807,43.020048],[141.36194,43.019769],[141.367395,43.019327],[141.367927,43.019124],[141.370663,43.018976],[141.370713,43.017645],[141.371996,43.017283],[141.372059,43.014856],[141.373474,43.014826],[141.377996,43.014366],[141.377184,43.012362],[141.376954,43.009966],[141.375333,43.008111],[141.375286,43.007357],[141.374429,43.005227],[141.374263,43.004222],[141.375497,43.001118],[141.375429,42.999051],[141.374492,42.996927],[141.373428,42.995658],[141.373253,42.992233],[141.372802,42.991525],[141.371698,42.991793],[141.370478,42.99128],[141.369408,42.990322],[141.3679,42.988497],[141.368028,42.988012],[141.368012,42.985877],[141.36877,42.98539],[141.368898,42.983911],[141.368738,42.982026],[141.369347,42.981357],[141.369119,42.980288],[141.369576,42.979142],[141.368848,42.977412],[141.368703,42.974418],[141.36811,42.972703],[141.367909,42.970135],[141.36754,42.968889],[141.36837,42.965714],[141.367777,42.964138],[141.366024,42.962434],[141.364964,42.960972],[141.364571,42.958975],[141.365226,42.95612],[141.365102,42.953688],[141.364657,42.952331],[141.365835,42.94951],[141.365631,42.947992],[141.365698,42.946541],[141.364901,42.945772],[141.364834,42.943734],[141.363713,42.941538],[141.363589,42.940335],[141.362968,42.939468],[141.363093,42.937505],[141.363297,42.937224],[141.364901,42.937235],[141.365694,42.936524],[141.366604,42.936186],[141.368204,42.934964],[141.36867,42.932574],[141.367933,42.931509],[141.367985,42.930821],[141.367111,42.929348],[141.366913,42.927147],[141.367915,42.927772],[141.368668,42.929563],[141.370065,42.930177],[141.373183,42.930813],[141.37423,42.931516],[141.375533,42.931523],[141.376851,42.931898],[141.377804,42.932388],[141.380125,42.932834],[141.380802,42.93335],[141.382031,42.932871],[141.383449,42.933404],[141.385267,42.933362],[141.386526,42.9336],[141.387463,42.934616],[141.387463,42.935366],[141.386859,42.9371],[141.38807,42.941206],[141.388632,42.941977],[141.388663,42.942589],[141.388166,42.943443],[141.38853,42.94505],[141.388343,42.946771],[141.388444,42.947818],[141.389301,42.949484],[141.388717,42.951103],[141.389176,42.952221],[141.389373,42.953364],[141.391435,42.954509],[141.391331,42.954957],[141.392071,42.9559],[141.393399,42.956879],[141.393305,42.95742],[141.394399,42.958668],[141.395003,42.95877],[141.395878,42.960103],[141.395628,42.962217],[141.395929,42.963295],[141.397195,42.963243],[141.396878,42.963985],[141.398594,42.964183],[141.398378,42.965441],[141.399208,42.96568],[141.398841,42.966378],[141.400184,42.966373],[141.401132,42.966996],[141.401596,42.96774],[141.403213,42.968399],[141.403799,42.969198],[141.405018,42.969276],[141.406448,42.970783],[141.40747,42.971607],[141.408919,42.971759],[141.410079,42.972606],[141.411704,42.972112],[141.41217,42.972958],[141.411938,42.973557],[141.413209,42.974016],[141.415167,42.974349],[141.416441,42.974734],[141.417389,42.974276],[141.419011,42.974099],[141.420691,42.974578],[141.42211,42.974792],[141.422726,42.975552],[141.412326,42.980533],[141.406852,42.980942],[141.413167,42.986553],[141.417817,42.990902],[141.416197,42.994474],[141.419452,42.996614],[141.421311,42.998557],[141.428044,43.006811],[141.423274,43.009639],[141.424378,43.011243],[141.426695,43.012806],[141.426966,43.013279],[141.428116,43.013946],[141.428356,43.015024],[141.428903,43.01579],[141.428559,43.017232],[141.429116,43.017701],[141.429715,43.019649],[141.429101,43.020154],[141.429304,43.021269],[141.429981,43.023112],[141.431053,43.02418],[141.433115,43.0247],[141.434069,43.026091],[141.429046,43.028127],[141.420395,43.031439],[141.407303,43.036667],[141.400844,43.039037],[141.397423,43.040421],[141.394678,43.041624],[141.388996,43.045072],[141.387444,43.045561],[141.387486,43.045895],[141.38558,43.047207],[141.384793,43.046598],[141.380638,43.049196],[141.377184,43.051253],[141.374658,43.052883],[141.371836,43.054586],[141.366446,43.057969],[141.363134,43.054526],[141.36229,43.05223],[141.362009,43.050506],[141.360514,43.047423],[141.360103,43.045256],[141.359926,43.042855],[141.359322,43.041658],[141.357723,43.03909],[141.356749,43.037226],[141.355963,43.035314],[141.355453,43.031544],[141.354589,43.029065],[141.353339,43.026586],[141.352433,43.022884]]]]}},
  {"type":"Feature","properties":{"name":"南区","code":"01106"},"geometry":{"type":"MultiPolygon","coordinates":[[[[141.202356,43.019246],[141.202936,43.019981],[141.202967,43.020613],[141.203691,43.02103],[141.202561,43.02254],[141.201735,43.022754],[141.20023,43.022522],[141.199204,43.022706],[141.197777,43.024146],[141.196001,43.024894],[141.195394,43.025342],[141.193374,43.025834],[141.192017,43.025662],[141.189978,43.026935],[141.188507,43.028242],[141.187889,43.029422],[141.188166,43.031046],[141.18783,43.031671],[141.186061,43.03196],[141.185504,43.032306],[141.184306,43.03403],[141.183043,43.034785],[141.183262,43.035282],[141.186608,43.037194],[141.187303,43.038754],[141.186194,43.039527],[141.186611,43.040852],[141.186506,43.041849],[141.186869,43.042782],[141.185368,43.043695],[141.183259,43.044023],[141.18147,43.046364],[141.180012,43.046593],[141.178074,43.046231],[141.177824,43.046403],[141.178428,43.048562],[141.178144,43.049314],[141.177009,43.050444],[141.174782,43.051587],[141.175113,43.052665],[141.174613,43.055175],[141.170848,43.056956],[141.169809,43.057164],[141.168116,43.057789],[141.167673,43.058149],[141.164783,43.059068],[141.162931,43.060104],[141.161413,43.060794],[141.160241,43.062593],[141.159351,43.064544],[141.158398,43.065775],[141.157533,43.066286],[141.155682,43.066824],[141.152856,43.068533],[141.152799,43.069748],[141.155733,43.071374],[141.157535,43.072879],[141.158563,43.074381],[141.160714,43.076441],[141.165503,43.082495],[141.164206,43.085109],[141.163648,43.086739],[141.162549,43.085989],[141.160169,43.086046],[141.157591,43.085224],[141.156748,43.085312],[141.155771,43.085924],[141.154347,43.086301],[141.152029,43.088368],[141.152279,43.089478],[141.152258,43.090606],[141.152732,43.091961],[141.152068,43.092497],[141.148956,43.093029],[141.145766,43.093439],[141.144219,43.094496],[141.142735,43.094772],[141.139499,43.094185],[141.137624,43.093508],[141.135658,43.09347],[141.134918,43.09383],[141.133512,43.095356],[141.133351,43.095939],[141.133686,43.098429],[141.132944,43.100068],[141.132379,43.102569],[141.132719,43.103349],[141.133865,43.10512],[141.13403,43.105902],[141.131941,43.106918],[141.12785,43.10726],[141.125381,43.107677],[141.124204,43.108515],[141.122848,43.10924],[141.121173,43.110481],[141.120008,43.111546],[141.118465,43.112214],[141.11665,43.112701],[141.115215,43.113459],[141.113333,43.113865],[141.111911,43.113938],[141.110873,43.115391],[141.10969,43.11809],[141.109112,43.118965],[141.108463,43.119336],[141.1057,43.119038],[141.104572,43.11827],[141.103769,43.116194],[141.10311,43.115526],[141.102189,43.115418],[141.101069,43.11595],[141.096384,43.118712],[141.093983,43.119497],[141.09179,43.119931],[141.09109,43.12048],[141.089379,43.118703],[141.088513,43.118152],[141.087051,43.117746],[141.085651,43.117638],[141.083494,43.117737],[141.082465,43.11798],[141.079748,43.117051],[141.077834,43.117376],[141.076074,43.11826],[141.075261,43.118206],[141.074964,43.117583],[141.075009,43.116599],[141.074747,43.115805],[141.073501,43.114045],[141.072743,43.113323],[141.0724,43.111517],[141.071742,43.108971],[141.070676,43.108646],[141.069331,43.109098],[141.06703,43.109368],[141.065459,43.110804],[141.064195,43.111165],[141.062859,43.109396],[141.06266,43.108718],[141.062859,43.106751],[141.062083,43.105045],[141.062209,43.103339],[141.063654,43.100874],[141.063753,43.100279],[141.064697,43.098248],[141.064733,43.097241],[141.065076,43.096889],[141.067098,43.096523],[141.068172,43.095657],[141.069797,43.092981],[141.069784,43.092119],[141.066579,43.09039],[141.065649,43.090074],[141.063822,43.089758],[141.062454,43.089316],[141.059376,43.089334],[141.059818,43.088553],[141.059683,43.087316],[141.060324,43.086468],[141.061936,43.085694],[141.063461,43.085226],[141.065184,43.084188],[141.065245,43.083558],[141.063118,43.080846],[141.062811,43.079996],[141.063058,43.078462],[141.062684,43.077418],[141.061178,43.075933],[141.060664,43.075088],[141.060043,43.07343],[141.059219,43.069884],[141.058453,43.06856],[141.057419,43.068194],[141.053445,43.067575],[141.050755,43.067403],[141.04942,43.066918],[141.048026,43.065799],[141.047133,43.064696],[141.045046,43.06123],[141.045005,43.06084],[141.044362,43.055817],[141.044408,43.055015],[141.044919,43.052739],[141.044895,43.051436],[141.042936,43.049709],[141.040133,43.047782],[141.038857,43.047066],[141.038281,43.046501],[141.037343,43.043768],[141.03702,43.043579],[141.034103,43.043235],[141.032978,43.043003],[141.032039,43.042422],[141.031498,43.041599],[141.03047,43.04105],[141.029459,43.039995],[141.029305,43.039479],[141.028049,43.038407],[141.026055,43.036104],[141.025148,43.035571],[141.022829,43.034565],[141.020493,43.032929],[141.019108,43.032342],[141.018196,43.032235],[141.015238,43.032756],[141.013113,43.033822],[141.012426,43.033833],[141.010971,43.033391],[141.009644,43.032665],[141.00779,43.031051],[141.006754,43.030582],[141.004968,43.029366],[141.002581,43.028543],[141.000485,43.026906],[140.999753,43.025927],[140.999078,43.025475],[140.997582,43.02534],[140.99458,43.025582],[140.991158,43.023566],[140.990592,43.022794],[140.991697,43.021766],[140.992164,43.020022],[140.992748,43.0189],[140.993303,43.017244],[140.994609,43.016589],[140.996899,43.016122],[140.998244,43.015358],[140.999202,43.014605],[140.999773,43.01369],[140.999999,43.012748],[140.999385,43.010273],[140.99959,43.009121],[140.999289,43.007652],[140.999402,43.006027],[140.999789,43.004176],[140.999633,43.003218],[140.998787,43.001631],[140.999139,43.000732],[140.996346,42.999688],[140.995439,42.998881],[140.995499,42.997907],[140.994585,42.996261],[140.992869,42.994569],[140.993309,42.993233],[140.99452,42.991973],[140.996346,42.990864],[140.997785,42.990455],[140.997564,42.988211],[140.997718,42.987074],[140.998174,42.986149],[140.999138,42.984129],[140.999685,42.983588],[141.001103,42.982809],[141.001142,42.981338],[141.000196,42.979595],[141.00007,42.978656],[141.001501,42.978304],[141.003396,42.978408],[141.004267,42.978693],[141.006357,42.97863],[141.007391,42.977361],[141.007233,42.975921],[141.008321,42.974698],[141.008564,42.974071],[141.007869,42.972871],[141.008063,42.971539],[141.009711,42.970898],[141.010523,42.970307],[141.01069,42.968849],[141.011047,42.967603],[141.012036,42.966132],[141.013611,42.965441],[141.016418,42.965604],[141.019623,42.965198],[141.020814,42.964783],[141.022949,42.963497],[141.024209,42.961971],[141.025531,42.961289],[141.026799,42.961421],[141.028366,42.961822],[141.029828,42.961096],[141.032839,42.960126],[141.034198,42.958912],[141.037881,42.958203],[141.039099,42.958419],[141.040467,42.958049],[141.041622,42.956772],[141.042327,42.956446],[141.044051,42.956145],[141.044881,42.95503],[141.046908,42.953311],[141.047463,42.953089],[141.050893,42.952616],[141.052748,42.952589],[141.052031,42.94984],[141.051205,42.946085],[141.049711,42.944266],[141.048533,42.942528],[141.048375,42.940786],[141.048059,42.940208],[141.046548,42.939495],[141.045952,42.938417],[141.044133,42.937383],[141.042793,42.936413],[141.042188,42.935293],[141.041391,42.933261],[141.040951,42.931231],[141.039589,42.928396],[141.038018,42.926812],[141.036538,42.924835],[141.03466,42.921355],[141.034046,42.919541],[141.034151,42.918496],[141.033587,42.917616],[141.032184,42.91664],[141.028302,42.914835],[141.027178,42.913973],[141.026889,42.912704],[141.028713,42.909703],[141.029223,42.909184],[141.031073,42.908976],[141.031864,42.908074],[141.033881,42.906323],[141.034089,42.905813],[141.033832,42.904427],[141.034906,42.902766],[141.034292,42.901109],[141.0345,42.899611],[141.034211,42.89786],[141.034635,42.895865],[141.037044,42.895498],[141.037202,42.894671],[141.038019,42.893566],[141.037459,42.891503],[141.038131,42.889228],[141.038114,42.888221],[141.038727,42.887491],[141.03951,42.885369],[141.042782,42.884665],[141.044289,42.884123],[141.047977,42.883663],[141.051321,42.884715],[141.053032,42.884787],[141.05764,42.884534],[141.059581,42.884796],[141.061021,42.884684],[141.062646,42.884891],[141.065146,42.884553],[141.066031,42.884566],[141.069872,42.88398],[141.072083,42.885149],[141.074263,42.885591],[141.078484,42.885668],[141.079445,42.885312],[141.081137,42.88319],[141.08241,42.882004],[141.083214,42.880284],[141.085701,42.879427],[141.086852,42.879228],[141.088756,42.879409],[141.09364,42.880745],[141.095693,42.882054],[141.099263,42.883695],[141.101498,42.882884],[141.102766,42.881765],[141.104283,42.879012],[141.10561,42.875541],[141.106792,42.873668],[141.107117,42.872698],[141.106468,42.872057],[141.104197,42.871068],[141.101697,42.869475],[141.100794,42.868288],[141.100514,42.867435],[141.100279,42.865016],[141.099142,42.864145],[141.098371,42.863138],[141.09828,42.862308],[141.098966,42.860277],[141.098926,42.859045],[141.098033,42.857536],[141.097513,42.855384],[141.097798,42.854179],[141.098263,42.853624],[141.100014,42.852351],[141.100506,42.850361],[141.100835,42.849594],[141.103647,42.847423],[141.102334,42.84699],[141.10065,42.846141],[141.098935,42.844954],[141.094382,42.842772],[141.094278,42.842133],[141.094715,42.841068],[141.095772,42.839236],[141.097388,42.836889],[141.098558,42.835421],[141.099858,42.833011],[141.099731,42.830926],[141.100499,42.829084],[141.100661,42.82792],[141.097655,42.826231],[141.097123,42.825211],[141.096211,42.824299],[141.093151,42.823044],[141.094451,42.822088],[141.094821,42.821086],[141.098044,42.820093],[141.102584,42.817403],[141.104643,42.816393],[141.110402,42.814344],[141.112217,42.813369],[141.113616,42.811257],[141.11609,42.810814],[141.118906,42.80965],[141.119791,42.80891],[141.120251,42.808098],[141.12176,42.80696],[141.122297,42.806112],[141.123125,42.805403],[141.124789,42.804934],[141.126088,42.804177],[141.129814,42.804351],[141.132166,42.804206],[141.133074,42.803888],[141.134598,42.801498],[141.134809,42.799935],[141.135249,42.799167],[141.136124,42.798592],[141.135624,42.797055],[141.135744,42.795814],[141.136739,42.794973],[141.138323,42.793056],[141.138695,42.792118],[141.140249,42.789223],[141.141078,42.788697],[141.142919,42.788317],[141.144848,42.78734],[141.146629,42.787523],[141.148395,42.787218],[141.150306,42.787265],[141.151436,42.787067],[141.153929,42.785987],[141.155611,42.785828],[141.156413,42.785023],[141.157103,42.783765],[141.159129,42.781901],[141.160655,42.780839],[141.161801,42.780888],[141.162741,42.781698],[141.163837,42.78174],[141.166457,42.781099],[141.169547,42.781693],[141.169977,42.782039],[141.17081,42.783876],[141.171946,42.784886],[141.173464,42.785204],[141.174576,42.784985],[141.175232,42.784563],[141.176971,42.783969],[141.17882,42.783886],[141.181966,42.78542],[141.18445,42.78599],[141.186913,42.786277],[141.189189,42.786142],[141.190778,42.785449],[141.192413,42.785009],[141.196819,42.784335],[141.199084,42.78435],[141.202048,42.784163],[141.204196,42.784699],[141.206003,42.785585],[141.211748,42.787014],[141.213821,42.786889],[141.215451,42.787226],[141.216393,42.787197],[141.219482,42.787668],[141.222562,42.787653],[141.224057,42.788668],[141.226929,42.789637],[141.228012,42.790538],[141.229291,42.790684],[141.230283,42.791017],[141.231223,42.791642],[141.23064,42.792285],[141.230634,42.792991],[141.229468,42.793985],[141.229476,42.794772],[141.230421,42.796233],[141.230389,42.797251],[141.22722,42.798243],[141.226189,42.799009],[141.22446,42.79955],[141.224285,42.801831],[141.222222,42.804914],[141.220048,42.805318],[141.219519,42.805951],[141.219139,42.807245],[141.219285,42.807966],[141.22055,42.808945],[141.221972,42.810705],[141.222474,42.811794],[141.224906,42.812776],[141.226443,42.813216],[141.228526,42.813273],[141.229578,42.813437],[141.230599,42.813203],[141.231977,42.814612],[141.231948,42.817726],[141.232208,42.818432],[141.23182,42.820515],[141.232192,42.820791],[141.235606,42.82114],[141.235306,42.822322],[141.235405,42.824322],[141.235869,42.825238],[141.23554,42.825772],[141.235556,42.827418],[141.238331,42.828576],[141.239532,42.829225],[141.239157,42.830871],[141.240313,42.832558],[141.240398,42.834716],[141.240776,42.8358],[141.241448,42.836683],[141.241281,42.837617],[141.242916,42.839765],[141.246334,42.840026],[141.247898,42.83995],[141.248575,42.840151],[141.248377,42.84088],[141.249642,42.841687],[141.252317,42.842981],[141.252642,42.843585],[141.252866,42.844939],[141.254272,42.846179],[141.256449,42.848299],[141.256636,42.848851],[141.256381,42.849697],[141.256696,42.850892],[141.256375,42.852074],[141.255878,42.855102],[141.254982,42.856639],[141.255026,42.858136],[141.255922,42.860333],[141.256167,42.861289],[141.255857,42.862784],[141.253896,42.865039],[141.256783,42.864411],[141.258211,42.864737],[141.259981,42.866018],[141.265994,42.86788],[141.266828,42.868033],[141.268563,42.867984],[141.270749,42.869239],[141.271825,42.869542],[141.27308,42.870286],[141.273868,42.870982],[141.274501,42.87106],[141.275211,42.871659],[141.276962,42.872301],[141.278995,42.872652],[141.279349,42.873483],[141.280181,42.873892],[141.281614,42.873641],[141.283229,42.872721],[141.286494,42.873641],[141.287023,42.874169],[141.287345,42.875469],[141.288663,42.876763],[141.289379,42.877869],[141.288834,42.878635],[141.289829,42.879968],[141.290243,42.880869],[141.291293,42.881117],[141.292079,42.881734],[141.292899,42.883288],[141.294626,42.884275],[141.29624,42.884434],[141.296959,42.885241],[141.298042,42.885541],[141.299773,42.885049],[141.301528,42.885603],[141.303335,42.886786],[141.304921,42.886721],[141.305814,42.886101],[141.308931,42.886328],[141.311298,42.885739],[141.311509,42.884622],[141.313811,42.883333],[141.314741,42.882438],[141.31522,42.881063],[141.315814,42.880333],[141.316074,42.878951],[141.316528,42.877792],[141.316632,42.8758],[141.317449,42.874756],[141.31921,42.874571],[141.319918,42.873874],[141.320588,42.872636],[141.322535,42.871976],[141.324385,42.871574],[141.327584,42.87203],[141.329071,42.871189],[141.331469,42.870994],[141.332558,42.870043],[141.334706,42.870218],[141.335727,42.870601],[141.336852,42.871416],[141.339456,42.872033],[141.341016,42.872106],[141.343593,42.872783],[141.346357,42.874611],[141.349283,42.873752],[141.349983,42.873749],[141.35183,42.874496],[141.352233,42.874887],[141.353915,42.875523],[141.355153,42.875335],[141.356426,42.876184],[141.357712,42.876343],[141.358214,42.87716],[141.359209,42.878108],[141.359623,42.879699],[141.359474,42.880168],[141.360204,42.881353],[141.36149,42.882009],[141.361998,42.882493],[141.363492,42.883123],[141.364391,42.883238],[141.366766,42.884894],[141.367958,42.885428],[141.368546,42.886626],[141.369374,42.887407],[141.369603,42.888456],[141.369567,42.890618],[141.370155,42.891325],[141.373592,42.890784],[141.375196,42.890292],[141.376329,42.890938],[141.378379,42.891772],[141.379025,42.891473],[141.380222,42.891532],[141.382496,42.891314],[141.383613,42.890817],[141.385084,42.890618],[141.386524,42.891053],[141.387229,42.891016],[141.388058,42.890192],[141.389688,42.890007],[141.390485,42.890378],[141.392083,42.890101],[141.3937,42.890593],[141.394682,42.890364],[141.395388,42.890911],[141.396601,42.891406],[141.396948,42.891864],[141.397413,42.893369],[141.39734,42.895023],[141.397148,42.895249],[141.395533,42.899543],[141.39572,42.90021],[141.395343,42.901048],[141.395957,42.902077],[141.395918,42.902496],[141.396751,42.903102],[141.397313,42.904036],[141.39674,42.905011],[141.396589,42.905927],[141.395467,42.906971],[141.395051,42.907828],[141.395191,42.909073],[141.394998,42.909521],[141.393009,42.910791],[141.392324,42.910815],[141.391975,42.911741],[141.392865,42.91257],[141.394321,42.913583],[141.393394,42.914088],[141.393641,42.91445],[141.393438,42.915452],[141.392686,42.917355],[141.392598,42.918332],[141.393031,42.919129],[141.392167,42.920898],[141.392177,42.921929],[141.39301,42.924263],[141.393508,42.92656],[141.394114,42.927303],[141.393713,42.927684],[141.386817,42.933267],[141.386526,42.9336],[141.385267,42.933362],[141.383449,42.933404],[141.382031,42.932871],[141.380802,42.93335],[141.380125,42.932834],[141.377804,42.932388],[141.376851,42.931898],[141.375533,42.931523],[141.37423,42.931516],[141.373183,42.930813],[141.370065,42.930177],[141.368668,42.929563],[141.367915,42.927772],[141.366913,42.927147],[141.367111,42.929348],[141.367985,42.930821],[141.367933,42.931509],[141.36867,42.932574],[141.368204,42.934964],[141.366604,42.936186],[141.365694,42.936524],[141.364901,42.937235],[141.363297,42.937224],[141.363093,42.937505],[141.362968,42.939468],[141.363589,42.940335],[141.363713,42.941538],[141.364834,42.943734],[141.364901,42.945772],[141.365698,42.946541],[141.365631,42.947992],[141.365835,42.94951],[141.364657,42.952331],[141.365102,42.953688],[141.365226,42.95612],[141.364571,42.958975],[141.364964,42.960972],[141.366024,42.962434],[141.367777,42.964138],[141.36837,42.965714],[141.36754,42.968889],[141.367909,42.970135],[141.36811,42.972703],[141.368703,42.974418],[141.368848,42.977412],[141.369576,42.979142],[141.369119,42.980288],[141.369347,42.981357],[141.368738,42.982026],[141.368898,42.983911],[141.36877,42.98539],[141.368012,42.985877],[141.368028,42.988012],[141.3679,42.988497],[141.369408,42.990322],[141.370478,42.99128],[141.371698,42.991793],[141.372802,42.991525],[141.373253,42.992233],[141.373428,42.995658],[141.374492,42.996927],[141.375429,42.999051],[141.375497,43.001118],[141.374263,43.004222],[141.374429,43.005227],[141.375286,43.007357],[141.375333,43.008111],[141.376954,43.009966],[141.377184,43.012362],[141.377996,43.014366],[141.373474,43.014826],[141.372059,43.014856],[141.371996,43.017283],[141.370713,43.017645],[141.370663,43.018976],[141.367927,43.019124],[141.367395,43.019327],[141.36194,43.019769],[141.360807,43.020048],[141.36026,43.019866],[141.358667,43.018233],[141.358985,43.016416],[141.358668,43.015739],[141.358959,43.014476],[141.358675,43.013697],[141.356288,43.014593],[141.355348,43.012668],[141.354506,43.012687],[141.354191,43.011801],[141.352741,43.012262],[141.353186,43.013877],[141.353269,43.015085],[141.353105,43.017707],[141.352605,43.020339],[141.352433,43.022884],[141.351701,43.022456],[141.349751,43.020785],[141.347788,43.018285],[141.346038,43.017103],[141.344528,43.018436],[141.343882,43.01954],[141.341679,43.022716],[141.340715,43.024237],[141.339528,43.025378],[141.338317,43.026279],[141.336318,43.028096],[141.334091,43.027976],[141.332419,43.028502],[141.328174,43.028455],[141.32367,43.029687],[141.322162,43.029309],[141.319889,43.029241],[141.319493,43.030225],[141.319774,43.031079],[141.320777,43.032723],[141.323133,43.033403],[141.32343,43.03371],[141.323607,43.035131],[141.322173,43.035405],[141.320331,43.035282],[141.319326,43.035509],[141.316884,43.034113],[141.316014,43.033855],[141.314353,43.033928],[141.312477,43.035089],[141.310373,43.035146],[141.31034,43.035764],[141.30816,43.035777],[141.307819,43.035545],[141.308223,43.034183],[141.307139,43.032824],[141.306816,43.031975],[141.307238,43.031402],[141.308541,43.030938],[141.309358,43.029933],[141.310343,43.029444],[141.310775,43.028085],[141.30946,43.027655],[141.308536,43.027095],[141.307265,43.026673],[141.306114,43.026757],[141.304627,43.027108],[141.304109,43.026429],[141.300742,43.0244],[141.293352,43.020119],[141.292847,43.019409],[141.292745,43.01856],[141.291542,43.016622],[141.291553,43.016008],[141.291043,43.014321],[141.290355,43.013888],[141.288142,43.01356],[141.285853,43.013368],[141.285046,43.013073],[141.284775,43.012073],[141.283645,43.011756],[141.282921,43.009347],[141.281442,43.008644],[141.278164,43.007336],[141.276909,43.006417],[141.272222,43.004312],[141.271161,43.003976],[141.270446,43.004489],[141.266666,43.00442],[141.265697,43.004138],[141.264995,43.003523],[141.265139,43.002449],[141.263674,43.002104],[141.26296,43.001544],[141.262502,43.000039],[141.261903,42.999313],[141.259942,42.997657],[141.25889,42.997516],[141.258031,42.997821],[141.254766,42.997938],[141.254201,42.997834],[141.253516,43.000047],[141.251443,43.003472],[141.250339,43.004044],[141.249178,43.003175],[141.2476,43.003216],[141.245008,43.003799],[141.244842,43.004101],[141.242293,43.004759],[141.240071,43.005944],[141.239116,43.006056],[141.237366,43.006778],[141.232994,43.006595],[141.229679,43.007089],[141.227057,43.007839],[141.226057,43.008478],[141.225643,43.009698],[141.225187,43.009774],[141.223081,43.009441],[141.222016,43.00948],[141.220456,43.008821],[141.219224,43.008873],[141.218661,43.009313],[141.216282,43.010193],[141.21462,43.010274],[141.211574,43.012536],[141.210571,43.01263],[141.208558,43.013698],[141.206712,43.014002],[141.205452,43.015765],[141.204603,43.016309],[141.203158,43.016723],[141.201894,43.016728],[141.202402,43.01827],[141.202356,43.019246]]]]}},
  {"type":"Feature","properties":{"name":"西区","code":"01107"},"geometry":{"type":"MultiPolygon","coordinates":[[[[141.328273,43.086116],[141.324559,43.088851],[141.320502,43.091736],[141.315658,43.095277],[141.311908,43.097938],[141.309588,43.099693],[141.304427,43.103401],[141.304018,43.103635],[141.299554,43.106921],[141.295807,43.109934],[141.28724,43.116107],[141.285994,43.116953],[141.279936,43.111425],[141.271379,43.103803],[141.270903,43.103231],[141.268519,43.101158],[141.264616,43.09738],[141.264683,43.096403],[141.263808,43.095664],[141.263006,43.095812],[141.262077,43.094898],[141.262262,43.09438],[141.263694,43.093484],[141.262236,43.092109],[141.260564,43.090956],[141.25896,43.090584],[141.257471,43.090596],[141.25734,43.089109],[141.256929,43.088693],[141.255388,43.088245],[141.252315,43.086318],[141.250318,43.085623],[141.248706,43.085891],[141.24826,43.085604],[141.247019,43.086256],[141.246711,43.087995],[141.247472,43.088292],[141.249826,43.087943],[141.251747,43.088417],[141.251023,43.088943],[141.246319,43.09349],[141.244615,43.094506],[141.241527,43.095375],[141.239621,43.095563],[141.237491,43.094532],[141.233049,43.089925],[141.229104,43.088813],[141.227193,43.084574],[141.226979,43.082814],[141.225784,43.081249],[141.224727,43.080507],[141.223199,43.079992],[141.220319,43.080023],[141.21734,43.08026],[141.213869,43.079752],[141.205826,43.076908],[141.204154,43.076393],[141.199235,43.076968],[141.190939,43.076715],[141.186835,43.077585],[141.181393,43.077616],[141.176101,43.077267],[141.172711,43.078353],[141.171539,43.081074],[141.170361,43.082216],[141.165492,43.08462],[141.164206,43.085109],[141.165503,43.082495],[141.160714,43.076441],[141.158563,43.074381],[141.157535,43.072879],[141.155733,43.071374],[141.152799,43.069748],[141.152856,43.068533],[141.155682,43.066824],[141.157533,43.066286],[141.158398,43.065775],[141.159351,43.064544],[141.160241,43.062593],[141.161413,43.060794],[141.162931,43.060104],[141.164783,43.059068],[141.167673,43.058149],[141.168116,43.057789],[141.169809,43.057164],[141.170848,43.056956],[141.174613,43.055175],[141.175113,43.052665],[141.174782,43.051587],[141.177009,43.050444],[141.178144,43.049314],[141.178428,43.048562],[141.177824,43.046403],[141.178074,43.046231],[141.180012,43.046593],[141.18147,43.046364],[141.183259,43.044023],[141.185368,43.043695],[141.186869,43.042782],[141.186506,43.041849],[141.186611,43.040852],[141.186194,43.039527],[141.187303,43.038754],[141.186608,43.037194],[141.183262,43.035282],[141.183043,43.034785],[141.184306,43.03403],[141.185504,43.032306],[141.186061,43.03196],[141.18783,43.031671],[141.188166,43.031046],[141.187889,43.029422],[141.188507,43.028242],[141.189978,43.026935],[141.192017,43.025662],[141.193374,43.025834],[141.195394,43.025342],[141.196001,43.024894],[141.197777,43.024146],[141.199204,43.022706],[141.20023,43.022522],[141.201735,43.022754],[141.202561,43.02254],[141.203691,43.02103],[141.202967,43.020613],[141.202936,43.019981],[141.202356,43.019246],[141.207454,43.017173],[141.208495,43.016879],[141.209761,43.016835],[141.210121,43.016505],[141.212669,43.015601],[141.214964,43.015708],[141.216654,43.016028],[141.21901,43.015565],[141.220776,43.015846],[141.222724,43.015729],[141.224822,43.015867],[141.226353,43.015453],[141.227833,43.015542],[141.229733,43.015195],[141.231093,43.015831],[141.232215,43.016575],[141.233191,43.0182],[141.234196,43.018359],[141.235597,43.01939],[141.235956,43.020164],[141.236665,43.020776],[141.237326,43.020833],[141.238724,43.021814],[141.240359,43.023604],[141.241633,43.024598],[141.241719,43.025085],[141.242757,43.026033],[141.243453,43.026119],[141.244918,43.026786],[141.245687,43.027629],[141.245994,43.028783],[141.246702,43.02976],[141.247366,43.030185],[141.247658,43.030973],[141.248301,43.031593],[141.248041,43.033203],[141.24778,43.033561],[141.248774,43.035624],[141.249535,43.035958],[141.249571,43.037205],[141.250704,43.037708],[141.251493,43.038426],[141.253169,43.039275],[141.253453,43.040113],[141.254727,43.040019],[141.255862,43.040368],[141.257224,43.041764],[141.258234,43.042028],[141.25795,43.043342],[141.258643,43.04381],[141.261515,43.043954],[141.262585,43.044842],[141.26347,43.04517],[141.263775,43.046266],[141.264512,43.047289],[141.264775,43.048175],[141.265774,43.048518],[141.265411,43.046279],[141.265215,43.044206],[141.26384,43.04216],[141.265468,43.04123],[141.26577,43.040442],[141.265661,43.039439],[141.26615,43.039291],[141.268007,43.039504],[141.271079,43.039452],[141.274345,43.038062],[141.274564,43.037135],[141.275148,43.036837],[141.276536,43.037035],[141.277798,43.036527],[141.279181,43.036681],[141.279934,43.036336],[141.282209,43.036739],[141.283266,43.037677],[141.284771,43.037979],[141.285744,43.040484],[141.285635,43.043713],[141.284932,43.044697],[141.284807,43.046269],[141.284385,43.047159],[141.284744,43.048769],[141.284414,43.049428],[141.28475,43.050412],[141.285283,43.050954],[141.284723,43.052852],[141.283791,43.053469],[141.284116,43.054406],[141.292678,43.05801],[141.293394,43.058432],[141.296548,43.060916],[141.303086,43.0662],[141.306348,43.06878],[141.309484,43.067059],[141.314257,43.064643],[141.316272,43.068013],[141.31912,43.073001],[141.319456,43.073983],[141.319526,43.075613],[141.320443,43.076389],[141.321458,43.076686],[141.32238,43.077329],[141.321984,43.07797],[141.322271,43.080225],[141.323927,43.081563],[141.325364,43.081772],[141.326609,43.082277],[141.327374,43.083136],[141.32728,43.085151],[141.328273,43.086116]]]]}},
  {"type":"Feature","properties":{"name":"厚別区","code":"01108"},"geometry":{"type":"MultiPolygon","coordinates":[[[[141.443868,43.022274],[141.454185,43.018155],[141.455705,43.02028],[141.457221,43.020926],[141.457872,43.02052],[141.459955,43.019728],[141.461127,43.018369],[141.461575,43.018317],[141.463033,43.016567],[141.463205,43.014557],[141.467715,43.012948],[141.468673,43.012484],[141.480808,43.007532],[141.482422,43.007058],[141.482224,43.007672],[141.482605,43.008823],[141.482183,43.009203],[141.482344,43.01088],[141.482729,43.011422],[141.485714,43.01338],[141.486677,43.01325],[141.488203,43.013677],[141.489166,43.013625],[141.488989,43.014448],[141.487859,43.015172],[141.488708,43.016307],[141.488807,43.016937],[141.487796,43.017479],[141.486724,43.017359],[141.486297,43.017932],[141.486895,43.018781],[141.486432,43.019385],[141.485557,43.021796],[141.485718,43.022447],[141.487103,43.023317],[141.490197,43.022869],[141.495473,43.023182],[141.49645,43.022883],[141.497471,43.02302],[141.498568,43.022848],[141.500224,43.021453],[141.501214,43.021161],[141.502641,43.021068],[141.504474,43.021161],[141.505422,43.020859],[141.503515,43.033535],[141.502608,43.041076],[141.501535,43.048325],[141.501233,43.051012],[141.49765,43.049783],[141.497494,43.050013],[141.4974,43.057803],[141.495429,43.058006],[141.494403,43.057861],[141.492528,43.056975],[141.490742,43.056954],[141.489711,43.057287],[141.48794,43.058287],[141.485268,43.059266],[141.483123,43.059537],[141.483466,43.06037],[141.482123,43.061443],[141.473889,43.067703],[141.471545,43.069536],[141.473795,43.073733],[141.471826,43.076769],[141.472237,43.077436],[141.471446,43.078592],[141.470873,43.080133],[141.471654,43.081498],[141.470737,43.081883],[141.471456,43.082841],[141.472529,43.084831],[141.475631,43.08806],[141.475438,43.08976],[141.474488,43.090091],[141.475157,43.092742],[141.474772,43.094559],[141.474146,43.094822],[141.474178,43.095916],[141.473462,43.096119],[141.468271,43.089065],[141.465589,43.085333],[141.450531,43.064725],[141.449375,43.062744],[141.449214,43.062108],[141.448626,43.056906],[141.4486,43.056072],[141.44898,43.05438],[141.449896,43.052536],[141.453678,43.046761],[141.454975,43.044688],[141.455282,43.042876],[141.456532,43.04173],[141.457345,43.040309],[141.457532,43.039356],[141.457788,43.036096],[141.457647,43.035189],[141.457064,43.033966],[141.45622,43.034481],[141.455179,43.034616],[141.453496,43.034544],[141.452221,43.032065],[141.451148,43.032617],[141.450663,43.031851],[141.449377,43.030934],[141.447825,43.030341],[141.446164,43.029315],[141.445393,43.028607],[141.4448,43.027628],[141.444326,43.026081],[141.444222,43.023472],[141.443868,43.022274]]]]}},
  {"type":"Feature","properties":{"name":"手稲区","code":"01109"},"geometry":{"type":"MultiPolygon","coordinates":[[[[141.282758,43.133621],[141.27885,43.136404],[141.273044,43.140628],[141.261961,43.148597],[141.247496,43.158911],[141.238019,43.151858],[141.232181,43.155899],[141.229873,43.157258],[141.229259,43.156045],[141.227816,43.156748],[141.227389,43.157566],[141.226649,43.157304],[141.226321,43.159185],[141.224738,43.160325],[141.221218,43.15806],[141.219082,43.15693],[141.216259,43.155654],[141.215449,43.155059],[141.213223,43.154253],[141.212442,43.153649],[141.21076,43.1528],[141.208057,43.151972],[141.205557,43.150206],[141.204869,43.149488],[141.203086,43.148809],[141.201294,43.147606],[141.200678,43.146972],[141.196496,43.144853],[141.194845,43.143842],[141.193928,43.143587],[141.193199,43.142978],[141.191481,43.142155],[141.190554,43.142071],[141.189764,43.141192],[141.188351,43.140733],[141.187613,43.140263],[141.187138,43.138144],[141.188163,43.137336],[141.18832,43.135603],[141.189854,43.135045],[141.189721,43.133192],[141.191523,43.132505],[141.193257,43.132198],[141.194299,43.131036],[141.196148,43.129739],[141.19832,43.127808],[141.198601,43.126605],[141.199205,43.125724],[141.200424,43.124943],[141.201814,43.125283],[141.202538,43.124867],[141.200471,43.123204],[141.199018,43.123266],[141.195252,43.122839],[141.194498,43.12211],[141.192779,43.121824],[141.192149,43.121319],[141.190493,43.120673],[141.187936,43.120178],[141.186717,43.119678],[141.186363,43.119246],[141.184824,43.118281],[141.184683,43.117635],[141.183816,43.117209],[141.183389,43.116235],[141.183827,43.114991],[141.18289,43.113653],[141.181921,43.110908],[141.181249,43.109814],[141.180281,43.109132],[141.178234,43.107346],[141.17763,43.106674],[141.176183,43.106033],[141.173563,43.104508],[141.173443,43.10378],[141.174271,43.102576],[141.173553,43.100456],[141.172199,43.098961],[141.170343,43.098378],[141.167746,43.096649],[141.16685,43.09655],[141.166658,43.095403],[141.167434,43.094325],[141.166283,43.09355],[141.165153,43.093373],[141.164002,43.092795],[141.161463,43.092022],[141.160507,43.090452],[141.15964,43.090137],[141.158867,43.089009],[141.157768,43.088707],[141.155539,43.089238],[141.152279,43.089478],[141.152029,43.088368],[141.154347,43.086301],[141.155771,43.085924],[141.156748,43.085312],[141.157591,43.085224],[141.160169,43.086046],[141.162549,43.085989],[141.163648,43.086739],[141.164206,43.085109],[141.165492,43.08462],[141.170361,43.082216],[141.171539,43.081074],[141.172711,43.078353],[141.176101,43.077267],[141.181393,43.077616],[141.186835,43.077585],[141.190939,43.076715],[141.199235,43.076968],[141.204154,43.076393],[141.205826,43.076908],[141.213869,43.079752],[141.21734,43.08026],[141.220319,43.080023],[141.223199,43.079992],[141.224727,43.080507],[141.225784,43.081249],[141.226979,43.082814],[141.227193,43.084574],[141.229104,43.088813],[141.233049,43.089925],[141.237491,43.094532],[141.239621,43.095563],[141.241527,43.095375],[141.244615,43.094506],[141.246319,43.09349],[141.251023,43.088943],[141.251747,43.088417],[141.249826,43.087943],[141.247472,43.088292],[141.246711,43.087995],[141.247019,43.086256],[141.24826,43.085604],[141.248706,43.085891],[141.250318,43.085623],[141.252315,43.086318],[141.255388,43.088245],[141.256929,43.088693],[141.25734,43.089109],[141.257471,43.090596],[141.25896,43.090584],[141.260564,43.090956],[141.262236,43.092109],[141.263694,43.093484],[141.262262,43.09438],[141.262077,43.094898],[141.263006,43.095812],[141.263808,43.095664],[141.264683,43.096403],[141.264616,43.09738],[141.268519,43.101158],[141.270903,43.103231],[141.271379,43.103803],[141.279936,43.111425],[141.285994,43.116953],[141.282626,43.119344],[141.276626,43.123684],[141.271267,43.127608],[141.266455,43.13104],[141.268022,43.132011],[141.271009,43.132816],[141.27272,43.133521],[141.273248,43.133417],[141.274316,43.132123],[141.276019,43.132181],[141.275759,43.13135],[141.27743,43.131761],[141.278196,43.131022],[141.279487,43.131746],[141.279227,43.132358],[141.280177,43.132587],[141.282758,43.133621]]]]}},
  {"type":"Feature","properties":{"name":"清田区","code":"01110"},"geometry":{"type":"MultiPolygon","coordinates":[[[[141.434069,43.026091],[141.433115,43.0247],[141.431053,43.02418],[141.429981,43.023112],[141.429304,43.021269],[141.429101,43.020154],[141.429715,43.019649],[141.429116,43.017701],[141.428559,43.017232],[141.428903,43.01579],[141.428356,43.015024],[141.428116,43.013946],[141.426966,43.013279],[141.426695,43.012806],[141.424378,43.011243],[141.423274,43.009639],[141.428044,43.006811],[141.421311,42.998557],[141.419452,42.996614],[141.416197,42.994474],[141.417817,42.990902],[141.413167,42.986553],[141.406852,42.980942],[141.412326,42.980533],[141.422726,42.975552],[141.42211,42.974792],[141.420691,42.974578],[141.419011,42.974099],[141.417389,42.974276],[141.416441,42.974734],[141.415167,42.974349],[141.413209,42.974016],[141.411938,42.973557],[141.41217,42.972958],[141.411704,42.972112],[141.410079,42.972606],[141.408919,42.971759],[141.40747,42.971607],[141.406448,42.970783],[141.405018,42.969276],[141.403799,42.969198],[141.403213,42.968399],[141.401596,42.96774],[141.401132,42.966996],[141.400184,42.966373],[141.398841,42.966378],[141.399208,42.96568],[141.398378,42.965441],[141.398594,42.964183],[141.396878,42.963985],[141.397195,42.963243],[141.395929,42.963295],[141.395628,42.962217],[141.395878,42.960103],[141.395003,42.95877],[141.394399,42.958668],[141.393305,42.95742],[141.393399,42.956879],[141.392071,42.9559],[141.391331,42.954957],[141.391435,42.954509],[141.389373,42.953364],[141.389176,42.952221],[141.388717,42.951103],[141.389301,42.949484],[141.388444,42.947818],[141.388343,42.946771],[141.38853,42.94505],[141.388166,42.943443],[141.388663,42.942589],[141.388632,42.941977],[141.38807,42.941206],[141.386859,42.9371],[141.387463,42.935366],[141.387463,42.934616],[141.386526,42.9336],[141.386817,42.933267],[141.393713,42.927684],[141.394114,42.927303],[141.393508,42.92656],[141.39301,42.924263],[141.392177,42.921929],[141.392167,42.920898],[141.393031,42.919129],[141.392598,42.918332],[141.392686,42.917355],[141.393438,42.915452],[141.393641,42.91445],[141.393394,42.914088],[141.394321,42.913583],[141.392865,42.91257],[141.391975,42.911741],[141.392324,42.910815],[141.393009,42.910791],[141.394998,42.909521],[141.395191,42.909073],[141.395051,42.907828],[141.395467,42.906971],[141.396589,42.905927],[141.39674,42.905011],[141.397313,42.904036],[141.396751,42.903102],[141.395918,42.902496],[141.395957,42.902077],[141.395343,42.901048],[141.39572,42.90021],[141.395533,42.899543],[141.397148,42.895249],[141.39734,42.895023],[141.397413,42.893369],[141.396948,42.891864],[141.396601,42.891406],[141.395388,42.890911],[141.394682,42.890364],[141.395021,42.890033],[141.395415,42.888497],[141.395963,42.888198],[141.397037,42.888602],[141.398754,42.888704],[141.400933,42.890206],[141.401536,42.890222],[141.402367,42.889536],[141.403524,42.889539],[141.404337,42.88903],[141.405314,42.888834],[141.407407,42.889404],[141.408892,42.889275],[141.409557,42.888484],[141.411145,42.888221],[141.413087,42.888546],[141.413991,42.88888],[141.415644,42.888449],[141.416607,42.888395],[141.418162,42.889128],[141.418548,42.889626],[141.420272,42.889994],[141.421256,42.891458],[141.420084,42.891813],[141.418884,42.891806],[141.417881,42.892201],[141.41567,42.894136],[141.414066,42.894855],[141.413556,42.895656],[141.413706,42.896375],[141.414295,42.897268],[141.414126,42.897995],[141.414542,42.898904],[141.414542,42.899922],[141.414019,42.900849],[141.415625,42.902549],[141.415748,42.90531],[141.416742,42.906081],[141.416742,42.907682],[141.417159,42.9081],[141.418278,42.908283],[141.418661,42.908963],[141.418549,42.909692],[141.41889,42.910348],[141.420132,42.91114],[141.419895,42.912064],[141.420736,42.913007],[141.421275,42.914213],[141.422879,42.914353],[141.425569,42.915202],[141.427798,42.916143],[141.428376,42.917014],[141.429295,42.917835],[141.430441,42.918374],[141.431248,42.920525],[141.431434,42.921505],[141.432419,42.921816],[141.433688,42.923801],[141.435914,42.924593],[141.436924,42.925331],[141.437543,42.926321],[141.439244,42.926905],[141.441077,42.92811],[141.441942,42.929383],[141.446649,42.934229],[141.449162,42.935607],[141.450868,42.937281],[141.451581,42.9385],[141.454596,42.940875],[141.455257,42.940942],[141.457366,42.941862],[141.458703,42.942581],[141.459746,42.943401],[141.457364,42.94488],[141.458624,42.946778],[141.458203,42.947231],[141.458642,42.948197],[141.460379,42.950004],[141.46191,42.950767],[141.462319,42.951189],[141.462723,42.953386],[141.462337,42.955053],[141.461962,42.955813],[141.462128,42.956501],[141.462136,42.958719],[141.462995,42.96098],[141.463667,42.962305],[141.463909,42.963667],[141.464888,42.964771],[141.465398,42.967432],[141.46583,42.967739],[141.466574,42.969025],[141.467043,42.970366],[141.466959,42.971723],[141.466577,42.972218],[141.46684,42.973757],[141.468146,42.975066],[141.468889,42.976322],[141.470334,42.977566],[141.471521,42.979491],[141.472391,42.980308],[141.474349,42.983118],[141.47444,42.98361],[141.475278,42.984425],[141.476106,42.986109],[141.47677,42.986716],[141.477109,42.988711],[141.477559,42.989364],[141.47853,42.989914],[141.4804,42.990247],[141.480007,42.991669],[141.480564,42.992606],[141.480739,42.99363],[141.480338,42.994708],[141.479168,42.996369],[141.477566,42.997579],[141.47759,42.998561],[141.479155,43.000803],[141.480084,43.001389],[141.480803,43.003027],[141.480683,43.003376],[141.481157,43.005084],[141.482053,43.005928],[141.482422,43.007058],[141.480808,43.007532],[141.468673,43.012484],[141.467715,43.012948],[141.463205,43.014557],[141.463033,43.016567],[141.461575,43.018317],[141.461127,43.018369],[141.459955,43.019728],[141.457872,43.02052],[141.457221,43.020926],[141.455705,43.02028],[141.454185,43.018155],[141.443868,43.022274],[141.434069,43.026091]]]]}}
]}
