{"type":"FeatureCollection", "features": [
  {"type":"Feature","properties":{"name":"東灘区","code":"28101"},"geometry":{"type":"MultiPolygon","coordinates":[[[[135.25676,34.77137],[135.25822,34.76946],[135.25975,34.76728],[135.25774,34.76573],[135.25361,34.76277],[135.25513,34.76271],[135.25572,34.76193],[135.25561,34.76143],[135.2563,34.75983],[135.25711,34.75973],[135.2584,34.75902],[135.25841,34.7576],[135.26017,34.75609],[135.26021,34.75537],[135.26075,34.75459],[135.26012,34.75396],[135.26072,34.7528],[135.262,34.75175],[135.26202,34.7513],[135.26117,34.75023],[135.26061,34.74843],[135.25974,34.74831],[135.25954,34.74753],[135.25831,34.74638],[135.2572,34.74655],[135.25607,34.7464],[135.25524,34.74603],[135.25558,34.74477],[135.25458,34.74433],[135.25386,34.74428],[135.25378,34.74366],[135.25215,34.74307],[135.25124,34.74186],[135.24944,34.742],[135.24883,34.7426],[135.24812,34.74272],[135.24725,34.74219],[135.24574,34.74189],[135.24501,34.74035],[135.24482,34.73925],[135.24528,34.73814],[135.24721,34.73694],[135.24742,34.7362],[135.24812,34.7357],[135.24776,34.73446],[135.24732,34.73392],[135.24683,34.73272],[135.24609,34.73218],[135.24497,34.73208],[135.24451,34.73172],[135.24258,34.73164],[135.24284,34.72686],[135.24255,34.72609],[135.24305,34.72531],[135.24327,34.7238],[135.24607,34.72181],[135.2468,34.72061],[135.24758,34.71985],[135.24795,34.71874],[135.24902,34.71692],[135.24966,34.71426],[135.24789,34.71344],[135.2431,34.71199],[135.24408,34.70995],[135.24513,34.70816],[135.25031,34.70806],[135.25321,34.70784],[135.25433,34.70034],[135.25626,34.70051],[135.2617,34.70114],[135.2682,34.70184],[135.26833,34.70246],[135.26778,34.70586],[135.26791,34.70697],[135.2693,34.70621],[135.27096,34.70678],[135.27101,34.70607],[135.27158,34.70237],[135.27185,34.70221],[135.2881,34.70395],[135.28678,34.7119],[135.28595,34.7119],[135.28346,34.71162],[135.28267,34.71125],[135.28173,34.71244],[135.28418,34.71354],[135.28556,34.71369],[135.28552,34.71406],[135.28729,34.71424],[135.28725,34.71461],[135.28865,34.71474],[135.28948,34.715],[135.29122,34.71482],[135.29187,34.71591],[135.29124,34.71709],[135.29125,34.71774],[135.29241,34.71818],[135.2931,34.71798],[135.2925,34.71939],[135.29174,34.72058],[135.29272,34.72068],[135.29312,34.72009],[135.29262,34.71965],[135.29302,34.71896],[135.29427,34.71946],[135.29761,34.71948],[135.30052,34.71904],[135.30047,34.71967],[135.30346,34.7191],[135.30242,34.72243],[135.30114,34.72563],[135.2996,34.72844],[135.29781,34.72768],[135.2962,34.72724],[135.29583,34.72803],[135.29613,34.72838],[135.29539,34.73005],[135.29653,34.73028],[135.29614,34.73127],[135.29469,34.7309],[135.29347,34.73339],[135.29262,34.73339],[135.29247,34.73453],[135.29289,34.73494],[135.29214,34.73579],[135.29267,34.73673],[135.29162,34.73706],[135.29069,34.73862],[135.29079,34.73932],[135.29039,34.74086],[135.28947,34.74106],[135.28854,34.74081],[135.28682,34.74229],[135.2861,34.74269],[135.28433,34.74439],[135.28594,34.74462],[135.28934,34.74457],[135.28888,34.74555],[135.2875,34.74681],[135.28713,34.74787],[135.28617,34.74843],[135.28528,34.74851],[135.28395,34.74941],[135.2825,34.75008],[135.28217,34.75058],[135.28122,34.75081],[135.28025,34.75149],[135.28015,34.75195],[135.28103,34.75324],[135.28048,34.75438],[135.28071,34.75605],[135.28064,34.75864],[135.28044,34.75973],[135.27997,34.76046],[135.27775,34.76232],[135.27751,34.76406],[135.27685,34.76512],[135.27581,34.76641],[135.27496,34.76671],[135.27367,34.76782],[135.27362,34.7687],[135.27243,34.76964],[135.27146,34.77112],[135.2711,34.77233],[135.27043,34.77336],[135.27024,34.77428],[135.26967,34.77487],[135.2697,34.77569],[135.26853,34.77684],[135.26849,34.77781],[135.26685,34.78027],[135.26636,34.77955],[135.26552,34.77898],[135.2654,34.77816],[135.2637,34.77796],[135.26393,34.77668],[135.26249,34.77531],[135.26124,34.77544],[135.26104,34.77497],[135.25983,34.77372],[135.25935,34.77293],[135.25839,34.77251],[135.25835,34.77201],[135.25676,34.77137]]],[[[135.2544,34.67808],[135.25446,34.67776],[135.26612,34.67907],[135.26609,34.67922],[135.27347,34.68005],[135.27663,34.68031],[135.27695,34.68019],[135.29051,34.6817],[135.28947,34.68803],[135.27877,34.68967],[135.27833,34.69244],[135.28853,34.6909],[135.2891,34.69087],[135.28816,34.69667],[135.28578,34.69674],[135.28578,34.69705],[135.28321,34.69701],[135.28321,34.69734],[135.2814,34.6973],[135.28139,34.69761],[135.27277,34.69875],[135.27236,34.69656],[135.26534,34.6958],[135.26416,34.69778],[135.25221,34.6933],[135.25297,34.68853],[135.2527,34.6885],[135.2544,34.67808]]],[[[135.29884,34.70513],[135.30407,34.7057],[135.30429,34.70592],[135.30372,34.71249],[135.30329,34.71688],[135.29839,34.7176],[135.29693,34.71859],[135.29478,34.71858],[135.29378,34.71833],[135.29387,34.71761],[135.2951,34.71553],[135.2933,34.71481],[135.29221,34.71203],[135.29335,34.70473],[135.29364,34.70454],[135.29884,34.70513]]],[[[135.275,34.66547],[135.27454,34.66542],[135.27681,34.6513],[135.28285,34.65141],[135.28046,34.66608],[135.275,34.66547]]],[[[135.25776,34.67193],[135.26321,34.67257],[135.27177,34.67348],[135.27915,34.67433],[135.29362,34.67594],[135.29578,34.67626],[135.27843,34.67433],[135.27177,34.67357],[135.26319,34.67266],[135.25833,34.6721],[135.25776,34.67193]]]]}},
  {"type":"Feature","properties":{"name":"灘区","code":"28102"},"geometry":{"type":"MultiPolygon","coordinates":[[[[135.25676,34.77137],[135.25399,34.7704],[135.25305,34.77031],[135.25202,34.76993],[135.25093,34.76997],[135.24936,34.77076],[135.24862,34.77072],[135.24051,34.7688],[135.24027,34.76908],[135.23536,34.7673],[135.23491,34.76719],[135.23472,34.7658],[135.23414,34.76539],[135.23294,34.76515],[135.23256,34.76459],[135.23147,34.7639],[135.22998,34.76349],[135.22851,34.76407],[135.22747,34.76383],[135.22458,34.76281],[135.2203,34.76142],[135.21903,34.76048],[135.21667,34.75911],[135.21548,34.75769],[135.20971,34.75667],[135.20787,34.75644],[135.20645,34.75658],[135.20396,34.75637],[135.19967,34.75492],[135.19954,34.75417],[135.1979,34.75408],[135.19701,34.75421],[135.19601,34.75365],[135.19437,34.75339],[135.1973,34.74925],[135.19737,34.7488],[135.19852,34.74716],[135.19833,34.74654],[135.19742,34.74646],[135.1967,34.746],[135.19591,34.74514],[135.19582,34.74444],[135.19665,34.74418],[135.19684,34.74372],[135.19607,34.74251],[135.19629,34.74198],[135.19593,34.74115],[135.19765,34.73717],[135.19761,34.7361],[135.19816,34.73553],[135.19764,34.73476],[135.19876,34.72965],[135.19789,34.72801],[135.19773,34.72678],[135.19648,34.72419],[135.1968,34.72354],[135.19809,34.72277],[135.20105,34.7214],[135.20161,34.72041],[135.20152,34.71891],[135.20179,34.71831],[135.20268,34.71754],[135.20379,34.71741],[135.20628,34.71799],[135.20769,34.71879],[135.20863,34.71725],[135.20951,34.71397],[135.21049,34.71281],[135.21251,34.70947],[135.21378,34.70713],[135.21462,34.70601],[135.21493,34.70518],[135.21623,34.70262],[135.21693,34.70179],[135.21775,34.70211],[135.21849,34.69997],[135.21887,34.69766],[135.21484,34.69525],[135.21625,34.69414],[135.21686,34.69434],[135.2189,34.69549],[135.22402,34.6917],[135.23831,34.69327],[135.23495,34.69854],[135.22818,34.69883],[135.22799,34.70005],[135.22953,34.70028],[135.23976,34.70141],[135.24449,34.69951],[135.24541,34.69936],[135.25433,34.70034],[135.25321,34.70784],[135.25031,34.70806],[135.24513,34.70816],[135.24408,34.70995],[135.2431,34.71199],[135.24789,34.71344],[135.24966,34.71426],[135.24902,34.71692],[135.24795,34.71874],[135.24758,34.71985],[135.2468,34.72061],[135.24607,34.72181],[135.24327,34.7238],[135.24305,34.72531],[135.24255,34.72609],[135.24284,34.72686],[135.24258,34.73164],[135.24451,34.73172],[135.24497,34.73208],[135.24609,34.73218],[135.24683,34.73272],[135.24732,34.73392],[135.24776,34.73446],[135.24812,34.7357],[135.24742,34.7362],[135.24721,34.73694],[135.24528,34.73814],[135.24482,34.73925],[135.24501,34.74035],[135.24574,34.74189],[135.24725,34.74219],[135.24812,34.74272],[135.24883,34.7426],[135.24944,34.742],[135.25124,34.74186],[135.25215,34.74307],[135.25378,34.74366],[135.25386,34.74428],[135.25458,34.74433],[135.25558,34.74477],[135.25524,34.74603],[135.25607,34.7464],[135.2572,34.74655],[135.25831,34.74638],[135.25954,34.74753],[135.25974,34.74831],[135.26061,34.74843],[135.26117,34.75023],[135.26202,34.7513],[135.262,34.75175],[135.26072,34.7528],[135.26012,34.75396],[135.26075,34.75459],[135.26021,34.75537],[135.26017,34.75609],[135.25841,34.7576],[135.2584,34.75902],[135.25711,34.75973],[135.2563,34.75983],[135.25561,34.76143],[135.25572,34.76193],[135.25513,34.76271],[135.25361,34.76277],[135.25774,34.76573],[135.25975,34.76728],[135.25822,34.76946],[135.25676,34.77137]]]]}},
  {"type":"Feature","properties":{"name":"兵庫区","code":"28105"},"geometry":{"type":"MultiPolygon","coordinates":[[[[135.16716,34.64784],[135.17734,34.64886],[135.18323,34.64948],[135.18666,34.6522],[135.18688,34.65303],[135.18608,34.65348],[135.1848,34.65366],[135.18432,34.65419],[135.18515,34.65554],[135.18324,34.65673],[135.18427,34.65928],[135.18412,34.65933],[135.18255,34.65558],[135.18073,34.65541],[135.18055,34.65557],[135.18059,34.65855],[135.17955,34.65909],[135.17861,34.66078],[135.17799,34.66247],[135.17742,34.66301],[135.17741,34.66384],[135.17871,34.66384],[135.17981,34.66241],[135.18271,34.66166],[135.18363,34.66378],[135.186,34.66325],[135.18738,34.66688],[135.18256,34.66816],[135.18047,34.66798],[135.1797,34.66658],[135.17813,34.66665],[135.1782,34.66777],[135.17771,34.66842],[135.17765,34.67043],[135.17963,34.67061],[135.18058,34.67045],[135.18094,34.67073],[135.18208,34.67043],[135.18223,34.66945],[135.1831,34.6695],[135.18501,34.66905],[135.18518,34.66954],[135.18311,34.6702],[135.18274,34.67181],[135.18452,34.67205],[135.18314,34.67268],[135.18334,34.67319],[135.18136,34.6739],[135.17822,34.67515],[135.17565,34.67602],[135.17535,34.67655],[135.17349,34.67834],[135.17461,34.67898],[135.17098,34.68275],[135.17024,34.68433],[135.16964,34.68625],[135.17129,34.68697],[135.17149,34.68748],[135.1726,34.68788],[135.17277,34.68862],[135.17173,34.68891],[135.17303,34.68982],[135.17419,34.69042],[135.17574,34.69221],[135.17512,34.69326],[135.1769,34.6938],[135.17649,34.69482],[135.17391,34.69432],[135.17293,34.69426],[135.17321,34.69557],[135.17432,34.69792],[135.17467,34.69838],[135.17408,34.69969],[135.17415,34.70086],[135.17463,34.70147],[135.17422,34.70306],[135.17463,34.70416],[135.17399,34.70557],[135.17324,34.7064],[135.17309,34.70755],[135.17209,34.70753],[135.17167,34.70822],[135.17189,34.70876],[135.17123,34.70968],[135.17127,34.71088],[135.16995,34.71229],[135.16991,34.71454],[135.16952,34.71433],[135.16911,34.71304],[135.16813,34.71223],[135.16726,34.71101],[135.16626,34.71064],[135.16561,34.71009],[135.1629,34.70867],[135.16229,34.708],[135.16172,34.70974],[135.16092,34.70974],[135.16039,34.70925],[135.16078,34.70876],[135.1601,34.70748],[135.16025,34.7068],[135.15883,34.70669],[135.15775,34.70598],[135.15581,34.70579],[135.15563,34.70543],[135.15377,34.7046],[135.15287,34.70401],[135.15183,34.70292],[135.15093,34.70236],[135.15049,34.70155],[135.14832,34.69983],[135.14808,34.69917],[135.14571,34.69908],[135.14498,34.69933],[135.14333,34.69629],[135.14289,34.69591],[135.14149,34.69679],[135.14093,34.69667],[135.13881,34.69524],[135.13851,34.69439],[135.13775,34.69381],[135.13895,34.69343],[135.14117,34.69219],[135.14252,34.69003],[135.14321,34.68977],[135.14477,34.69021],[135.14533,34.68918],[135.14609,34.68861],[135.14706,34.68833],[135.14796,34.6876],[135.149,34.68794],[135.14882,34.68621],[135.14968,34.68533],[135.14983,34.68409],[135.15043,34.68361],[135.15156,34.682],[135.15211,34.67978],[135.15406,34.67929],[135.15404,34.67741],[135.15499,34.67699],[135.15577,34.67709],[135.15645,34.67598],[135.15571,34.67471],[135.1585,34.6718],[135.15771,34.67127],[135.15849,34.67047],[135.15741,34.66974],[135.15869,34.66845],[135.15877,34.66808],[135.15723,34.6678],[135.15953,34.6654],[135.15946,34.66356],[135.15959,34.65803],[135.15971,34.65449],[135.15944,34.65249],[135.15936,34.65084],[135.16654,34.65184],[135.16716,34.64784]]]]}},
  {"type":"Feature","properties":{"name":"長田区","code":"28106"},"geometry":{"type":"MultiPolygon","coordinates":[[[[135.13775,34.69381],[135.13551,34.69349],[135.13469,34.69358],[135.13373,34.69415],[135.13269,34.69413],[135.12922,34.69199],[135.12678,34.69065],[135.12546,34.68883],[135.12617,34.68773],[135.12504,34.68696],[135.1241,34.68576],[135.12428,34.68525],[135.12374,34.68473],[135.12366,34.6836],[135.12462,34.68228],[135.12554,34.6823],[135.12574,34.68272],[135.12436,34.68511],[135.12521,34.68532],[135.12702,34.68354],[135.12757,34.68339],[135.13075,34.68348],[135.13144,34.68232],[135.13121,34.68135],[135.13199,34.68065],[135.13227,34.67898],[135.13171,34.67738],[135.13064,34.67694],[135.12975,34.67695],[135.12798,34.67639],[135.12852,34.67481],[135.12882,34.67321],[135.12919,34.67241],[135.12962,34.67231],[135.13044,34.67284],[135.13117,34.67281],[135.13155,34.66952],[135.13197,34.66887],[135.13182,34.6674],[135.13205,34.66686],[135.13304,34.66655],[135.13239,34.66577],[135.13273,34.66507],[135.13231,34.66447],[135.13352,34.6635],[135.13784,34.65908],[135.13871,34.65834],[135.14168,34.6553],[135.13872,34.65351],[135.13735,34.65245],[135.13588,34.65161],[135.13558,34.65109],[135.1345,34.65052],[135.1359,34.64926],[135.13778,34.64717],[135.1384,34.64528],[135.1397,34.64247],[135.14756,34.64571],[135.1497,34.6459],[135.1494,34.64689],[135.1467,34.64716],[135.14617,34.64773],[135.1493,34.64902],[135.15035,34.64912],[135.15067,34.64821],[135.14982,34.64783],[135.15073,34.64628],[135.15128,34.64609],[135.16716,34.64784],[135.16654,34.65184],[135.15936,34.65084],[135.15944,34.65249],[135.15971,34.65449],[135.15959,34.65803],[135.15946,34.66356],[135.15953,34.6654],[135.15723,34.6678],[135.15877,34.66808],[135.15869,34.66845],[135.15741,34.66974],[135.15849,34.67047],[135.15771,34.67127],[135.1585,34.6718],[135.15571,34.67471],[135.15645,34.67598],[135.15577,34.67709],[135.15499,34.67699],[135.15404,34.67741],[135.15406,34.67929],[135.15211,34.67978],[135.15156,34.682],[135.15043,34.68361],[135.14983,34.68409],[135.14968,34.68533],[135.14882,34.68621],[135.149,34.68794],[135.14796,34.6876],[135.14706,34.68833],[135.14609,34.68861],[135.14533,34.68918],[135.14477,34.69021],[135.14321,34.68977],[135.14252,34.69003],[135.14117,34.69219],[135.13895,34.69343],[135.13775,34.69381]]]]}},
  {"type":"Feature","properties":{"name":"須磨区","code":"28107"},"geometry":{"type":"MultiPolygon","coordinates":[[[[135.1241,34.68576],[135.12296,34.68662],[135.12236,34.68775],[135.11978,34.68803],[135.11903,34.68912],[135.1192,34.68983],[135.11865,34.69143],[135.11964,34.69198],[135.11811,34.69361],[135.11802,34.69427],[135.11736,34.69502],[135.11598,34.6942],[135.11525,34.69476],[135.11372,34.69557],[135.1133,34.6965],[135.11257,34.69706],[135.1126,34.69788],[135.11214,34.6987],[135.11125,34.69948],[135.11188,34.69987],[135.11313,34.69995],[135.11247,34.70063],[135.11253,34.70143],[135.11149,34.70169],[135.1107,34.70217],[135.1095,34.70243],[135.10752,34.70374],[135.10978,34.70543],[135.10935,34.70718],[135.1088,34.70784],[135.10991,34.70827],[135.10868,34.70955],[135.11007,34.70982],[135.11018,34.71084],[135.10915,34.71142],[135.10917,34.71373],[135.10835,34.71375],[135.10812,34.71245],[135.10827,34.71164],[135.10888,34.71081],[135.10821,34.70955],[135.10849,34.70877],[135.10786,34.70836],[135.1075,34.70745],[135.10705,34.70733],[135.10485,34.70753],[135.10511,34.70894],[135.10307,34.70933],[135.10204,34.70935],[135.10217,34.7114],[135.10304,34.71304],[135.10248,34.71317],[135.10162,34.71178],[135.10145,34.71093],[135.1016,34.70871],[135.10083,34.70801],[135.10007,34.70784],[135.09923,34.70824],[135.09924,34.70989],[135.09967,34.71074],[135.10023,34.71108],[135.10014,34.71174],[135.09891,34.71111],[135.09857,34.71126],[135.0984,34.71233],[135.09733,34.71225],[135.09765,34.71142],[135.09616,34.71174],[135.09554,34.71095],[135.09789,34.71095],[135.09834,34.71051],[135.09795,34.70971],[135.09823,34.70828],[135.09866,34.70776],[135.09851,34.70686],[135.09668,34.70603],[135.09621,34.70715],[135.09645,34.70795],[135.09562,34.70789],[135.09549,34.70687],[135.09596,34.70645],[135.09571,34.70582],[135.09432,34.70488],[135.0931,34.7065],[135.09395,34.70499],[135.09454,34.70426],[135.09295,34.70274],[135.09288,34.7022],[135.09521,34.69905],[135.09521,34.69863],[135.09453,34.69557],[135.0932,34.69409],[135.09325,34.69346],[135.09285,34.69295],[135.09087,34.6929],[135.0895,34.69179],[135.08594,34.69225],[135.08472,34.69171],[135.08283,34.6919],[135.08226,34.6914],[135.08235,34.69073],[135.08147,34.68986],[135.08068,34.68948],[135.07892,34.69033],[135.07816,34.69121],[135.07747,34.69088],[135.07598,34.69263],[135.07443,34.69162],[135.07345,34.69142],[135.07179,34.6918],[135.07079,34.69305],[135.0702,34.69349],[135.06865,34.69284],[135.06833,34.69251],[135.06676,34.69192],[135.06668,34.69156],[135.06569,34.69091],[135.06623,34.68974],[135.06796,34.68904],[135.06904,34.68845],[135.06994,34.68835],[135.07075,34.68795],[135.07066,34.68743],[135.06928,34.68553],[135.06765,34.68368],[135.06772,34.68212],[135.07114,34.6824],[135.07149,34.68145],[135.07261,34.67966],[135.07525,34.67662],[135.07596,34.67518],[135.07648,34.67478],[135.07709,34.67524],[135.0776,34.67607],[135.07825,34.67634],[135.07893,34.67715],[135.08037,34.67697],[135.08123,34.67762],[135.08347,34.6783],[135.08422,34.67761],[135.08444,34.67672],[135.08427,34.67616],[135.08271,34.6751],[135.081,34.67444],[135.08188,34.67243],[135.08198,34.67161],[135.08281,34.67031],[135.08219,34.66982],[135.08048,34.66968],[135.0795,34.67033],[135.07786,34.67101],[135.07768,34.67026],[135.07695,34.66965],[135.07685,34.66888],[135.07818,34.66764],[135.07795,34.66685],[135.07723,34.66714],[135.07592,34.66684],[135.07674,34.66556],[135.07689,34.66487],[135.07774,34.66434],[135.07789,34.66515],[135.07877,34.66532],[135.08066,34.66453],[135.08231,34.66482],[135.08387,34.66703],[135.08484,34.66678],[135.08541,34.66571],[135.08564,34.66466],[135.08623,34.66339],[135.08631,34.66264],[135.08703,34.66222],[135.08698,34.66033],[135.08906,34.65734],[135.09199,34.65666],[135.09244,34.65582],[135.09412,34.65466],[135.09542,34.654],[135.09634,34.65306],[135.09551,34.65202],[135.09622,34.65173],[135.09762,34.65154],[135.09896,34.65186],[135.10038,34.6531],[135.10137,34.65216],[135.10141,34.65177],[135.09997,34.65014],[135.1,34.6497],[135.09913,34.64901],[135.09946,34.64755],[135.09878,34.647],[135.09654,34.64571],[135.0954,34.64535],[135.09444,34.6428],[135.09451,34.6421],[135.09314,34.64069],[135.09283,34.64008],[135.09298,34.6392],[135.0936,34.63773],[135.09367,34.63617],[135.09294,34.63559],[135.09315,34.63472],[135.09655,34.63533],[135.10127,34.63689],[135.10226,34.63706],[135.10421,34.6388],[135.10628,34.63994],[135.10787,34.64048],[135.10853,34.63992],[135.11043,34.64043],[135.11036,34.64104],[135.11226,34.64139],[135.11518,34.64157],[135.11591,34.64128],[135.11738,34.64181],[135.11864,34.64174],[135.1195,34.64134],[135.12035,34.642],[135.1217,34.64239],[135.12285,34.64236],[135.12444,34.64157],[135.12578,34.64244],[135.12657,34.64256],[135.12812,34.64246],[135.12982,34.6421],[135.12993,34.6424],[135.13203,34.64241],[135.13211,34.64125],[135.13406,34.64115],[135.13407,34.64191],[135.1346,34.64266],[135.13574,34.64251],[135.13691,34.64133],[135.1397,34.64247],[135.1384,34.64528],[135.13778,34.64717],[135.1359,34.64926],[135.1345,34.65052],[135.13558,34.65109],[135.13588,34.65161],[135.13735,34.65245],[135.13872,34.65351],[135.14168,34.6553],[135.13871,34.65834],[135.13784,34.65908],[135.13352,34.6635],[135.13231,34.66447],[135.13273,34.66507],[135.13239,34.66577],[135.13304,34.66655],[135.13205,34.66686],[135.13182,34.6674],[135.13197,34.66887],[135.13155,34.66952],[135.13117,34.67281],[135.13044,34.67284],[135.12962,34.67231],[135.12919,34.67241],[135.12882,34.67321],[135.12852,34.67481],[135.12798,34.67639],[135.12975,34.67695],[135.13064,34.67694],[135.13171,34.67738],[135.13227,34.67898],[135.13199,34.68065],[135.13121,34.68135],[135.13144,34.68232],[135.13075,34.68348],[135.12757,34.68339],[135.12702,34.68354],[135.12521,34.68532],[135.12436,34.68511],[135.12574,34.68272],[135.12554,34.6823],[135.12462,34.68228],[135.12366,34.6836],[135.12374,34.68473],[135.12428,34.68525],[135.1241,34.68576]]]]}},
  {"type":"Feature","properties":{"name":"垂水区","code":"28108"},"geometry":{"type":"MultiPolygon","coordinates":[[[[135.07648,34.67478],[135.0756,34.67258],[135.07455,34.67266],[135.07367,34.67357],[135.07211,34.67405],[135.07169,34.67396],[135.07035,34.67451],[135.06846,34.6747],[135.06774,34.67519],[135.06614,34.67497],[135.06542,34.67531],[135.06515,34.67604],[135.06556,34.67657],[135.06475,34.67687],[135.06425,34.67608],[135.06258,34.67528],[135.06141,34.67426],[135.06029,34.67408],[135.05964,34.67336],[135.05873,34.67319],[135.05759,34.67375],[135.05614,34.67396],[135.05481,34.67457],[135.05248,34.67493],[135.05091,34.67562],[135.05021,34.67556],[135.04952,34.67478],[135.04839,34.67425],[135.04744,34.67345],[135.04706,34.67203],[135.04613,34.67192],[135.04522,34.6715],[135.04382,34.6699],[135.04411,34.66901],[135.04308,34.66843],[135.04177,34.66816],[135.04218,34.66886],[135.04129,34.66915],[135.04126,34.66972],[135.04021,34.67012],[135.03986,34.66882],[135.03926,34.66803],[135.03776,34.66786],[135.03679,34.66721],[135.03641,34.66635],[135.03721,34.66558],[135.03637,34.66547],[135.03604,34.66485],[135.03534,34.6646],[135.0353,34.66388],[135.034,34.66275],[135.03298,34.66261],[135.03189,34.66131],[135.03091,34.65958],[135.03252,34.65851],[135.03139,34.65753],[135.03037,34.65641],[135.02969,34.65527],[135.02762,34.65353],[135.02478,34.65154],[135.02352,34.64997],[135.02173,34.64886],[135.02012,34.6474],[135.02027,34.64678],[135.01921,34.64464],[135.01872,34.64314],[135.01956,34.64281],[135.02235,34.64143],[135.02378,34.64041],[135.02567,34.63886],[135.02625,34.63808],[135.02787,34.6373],[135.02888,34.63614],[135.03215,34.63321],[135.03197,34.6328],[135.03277,34.63233],[135.03187,34.63129],[135.03463,34.62966],[135.03526,34.6304],[135.03703,34.62935],[135.0364,34.62861],[135.038,34.62792],[135.03924,34.62791],[135.03992,34.62716],[135.04201,34.62662],[135.04257,34.62596],[135.04409,34.62577],[135.04431,34.62527],[135.04508,34.62525],[135.04502,34.62621],[135.04552,34.62618],[135.04559,34.62474],[135.04759,34.62566],[135.04794,34.62517],[135.04713,34.62467],[135.05165,34.62444],[135.05171,34.62527],[135.05106,34.62659],[135.05125,34.62676],[135.05391,34.62686],[135.05412,34.6264],[135.05511,34.62649],[135.05504,34.62703],[135.05729,34.62723],[135.0574,34.62637],[135.0561,34.6262],[135.05648,34.62444],[135.05771,34.6244],[135.05827,34.62476],[135.05805,34.62725],[135.059,34.62748],[135.05948,34.62583],[135.06008,34.62558],[135.07452,34.62832],[135.07483,34.62873],[135.07427,34.63076],[135.07822,34.63165],[135.07976,34.63188],[135.08061,34.63169],[135.08155,34.63184],[135.08174,34.63099],[135.08251,34.63108],[135.08222,34.63237],[135.08253,34.63267],[135.0846,34.6333],[135.08526,34.63374],[135.08792,34.63382],[135.09006,34.634],[135.09258,34.63442],[135.09315,34.63472],[135.09294,34.63559],[135.09367,34.63617],[135.0936,34.63773],[135.09298,34.6392],[135.09283,34.64008],[135.09314,34.64069],[135.09451,34.6421],[135.09444,34.6428],[135.0954,34.64535],[135.09654,34.64571],[135.09878,34.647],[135.09946,34.64755],[135.09913,34.64901],[135.1,34.6497],[135.09997,34.65014],[135.10141,34.65177],[135.10137,34.65216],[135.10038,34.6531],[135.09896,34.65186],[135.09762,34.65154],[135.09622,34.65173],[135.09551,34.65202],[135.09634,34.65306],[135.09542,34.654],[135.09412,34.65466],[135.09244,34.65582],[135.09199,34.65666],[135.08906,34.65734],[135.08698,34.66033],[135.08703,34.66222],[135.08631,34.66264],[135.08623,34.66339],[135.08564,34.66466],[135.08541,34.66571],[135.08484,34.66678],[135.08387,34.66703],[135.08231,34.66482],[135.08066,34.66453],[135.07877,34.66532],[135.07789,34.66515],[135.07774,34.66434],[135.07689,34.66487],[135.07674,34.66556],[135.07592,34.66684],[135.07723,34.66714],[135.07795,34.66685],[135.07818,34.66764],[135.07685,34.66888],[135.07695,34.66965],[135.07768,34.67026],[135.07786,34.67101],[135.0795,34.67033],[135.08048,34.66968],[135.08219,34.66982],[135.08281,34.67031],[135.08198,34.67161],[135.08188,34.67243],[135.081,34.67444],[135.08271,34.6751],[135.08427,34.67616],[135.08444,34.67672],[135.08422,34.67761],[135.08347,34.6783],[135.08123,34.67762],[135.08037,34.67697],[135.07893,34.67715],[135.07825,34.67634],[135.0776,34.67607],[135.07709,34.67524],[135.07648,34.67478]]]]}},
  {"type":"Feature","properties":{"name":"北区","code":"28109"},"geometry":{"type":"MultiPolygon","coordinates":[[[[135.26685,34.78027],[135.26752,34.781],[135.26733,34.7822],[135.2679,34.78218],[135.26865,34.78354],[135.26933,34.78382],[135.26848,34.78592],[135.2685,34.78653],[135.26912,34.78772],[135.26906,34.78878],[135.26955,34.78957],[135.26893,34.79016],[135.269,34.79059],[135.27095,34.79183],[135.2699,34.79403],[135.27034,34.79527],[135.27036,34.79605],[135.26897,34.79635],[135.26862,34.7968],[135.26872,34.79816],[135.26935,34.7989],[135.26933,34.80057],[135.26979,34.80185],[135.27047,34.80257],[135.26938,34.80258],[135.26833,34.80227],[135.26693,34.80254],[135.26608,34.80214],[135.26485,34.80207],[135.26423,34.80258],[135.26424,34.80333],[135.26348,34.80384],[135.26182,34.80445],[135.26091,34.80535],[135.25998,34.80547],[135.25913,34.80495],[135.25708,34.80583],[135.25647,34.80543],[135.25602,34.80585],[135.25513,34.80579],[135.25308,34.80467],[135.25205,34.80523],[135.25147,34.80584],[135.25085,34.80707],[135.25099,34.80771],[135.25063,34.80818],[135.24879,34.80869],[135.24832,34.80816],[135.24811,34.80736],[135.24832,34.80655],[135.24764,34.80575],[135.24666,34.80395],[135.24515,34.80361],[135.24392,34.80373],[135.24296,34.80314],[135.24102,34.80262],[135.24067,34.80327],[135.24094,34.80437],[135.24182,34.80598],[135.24201,34.80681],[135.24174,34.80788],[135.24112,34.80855],[135.23969,34.80866],[135.2381,34.80988],[135.23771,34.81036],[135.23672,34.81045],[135.23596,34.81118],[135.23479,34.8116],[135.2345,34.81215],[135.23322,34.81274],[135.23262,34.81402],[135.23293,34.81492],[135.23276,34.81556],[135.23333,34.81624],[135.23291,34.81755],[135.2328,34.81897],[135.2308,34.82064],[135.23018,34.82178],[135.23054,34.82267],[135.23029,34.82362],[135.2297,34.82468],[135.22984,34.82665],[135.23105,34.82762],[135.23115,34.82817],[135.2307,34.82952],[135.23098,34.83042],[135.23072,34.83166],[135.23131,34.83278],[135.23199,34.83354],[135.23188,34.83583],[135.23276,34.83717],[135.23292,34.83971],[135.23325,34.84017],[135.2329,34.8415],[135.23356,34.84288],[135.23334,34.84348],[135.23322,34.84535],[135.23413,34.84549],[135.23989,34.84791],[135.24191,34.84767],[135.24328,34.84813],[135.24403,34.84815],[135.24499,34.84765],[135.24614,34.84662],[135.24721,34.84606],[135.24774,34.84535],[135.25003,34.84452],[135.25134,34.84482],[135.25203,34.84401],[135.25287,34.84368],[135.25361,34.84373],[135.25719,34.84311],[135.25769,34.84264],[135.25954,34.8419],[135.26065,34.84204],[135.26108,34.84272],[135.26209,34.84341],[135.26203,34.84409],[135.26294,34.84488],[135.26318,34.84546],[135.26432,34.84626],[135.26424,34.84716],[135.26446,34.84797],[135.26556,34.84839],[135.26748,34.84838],[135.2697,34.84816],[135.27229,34.84692],[135.27276,34.84681],[135.27487,34.84794],[135.27623,34.84719],[135.27723,34.84801],[135.27893,34.8479],[135.28017,34.8476],[135.28112,34.84837],[135.2829,34.84904],[135.28218,34.85092],[135.28223,34.85195],[135.28273,34.85244],[135.28382,34.85268],[135.28435,34.8533],[135.28448,34.85426],[135.28542,34.85533],[135.28585,34.85555],[135.28726,34.85555],[135.28865,34.85473],[135.2898,34.85562],[135.29031,34.85642],[135.29061,34.85738],[135.29077,34.85869],[135.29147,34.86037],[135.2926,34.86119],[135.29384,34.86133],[135.29313,34.86185],[135.29277,34.86279],[135.29193,34.8638],[135.29197,34.86606],[135.29134,34.86673],[135.29081,34.86657],[135.2901,34.86767],[135.28983,34.86857],[135.28859,34.86892],[135.28795,34.86933],[135.28752,34.87032],[135.28678,34.87079],[135.28635,34.87169],[135.28628,34.87244],[135.28572,34.87379],[135.28571,34.87483],[135.28515,34.87691],[135.28564,34.87892],[135.28535,34.87955],[135.28397,34.88068],[135.28343,34.88157],[135.28231,34.88392],[135.2804,34.88575],[135.27888,34.88659],[135.27773,34.88606],[135.26303,34.88481],[135.26154,34.88515],[135.26065,34.88477],[135.25929,34.88384],[135.25803,34.88334],[135.25724,34.88206],[135.25513,34.88115],[135.25374,34.88016],[135.25267,34.87995],[135.25205,34.87924],[135.24814,34.87784],[135.24757,34.87828],[135.24688,34.87826],[135.24616,34.87866],[135.24492,34.87776],[135.24392,34.87817],[135.24297,34.87786],[135.24194,34.87835],[135.24079,34.87793],[135.23906,34.87702],[135.238,34.87718],[135.23686,34.87707],[135.23479,34.87595],[135.23476,34.87556],[135.23398,34.8748],[135.23375,34.8741],[135.23254,34.87339],[135.23092,34.87314],[135.22972,34.87342],[135.22867,34.87255],[135.22776,34.87253],[135.22643,34.87292],[135.22576,34.87374],[135.22188,34.87505],[135.22086,34.87488],[135.21958,34.87558],[135.21809,34.87567],[135.21622,34.87485],[135.21493,34.87517],[135.21311,34.8765],[135.21213,34.8783],[135.20991,34.87837],[135.20792,34.87698],[135.20661,34.87755],[135.20545,34.87725],[135.20427,34.87645],[135.20121,34.87599],[135.20082,34.8764],[135.19975,34.87636],[135.1976,34.87735],[135.19786,34.87805],[135.19757,34.87921],[135.19679,34.87976],[135.19572,34.87946],[135.195,34.88032],[135.19393,34.88094],[135.19224,34.88043],[135.1905,34.8823],[135.18904,34.8832],[135.18876,34.88356],[135.18866,34.88465],[135.18828,34.88491],[135.18614,34.88461],[135.18613,34.88608],[135.18577,34.88694],[135.18501,34.88744],[135.18242,34.88859],[135.18128,34.88866],[135.18061,34.88784],[135.17859,34.88771],[135.17748,34.88804],[135.17602,34.88814],[135.1744,34.88853],[135.17266,34.88812],[135.17141,34.88861],[135.17047,34.88918],[135.17062,34.89023],[135.16999,34.89054],[135.16751,34.88914],[135.16611,34.88865],[135.16554,34.88762],[135.16477,34.88716],[135.16402,34.88636],[135.16258,34.88543],[135.16169,34.88508],[135.16044,34.88493],[135.15905,34.88427],[135.15875,34.88358],[135.15723,34.88298],[135.15554,34.88309],[135.15445,34.88269],[135.15505,34.88211],[135.15559,34.88077],[135.15626,34.87819],[135.15755,34.87797],[135.15852,34.87617],[135.15803,34.87526],[135.15775,34.87414],[135.15721,34.87363],[135.15716,34.873],[135.15637,34.87244],[135.15619,34.87127],[135.15729,34.87007],[135.15717,34.86904],[135.15639,34.86826],[135.15589,34.86582],[135.15641,34.86405],[135.15624,34.8635],[135.15775,34.86159],[135.15763,34.86092],[135.15646,34.86015],[135.15637,34.8592],[135.15678,34.85854],[135.15683,34.85781],[135.15723,34.85711],[135.15729,34.85573],[135.15761,34.85446],[135.15724,34.85229],[135.15835,34.85118],[135.1577,34.85009],[135.15796,34.84914],[135.15793,34.84817],[135.15655,34.84649],[135.15632,34.8451],[135.15539,34.8435],[135.15535,34.84112],[135.15417,34.84071],[135.15305,34.83971],[135.1523,34.84022],[135.15261,34.84146],[135.15125,34.84194],[135.14997,34.84114],[135.14959,34.84051],[135.14862,34.83989],[135.1471,34.83921],[135.1456,34.83805],[135.14488,34.83793],[135.14361,34.83695],[135.14273,34.83585],[135.14288,34.83493],[135.14016,34.83449],[135.13935,34.83511],[135.13862,34.83522],[135.13755,34.83614],[135.13657,34.83616],[135.13524,34.83571],[135.13426,34.83569],[135.13399,34.83657],[135.13318,34.83712],[135.13197,34.83718],[135.13124,34.83679],[135.1295,34.83699],[135.12843,34.83686],[135.1274,34.83722],[135.12649,34.83699],[135.12521,34.83706],[135.12419,34.83744],[135.12268,34.83757],[135.12102,34.83939],[135.12052,34.83948],[135.1196,34.84047],[135.11859,34.8427],[135.11641,34.84418],[135.11534,34.8456],[135.11474,34.84603],[135.11341,34.84646],[135.11176,34.8462],[135.11142,34.84637],[135.11025,34.84521],[135.10917,34.84515],[135.1068,34.84369],[135.106,34.84356],[135.10574,34.84281],[135.10582,34.84184],[135.10542,34.84091],[135.10448,34.83967],[135.10396,34.83871],[135.10396,34.83819],[135.10269,34.83657],[135.10158,34.83612],[135.101,34.83455],[135.09917,34.8336],[135.09756,34.8333],[135.09652,34.83279],[135.09556,34.83315],[135.09434,34.83307],[135.09241,34.83232],[135.09292,34.83084],[135.09232,34.82892],[135.09232,34.82821],[135.09115,34.8274],[135.09107,34.82698],[135.08958,34.82677],[135.08849,34.82595],[135.08695,34.82628],[135.08628,34.8257],[135.086,34.82504],[135.08498,34.82426],[135.0849,34.82374],[135.08562,34.82282],[135.08555,34.82174],[135.08407,34.82023],[135.08275,34.81848],[135.08144,34.81761],[135.08116,34.81705],[135.07973,34.8169],[135.07849,34.81713],[135.07745,34.81696],[135.07599,34.81605],[135.07612,34.81511],[135.07649,34.81457],[135.07641,34.81377],[135.07667,34.81278],[135.07728,34.81206],[135.07617,34.80932],[135.07579,34.80874],[135.07655,34.80839],[135.07665,34.80779],[135.07581,34.80745],[135.07495,34.80572],[135.0771,34.80484],[135.07748,34.80364],[135.07825,34.80356],[135.0799,34.80289],[135.08191,34.80151],[135.08296,34.79925],[135.08291,34.79877],[135.08331,34.7974],[135.08462,34.796],[135.08568,34.79358],[135.0871,34.79247],[135.0888,34.79216],[135.09048,34.79166],[135.0924,34.79089],[135.09408,34.78972],[135.09513,34.78872],[135.09575,34.78779],[135.09578,34.78634],[135.09499,34.78617],[135.09396,34.78637],[135.09253,34.78555],[135.09333,34.78316],[135.09281,34.78259],[135.09281,34.7818],[135.09355,34.78038],[135.09464,34.77862],[135.09285,34.77823],[135.09181,34.77886],[135.09038,34.77915],[135.08834,34.77846],[135.08676,34.7787],[135.08604,34.77924],[135.08267,34.77839],[135.08175,34.77777],[135.08167,34.77718],[135.08093,34.77624],[135.07919,34.77442],[135.0779,34.77409],[135.07762,34.77351],[135.07833,34.77131],[135.078,34.77109],[135.07623,34.771],[135.07468,34.77041],[135.07341,34.76963],[135.07205,34.76909],[135.07103,34.76889],[135.07045,34.76808],[135.06962,34.76744],[135.06691,34.76777],[135.06511,34.767],[135.06505,34.76568],[135.06456,34.76525],[135.06342,34.76507],[135.06199,34.76403],[135.06289,34.76383],[135.06416,34.76297],[135.06505,34.76305],[135.06627,34.76262],[135.06743,34.76252],[135.07093,34.76403],[135.07389,34.76473],[135.0772,34.76491],[135.07747,34.76472],[135.0777,34.76224],[135.07812,34.76166],[135.0788,34.75992],[135.08035,34.75826],[135.08087,34.75809],[135.08196,34.75875],[135.08291,34.75861],[135.08348,34.75921],[135.08508,34.75949],[135.08625,34.75915],[135.08661,34.75787],[135.08769,34.75729],[135.08798,34.75553],[135.08857,34.75484],[135.09052,34.75431],[135.0904,34.75353],[135.09084,34.75287],[135.09172,34.7497],[135.09301,34.74857],[135.09342,34.74706],[135.09361,34.74557],[135.09329,34.74516],[135.0936,34.74454],[135.09523,34.74323],[135.09568,34.74215],[135.0948,34.7418],[135.09368,34.74026],[135.09561,34.73953],[135.09694,34.73922],[135.09785,34.73856],[135.09898,34.73804],[135.09845,34.73683],[135.09771,34.73646],[135.09714,34.73533],[135.09683,34.73378],[135.09821,34.73199],[135.09703,34.72923],[135.09695,34.72819],[135.09557,34.72958],[135.09468,34.72959],[135.09389,34.73067],[135.09382,34.73153],[135.09241,34.73122],[135.09057,34.73022],[135.09005,34.72932],[135.08889,34.7291],[135.08735,34.72929],[135.08618,34.7273],[135.08506,34.72702],[135.08419,34.7264],[135.08465,34.72573],[135.08549,34.72548],[135.0859,34.72451],[135.0872,34.72421],[135.08759,34.72331],[135.08805,34.72313],[135.08907,34.72165],[135.0896,34.72178],[135.09041,34.72083],[135.09111,34.72061],[135.09203,34.71969],[135.09239,34.71816],[135.09343,34.71745],[135.09325,34.71663],[135.09346,34.71337],[135.09433,34.71206],[135.09314,34.70956],[135.09198,34.70944],[135.09083,34.70812],[135.09216,34.70789],[135.0931,34.7065],[135.09432,34.70488],[135.09571,34.70582],[135.09596,34.70645],[135.09549,34.70687],[135.09562,34.70789],[135.09645,34.70795],[135.09621,34.70715],[135.09668,34.70603],[135.09851,34.70686],[135.09866,34.70776],[135.09823,34.70828],[135.09795,34.70971],[135.09834,34.71051],[135.09789,34.71095],[135.09554,34.71095],[135.09616,34.71174],[135.09765,34.71142],[135.09733,34.71225],[135.0984,34.71233],[135.09857,34.71126],[135.09891,34.71111],[135.10014,34.71174],[135.10023,34.71108],[135.09967,34.71074],[135.09924,34.70989],[135.09923,34.70824],[135.10007,34.70784],[135.10083,34.70801],[135.1016,34.70871],[135.10145,34.71093],[135.10162,34.71178],[135.10248,34.71317],[135.10304,34.71304],[135.10217,34.7114],[135.10204,34.70935],[135.10307,34.70933],[135.10511,34.70894],[135.10485,34.70753],[135.10705,34.70733],[135.1075,34.70745],[135.10786,34.70836],[135.10849,34.70877],[135.10821,34.70955],[135.10888,34.71081],[135.10827,34.71164],[135.10812,34.71245],[135.10835,34.71375],[135.10917,34.71373],[135.10915,34.71142],[135.11018,34.71084],[135.11007,34.70982],[135.10868,34.70955],[135.10991,34.70827],[135.1088,34.70784],[135.10935,34.70718],[135.10978,34.70543],[135.10752,34.70374],[135.1095,34.70243],[135.1107,34.70217],[135.11149,34.70169],[135.11253,34.70143],[135.11247,34.70063],[135.11313,34.69995],[135.11188,34.69987],[135.11125,34.69948],[135.11214,34.6987],[135.1126,34.69788],[135.11257,34.69706],[135.1133,34.6965],[135.11372,34.69557],[135.11525,34.69476],[135.11598,34.6942],[135.11736,34.69502],[135.11802,34.69427],[135.11811,34.69361],[135.11964,34.69198],[135.11865,34.69143],[135.1192,34.68983],[135.11903,34.68912],[135.11978,34.68803],[135.12236,34.68775],[135.12296,34.68662],[135.1241,34.68576],[135.12504,34.68696],[135.12617,34.68773],[135.12546,34.68883],[135.12678,34.69065],[135.12922,34.69199],[135.13269,34.69413],[135.13373,34.69415],[135.13469,34.69358],[135.13551,34.69349],[135.13775,34.69381],[135.13851,34.69439],[135.13881,34.69524],[135.14093,34.69667],[135.14149,34.69679],[135.14289,34.69591],[135.14333,34.69629],[135.14498,34.69933],[135.14571,34.69908],[135.14808,34.69917],[135.14832,34.69983],[135.15049,34.70155],[135.15093,34.70236],[135.15183,34.70292],[135.15287,34.70401],[135.15377,34.7046],[135.15563,34.70543],[135.15581,34.70579],[135.15775,34.70598],[135.15883,34.70669],[135.16025,34.7068],[135.1601,34.70748],[135.16078,34.70876],[135.16039,34.70925],[135.16092,34.70974],[135.16172,34.70974],[135.16229,34.708],[135.1629,34.70867],[135.16561,34.71009],[135.16626,34.71064],[135.16726,34.71101],[135.16813,34.71223],[135.16911,34.71304],[135.16952,34.71433],[135.16991,34.71454],[135.16956,34.7178],[135.17994,34.71951],[135.1802,34.71961],[135.18986,34.72804],[135.19287,34.7306],[135.19764,34.73476],[135.19816,34.73553],[135.19761,34.7361],[135.19765,34.73717],[135.19593,34.74115],[135.19629,34.74198],[135.19607,34.74251],[135.19684,34.74372],[135.19665,34.74418],[135.19582,34.74444],[135.19591,34.74514],[135.1967,34.746],[135.19742,34.74646],[135.19833,34.74654],[135.19852,34.74716],[135.19737,34.7488],[135.1973,34.74925],[135.19437,34.75339],[135.19601,34.75365],[135.19701,34.75421],[135.1979,34.75408],[135.19954,34.75417],[135.19967,34.75492],[135.20396,34.75637],[135.20645,34.75658],[135.20787,34.75644],[135.20971,34.75667],[135.21548,34.75769],[135.21667,34.75911],[135.21903,34.76048],[135.2203,34.76142],[135.22458,34.76281],[135.22747,34.76383],[135.22851,34.76407],[135.22998,34.76349],[135.23147,34.7639],[135.23256,34.76459],[135.23294,34.76515],[135.23414,34.76539],[135.23472,34.7658],[135.23491,34.76719],[135.23536,34.7673],[135.24027,34.76908],[135.24051,34.7688],[135.24862,34.77072],[135.24936,34.77076],[135.25093,34.76997],[135.25202,34.76993],[135.25305,34.77031],[135.25399,34.7704],[135.25676,34.77137],[135.25835,34.77201],[135.25839,34.77251],[135.25935,34.77293],[135.25983,34.77372],[135.26104,34.77497],[135.26124,34.77544],[135.26249,34.77531],[135.26393,34.77668],[135.2637,34.77796],[135.2654,34.77816],[135.26552,34.77898],[135.26636,34.77955],[135.26685,34.78027]]]]}},
  {"type":"Feature","properties":{"name":"中央区","code":"28110"},"geometry":{"type":"MultiPolygon","coordinates":[[[[135.19764,34.73476],[135.19287,34.7306],[135.18986,34.72804],[135.1802,34.71961],[135.17994,34.71951],[135.16956,34.7178],[135.16991,34.71454],[135.16995,34.71229],[135.17127,34.71088],[135.17123,34.70968],[135.17189,34.70876],[135.17167,34.70822],[135.17209,34.70753],[135.17309,34.70755],[135.17324,34.7064],[135.17399,34.70557],[135.17463,34.70416],[135.17422,34.70306],[135.17463,34.70147],[135.17415,34.70086],[135.17408,34.69969],[135.17467,34.69838],[135.17432,34.69792],[135.17321,34.69557],[135.17293,34.69426],[135.17391,34.69432],[135.17649,34.69482],[135.1769,34.6938],[135.17512,34.69326],[135.17574,34.69221],[135.17419,34.69042],[135.17303,34.68982],[135.17173,34.68891],[135.17277,34.68862],[135.1726,34.68788],[135.17149,34.68748],[135.17129,34.68697],[135.16964,34.68625],[135.17024,34.68433],[135.17098,34.68275],[135.17461,34.67898],[135.17349,34.67834],[135.17535,34.67655],[135.17565,34.67602],[135.17822,34.67515],[135.18136,34.6739],[135.18334,34.67319],[135.18314,34.67268],[135.18452,34.67205],[135.18274,34.67181],[135.18311,34.6702],[135.18766,34.67017],[135.18869,34.67102],[135.18909,34.6719],[135.18939,34.67233],[135.18884,34.67282],[135.18773,34.67475],[135.18596,34.67536],[135.18732,34.67584],[135.18696,34.67686],[135.18412,34.67674],[135.18376,34.6778],[135.18602,34.67798],[135.18499,34.68039],[135.1843,34.68154],[135.18438,34.68204],[135.1863,34.68261],[135.18699,34.68103],[135.18876,34.67891],[135.18979,34.67949],[135.18841,34.68115],[135.19034,34.68141],[135.19015,34.68552],[135.19316,34.6856],[135.19314,34.68476],[135.19225,34.68459],[135.19312,34.67944],[135.19426,34.67961],[135.19377,34.68272],[135.19529,34.68288],[135.1958,34.67975],[135.19693,34.67987],[135.19644,34.68297],[135.19775,34.68311],[135.19803,34.68277],[135.19846,34.68005],[135.1996,34.68015],[135.19924,34.68252],[135.20103,34.6829],[135.20235,34.67866],[135.20361,34.67933],[135.20183,34.685],[135.20276,34.68589],[135.20389,34.68458],[135.20421,34.68477],[135.20304,34.68614],[135.20393,34.68692],[135.2075,34.68429],[135.21818,34.69002],[135.2145,34.69275],[135.21517,34.69353],[135.21625,34.69414],[135.21484,34.69525],[135.21887,34.69766],[135.21849,34.69997],[135.21775,34.70211],[135.21693,34.70179],[135.21623,34.70262],[135.21493,34.70518],[135.21462,34.70601],[135.21378,34.70713],[135.21251,34.70947],[135.21049,34.71281],[135.20951,34.71397],[135.20863,34.71725],[135.20769,34.71879],[135.20628,34.71799],[135.20379,34.71741],[135.20268,34.71754],[135.20179,34.71831],[135.20152,34.71891],[135.20161,34.72041],[135.20105,34.7214],[135.19809,34.72277],[135.1968,34.72354],[135.19648,34.72419],[135.19773,34.72678],[135.19789,34.72801],[135.19876,34.72965],[135.19764,34.73476]]],[[[135.23645,34.66529],[135.23402,34.66933],[135.2334,34.67105],[135.22112,34.66731],[135.22092,34.66738],[135.21957,34.66966],[135.23189,34.67343],[135.23172,34.67375],[135.22802,34.67581],[135.21778,34.67268],[135.21653,34.67489],[135.21631,34.67506],[135.22552,34.67789],[135.22533,34.67831],[135.22,34.68278],[135.21352,34.68182],[135.21029,34.68129],[135.2107,34.67894],[135.20648,34.67683],[135.20479,34.67802],[135.20323,34.67713],[135.20425,34.67592],[135.20273,34.67473],[135.20279,34.67379],[135.20144,34.67363],[135.20236,34.65924],[135.20415,34.65931],[135.20441,34.6571],[135.20533,34.65751],[135.20611,34.65749],[135.20671,34.65688],[135.21478,34.65158],[135.21715,34.65008],[135.21963,34.65023],[135.22846,34.65044],[135.243,34.65072],[135.24511,34.65082],[135.23889,34.66125],[135.22815,34.65797],[135.22572,34.662],[135.23645,34.66529]]],[[[135.20891,34.63333],[135.20928,34.63014],[135.21099,34.62942],[135.2148,34.63054],[135.22707,34.6315],[135.22837,34.63063],[135.22969,34.63171],[135.23871,34.6324],[135.24049,34.63311],[135.24029,34.63484],[135.23849,34.63527],[135.23813,34.63784],[135.23629,34.64129],[135.2357,34.64173],[135.23197,34.64144],[135.2321,34.64026],[135.22798,34.63995],[135.22784,34.64113],[135.22718,34.64115],[135.22393,34.64082],[135.21829,34.64042],[135.21352,34.64],[135.21279,34.63964],[135.209,34.63405],[135.20891,34.63333]]]]}},
  {"type":"Feature","properties":{"name":"西区","code":"28111"},"geometry":{"type":"MultiPolygon","coordinates":[[[[135.0931,34.7065],[135.09216,34.70789],[135.09083,34.70812],[135.09198,34.70944],[135.09314,34.70956],[135.09433,34.71206],[135.09346,34.71337],[135.09325,34.71663],[135.09343,34.71745],[135.09239,34.71816],[135.09203,34.71969],[135.09111,34.72061],[135.09041,34.72083],[135.0896,34.72178],[135.08907,34.72165],[135.08805,34.72313],[135.08759,34.72331],[135.0872,34.72421],[135.0859,34.72451],[135.08549,34.72548],[135.08465,34.72573],[135.08419,34.7264],[135.08506,34.72702],[135.08618,34.7273],[135.08735,34.72929],[135.08889,34.7291],[135.09005,34.72932],[135.09057,34.73022],[135.09241,34.73122],[135.09382,34.73153],[135.09389,34.73067],[135.09468,34.72959],[135.09557,34.72958],[135.09695,34.72819],[135.09703,34.72923],[135.09821,34.73199],[135.09683,34.73378],[135.09714,34.73533],[135.09771,34.73646],[135.09845,34.73683],[135.09898,34.73804],[135.09785,34.73856],[135.09694,34.73922],[135.09561,34.73953],[135.09368,34.74026],[135.0948,34.7418],[135.09568,34.74215],[135.09523,34.74323],[135.0936,34.74454],[135.09329,34.74516],[135.09361,34.74557],[135.09342,34.74706],[135.09301,34.74857],[135.09172,34.7497],[135.09084,34.75287],[135.0904,34.75353],[135.09052,34.75431],[135.08857,34.75484],[135.08798,34.75553],[135.08769,34.75729],[135.08661,34.75787],[135.08625,34.75915],[135.08508,34.75949],[135.08348,34.75921],[135.08291,34.75861],[135.08196,34.75875],[135.08087,34.75809],[135.08035,34.75826],[135.0788,34.75992],[135.07812,34.76166],[135.0777,34.76224],[135.07747,34.76472],[135.0772,34.76491],[135.07389,34.76473],[135.07093,34.76403],[135.06743,34.76252],[135.06627,34.76262],[135.06505,34.76305],[135.06416,34.76297],[135.06289,34.76383],[135.06199,34.76403],[135.06094,34.76377],[135.05902,34.76428],[135.05784,34.76371],[135.05646,34.76391],[135.05616,34.76428],[135.05479,34.76451],[135.05395,34.76507],[135.05387,34.76636],[135.0525,34.76685],[135.0516,34.76767],[135.05186,34.76855],[135.051,34.76974],[135.05009,34.76969],[135.04883,34.77032],[135.04753,34.77155],[135.047,34.77168],[135.04645,34.77122],[135.04529,34.77079],[135.04464,34.77003],[135.04328,34.77039],[135.0423,34.76981],[135.04131,34.76994],[135.04048,34.76973],[135.04055,34.76741],[135.03963,34.7656],[135.03867,34.76473],[135.03556,34.76539],[135.03388,34.766],[135.03288,34.76573],[135.03175,34.76574],[135.02978,34.76477],[135.02862,34.76455],[135.0264,34.76435],[135.02562,34.76415],[135.02554,34.76265],[135.02458,34.76253],[135.02367,34.76324],[135.01932,34.76528],[135.01733,34.76574],[135.01664,34.76625],[135.01494,34.76644],[135.01371,34.76633],[135.01183,34.76686],[135.00977,34.76724],[135.00747,34.76781],[135.00552,34.77015],[135.00424,34.7703],[135.00063,34.77026],[135.00052,34.77163],[135.00082,34.77241],[135.0018,34.77336],[135.00205,34.77418],[135.00183,34.77562],[135.00057,34.7756],[134.99947,34.77529],[134.99857,34.77475],[134.99749,34.77496],[134.99663,34.77424],[134.99312,34.77408],[134.99151,34.77347],[134.99014,34.77398],[134.98969,34.77358],[134.98885,34.7736],[134.98786,34.77301],[134.98605,34.77289],[134.98519,34.77192],[134.98429,34.77241],[134.9836,34.7725],[134.98264,34.77217],[134.9818,34.77052],[134.98073,34.76999],[134.98055,34.76946],[134.97882,34.76884],[134.97773,34.76888],[134.97752,34.7675],[134.97657,34.7674],[134.97669,34.76619],[134.97455,34.7649],[134.9737,34.7639],[134.97285,34.76379],[134.97253,34.76282],[134.97165,34.76252],[134.97106,34.76339],[134.96988,34.76368],[134.96903,34.76237],[134.96809,34.7623],[134.96741,34.76311],[134.96601,34.76333],[134.96498,34.76259],[134.96403,34.76231],[134.96241,34.76253],[134.96137,34.76302],[134.96099,34.76258],[134.96159,34.76126],[134.96262,34.76128],[134.96334,34.75899],[134.96454,34.75604],[134.96427,34.75519],[134.96642,34.7525],[134.96651,34.75133],[134.96609,34.75116],[134.95991,34.74487],[134.95797,34.74221],[134.95624,34.74006],[134.9549,34.73806],[134.95407,34.73703],[134.95128,34.7345],[134.94922,34.73291],[134.94852,34.73259],[134.9457,34.73236],[134.94406,34.73241],[134.94245,34.73221],[134.94029,34.73178],[134.93914,34.73138],[134.93583,34.73077],[134.93487,34.73044],[134.93506,34.72987],[134.93334,34.72919],[134.92948,34.72802],[134.92817,34.72745],[134.92678,34.72713],[134.92579,34.72724],[134.92515,34.72758],[134.92355,34.72785],[134.92203,34.72719],[134.92076,34.72695],[134.91829,34.7261],[134.91607,34.72412],[134.91509,34.72292],[134.91288,34.72167],[134.91245,34.72131],[134.91204,34.72091],[134.91005,34.72033],[134.91045,34.71881],[134.91149,34.71683],[134.91236,34.71667],[134.91337,34.71447],[134.91318,34.71364],[134.91218,34.71353],[134.91186,34.71305],[134.91235,34.71118],[134.91315,34.70978],[134.91373,34.71094],[134.91469,34.7109],[134.91626,34.70887],[134.91678,34.70734],[134.91713,34.70728],[134.91874,34.70847],[134.91898,34.7088],[134.92052,34.70908],[134.92154,34.70881],[134.92148,34.70804],[134.92183,34.70774],[134.92164,34.70695],[134.92271,34.7064],[134.92405,34.705],[134.92484,34.70497],[134.9253,34.70372],[134.92461,34.70288],[134.92475,34.70257],[134.92615,34.7026],[134.9266,34.70226],[134.9281,34.70217],[134.92792,34.70125],[134.92732,34.70072],[134.9282,34.69997],[134.92891,34.70074],[134.92987,34.70093],[134.92962,34.69997],[134.93002,34.69934],[134.92955,34.69846],[134.93034,34.69853],[134.93064,34.69915],[134.93259,34.70028],[134.93294,34.70088],[134.93277,34.70207],[134.93396,34.70187],[134.93452,34.7022],[134.93423,34.70357],[134.93562,34.70451],[134.93656,34.70541],[134.93742,34.70529],[134.93899,34.70684],[134.93936,34.70694],[134.94051,34.70824],[134.94288,34.71263],[134.94548,34.71282],[134.9487,34.7119],[134.9501,34.712],[134.95161,34.71159],[134.95258,34.71187],[134.95189,34.71311],[134.95315,34.71361],[134.95337,34.71276],[134.95525,34.71252],[134.95766,34.71282],[134.95823,34.71402],[134.95966,34.71337],[134.96187,34.71437],[134.96206,34.7131],[134.96363,34.71272],[134.96495,34.71164],[134.96458,34.71104],[134.96488,34.71042],[134.96581,34.70976],[134.96529,34.70906],[134.96595,34.7084],[134.96603,34.70768],[134.9651,34.70745],[134.96507,34.70645],[134.96574,34.70577],[134.96551,34.7049],[134.96409,34.70449],[134.96328,34.70406],[134.96315,34.70298],[134.96472,34.70109],[134.96474,34.69916],[134.96597,34.69842],[134.96591,34.69759],[134.96533,34.69706],[134.96422,34.69654],[134.96446,34.69547],[134.96603,34.69531],[134.96612,34.69485],[134.96459,34.69444],[134.9655,34.69361],[134.96627,34.69181],[134.96616,34.6908],[134.96664,34.68942],[134.96586,34.68916],[134.96561,34.68772],[134.96521,34.68661],[134.96518,34.68558],[134.9644,34.68526],[134.96564,34.68355],[134.96508,34.68346],[134.96506,34.68278],[134.96644,34.68177],[134.96733,34.67995],[134.96847,34.67907],[134.96949,34.67797],[134.97138,34.6775],[134.97167,34.67721],[134.97191,34.67591],[134.97137,34.67501],[134.97206,34.67416],[134.97034,34.67341],[134.96985,34.67238],[134.97005,34.67148],[134.97163,34.66944],[134.97196,34.66881],[134.97178,34.66816],[134.97279,34.66761],[134.97439,34.66597],[134.97474,34.66455],[134.97535,34.66376],[134.97548,34.66244],[134.97496,34.66191],[134.9756,34.66154],[134.9756,34.66091],[134.97643,34.65996],[134.97622,34.65932],[134.97668,34.65863],[134.97995,34.65771],[134.98046,34.65884],[134.98119,34.65989],[134.98036,34.66025],[134.98052,34.66117],[134.98137,34.66118],[134.98165,34.66075],[134.98266,34.66106],[134.98373,34.66097],[134.98393,34.66064],[134.98576,34.65893],[134.98605,34.65775],[134.98693,34.6574],[134.98889,34.65796],[134.9895,34.65768],[134.99064,34.65761],[134.99184,34.65783],[134.99236,34.65758],[134.99442,34.65811],[134.9963,34.65903],[134.99732,34.65887],[134.99803,34.65834],[134.9989,34.65732],[134.99973,34.65691],[135.00252,34.65912],[135.00459,34.65795],[135.00492,34.65739],[135.00619,34.65803],[135.00628,34.65837],[135.00754,34.6598],[135.00832,34.65983],[135.00886,34.66037],[135.01034,34.66016],[135.01114,34.66065],[135.00983,34.66087],[135.01063,34.66148],[135.01139,34.6614],[135.01399,34.6616],[135.01432,34.66101],[135.01382,34.66061],[135.0139,34.66006],[135.01621,34.66069],[135.01664,34.65946],[135.01536,34.65958],[135.01391,34.65816],[135.01562,34.65738],[135.0166,34.65825],[135.01795,34.65896],[135.01848,34.65787],[135.01935,34.65843],[135.02105,34.65809],[135.02159,34.65728],[135.0223,34.65735],[135.02284,34.65925],[135.02387,34.65893],[135.02577,34.66035],[135.0264,34.66063],[135.02687,34.66187],[135.029,34.66088],[135.03091,34.65958],[135.03189,34.66131],[135.03298,34.66261],[135.034,34.66275],[135.0353,34.66388],[135.03534,34.6646],[135.03604,34.66485],[135.03637,34.66547],[135.03721,34.66558],[135.03641,34.66635],[135.03679,34.66721],[135.03776,34.66786],[135.03926,34.66803],[135.03986,34.66882],[135.04021,34.67012],[135.04126,34.66972],[135.04129,34.66915],[135.04218,34.66886],[135.04177,34.66816],[135.04308,34.66843],[135.04411,34.66901],[135.04382,34.6699],[135.04522,34.6715],[135.04613,34.67192],[135.04706,34.67203],[135.04744,34.67345],[135.04839,34.67425],[135.04952,34.67478],[135.05021,34.67556],[135.05091,34.67562],[135.05248,34.67493],[135.05481,34.67457],[135.05614,34.67396],[135.05759,34.67375],[135.05873,34.67319],[135.05964,34.67336],[135.06029,34.67408],[135.06141,34.67426],[135.06258,34.67528],[135.06425,34.67608],[135.06475,34.67687],[135.06556,34.67657],[135.06515,34.67604],[135.06542,34.67531],[135.06614,34.67497],[135.06774,34.67519],[135.06846,34.6747],[135.07035,34.67451],[135.07169,34.67396],[135.07211,34.67405],[135.07367,34.67357],[135.07455,34.67266],[135.0756,34.67258],[135.07648,34.67478],[135.07596,34.67518],[135.07525,34.67662],[135.07261,34.67966],[135.07149,34.68145],[135.07114,34.6824],[135.06772,34.68212],[135.06765,34.68368],[135.06928,34.68553],[135.07066,34.68743],[135.07075,34.68795],[135.06994,34.68835],[135.06904,34.68845],[135.06796,34.68904],[135.06623,34.68974],[135.06569,34.69091],[135.06668,34.69156],[135.06676,34.69192],[135.06833,34.69251],[135.06865,34.69284],[135.0702,34.69349],[135.07079,34.69305],[135.07179,34.6918],[135.07345,34.69142],[135.07443,34.69162],[135.07598,34.69263],[135.07747,34.69088],[135.07816,34.69121],[135.07892,34.69033],[135.08068,34.68948],[135.08147,34.68986],[135.08235,34.69073],[135.08226,34.6914],[135.08283,34.6919],[135.08472,34.69171],[135.08594,34.69225],[135.0895,34.69179],[135.09087,34.6929],[135.09285,34.69295],[135.09325,34.69346],[135.0932,34.69409],[135.09453,34.69557],[135.09521,34.69863],[135.09521,34.69905],[135.09288,34.7022],[135.09295,34.70274],[135.09454,34.70426],[135.09395,34.70499],[135.0931,34.7065]]]]}}
]}
