{"type":"FeatureCollection", "features": [
  {"type":"Feature","properties":{"name":"中央区","code":"43101"},"geometry":{"type":"MultiPolygon","coordinates":[[[[130.72858,32.76953],[130.72977,32.7695],[130.73047,32.76927],[130.73081,32.77006],[130.73065,32.77222],[130.73115,32.77291],[130.73106,32.77438],[130.73171,32.77448],[130.7317,32.77558],[130.73144,32.77637],[130.73114,32.77825],[130.73378,32.77877],[130.73485,32.77868],[130.73429,32.7812],[130.73334,32.78154],[130.73318,32.78356],[130.73368,32.78364],[130.73473,32.78232],[130.73668,32.78147],[130.73849,32.78117],[130.73815,32.77982],[130.73862,32.77725],[130.73921,32.77678],[130.74029,32.77738],[130.74001,32.77836],[130.74152,32.77888],[130.74324,32.77994],[130.74427,32.78103],[130.74486,32.78224],[130.74657,32.78241],[130.7463,32.78348],[130.74715,32.78551],[130.74976,32.78804],[130.74922,32.78802],[130.74917,32.78997],[130.74936,32.79103],[130.75,32.7917],[130.75035,32.79304],[130.7465,32.79362],[130.74743,32.79745],[130.74788,32.79747],[130.74944,32.79699],[130.75143,32.79608],[130.75209,32.7968],[130.75253,32.79688],[130.75423,32.79893],[130.75471,32.79874],[130.7553,32.7993],[130.75613,32.7985],[130.75731,32.79891],[130.75796,32.80162],[130.75924,32.80201],[130.75896,32.803],[130.76397,32.80538],[130.76329,32.80644],[130.7619,32.80584],[130.75981,32.80891],[130.75922,32.80952],[130.75718,32.80895],[130.7554,32.80876],[130.75343,32.80875],[130.75187,32.80825],[130.75092,32.80709],[130.74889,32.80693],[130.74787,32.80745],[130.74629,32.80756],[130.74593,32.80698],[130.74458,32.80616],[130.74325,32.80779],[130.74127,32.8079],[130.7415,32.80843],[130.74069,32.80895],[130.73945,32.8107],[130.73993,32.81101],[130.73894,32.81206],[130.74011,32.81291],[130.74134,32.81449],[130.74188,32.81618],[130.74275,32.81746],[130.74381,32.81824],[130.74587,32.81817],[130.74672,32.81836],[130.74744,32.8192],[130.7459,32.82015],[130.74662,32.8208],[130.74596,32.82136],[130.74395,32.82209],[130.74338,32.82264],[130.74148,32.82517],[130.73987,32.82634],[130.73967,32.8278],[130.73895,32.82857],[130.73824,32.8297],[130.73721,32.82978],[130.73581,32.83014],[130.73575,32.82957],[130.73663,32.82941],[130.73533,32.82743],[130.73493,32.82648],[130.73372,32.82667],[130.73256,32.82558],[130.73187,32.8253],[130.73154,32.82468],[130.73021,32.82432],[130.72977,32.82391],[130.72791,32.82314],[130.7257,32.82263],[130.72535,32.82285],[130.72361,32.82322],[130.72331,32.82245],[130.72263,32.82227],[130.72266,32.82326],[130.72159,32.82357],[130.72051,32.82225],[130.71969,32.82239],[130.71808,32.82235],[130.71814,32.82164],[130.71761,32.82146],[130.71603,32.82194],[130.71491,32.82284],[130.71392,32.82194],[130.71295,32.82069],[130.7123,32.82044],[130.71184,32.82166],[130.71061,32.82138],[130.70976,32.82146],[130.70953,32.82089],[130.70919,32.82021],[130.70865,32.82034],[130.7079,32.81847],[130.70668,32.81861],[130.70669,32.81893],[130.70468,32.81896],[130.70466,32.81923],[130.70249,32.81946],[130.70229,32.81862],[130.7028,32.8179],[130.70276,32.81656],[130.70302,32.81613],[130.7017,32.81584],[130.70238,32.81495],[130.7028,32.81395],[130.70289,32.81142],[130.70263,32.81],[130.70073,32.8101],[130.69962,32.81046],[130.69791,32.8103],[130.69638,32.81074],[130.69615,32.81012],[130.69411,32.81089],[130.69183,32.80711],[130.69043,32.80491],[130.68987,32.80442],[130.68944,32.80225],[130.68972,32.80189],[130.6907,32.80179],[130.69077,32.8007],[130.69155,32.80015],[130.6896,32.80001],[130.68934,32.79954],[130.68818,32.79866],[130.68654,32.7988],[130.68671,32.79712],[130.6881,32.79674],[130.68912,32.79673],[130.69021,32.79574],[130.69045,32.79506],[130.69098,32.79467],[130.69343,32.79498],[130.69392,32.79325],[130.69365,32.79245],[130.69256,32.79171],[130.69199,32.79051],[130.69181,32.78961],[130.6929,32.78966],[130.69298,32.78866],[130.69397,32.78489],[130.69403,32.78386],[130.69343,32.78148],[130.69188,32.77913],[130.69372,32.77859],[130.69482,32.77841],[130.69616,32.77855],[130.69812,32.77933],[130.69901,32.77955],[130.69943,32.77894],[130.70051,32.77904],[130.70063,32.77863],[130.70188,32.77873],[130.70196,32.77915],[130.70344,32.77908],[130.70355,32.77739],[130.70473,32.77735],[130.70796,32.7776],[130.71037,32.77877],[130.71223,32.77892],[130.7135,32.7792],[130.71353,32.77859],[130.71584,32.77877],[130.71559,32.77926],[130.71868,32.7794],[130.71906,32.77804],[130.71942,32.77807],[130.71968,32.77634],[130.71924,32.77613],[130.7194,32.77434],[130.72079,32.7743],[130.72156,32.77332],[130.72379,32.77326],[130.72692,32.773],[130.72772,32.7721],[130.72856,32.76998],[130.72858,32.76953]]]]}},
  {"type":"Feature","properties":{"name":"東区","code":"43102"},"geometry":{"type":"MultiPolygon","coordinates":[[[[130.72858,32.76953],[130.72769,32.76643],[130.72789,32.76362],[130.72839,32.7606],[130.72911,32.7588],[130.72894,32.75763],[130.72856,32.75696],[130.72879,32.7558],[130.72874,32.75478],[130.72897,32.7542],[130.72861,32.75289],[130.72795,32.75206],[130.7283,32.7509],[130.72895,32.75028],[130.7306,32.7513],[130.73154,32.75076],[130.73261,32.75073],[130.73443,32.75166],[130.73579,32.75191],[130.73688,32.75189],[130.73763,32.75216],[130.73919,32.75324],[130.74,32.75419],[130.74056,32.75435],[130.74188,32.75254],[130.74344,32.7517],[130.74431,32.75211],[130.74556,32.75021],[130.7475,32.75108],[130.74669,32.75252],[130.74653,32.75378],[130.74838,32.75476],[130.74997,32.75442],[130.75045,32.75475],[130.75011,32.75531],[130.74926,32.75586],[130.75087,32.75762],[130.75261,32.75898],[130.75315,32.75956],[130.75331,32.76075],[130.75444,32.76221],[130.75584,32.7629],[130.7567,32.76258],[130.75922,32.76243],[130.75844,32.76389],[130.7612,32.76444],[130.76179,32.76255],[130.76174,32.76201],[130.76051,32.76106],[130.76075,32.76065],[130.76271,32.76054],[130.76466,32.76029],[130.76617,32.76079],[130.76771,32.7609],[130.76807,32.75997],[130.77059,32.76046],[130.77091,32.76145],[130.77061,32.76203],[130.77082,32.76298],[130.77179,32.76264],[130.7732,32.76344],[130.77391,32.76307],[130.77684,32.76335],[130.77834,32.76339],[130.77924,32.76385],[130.78087,32.76357],[130.7814,32.76403],[130.78114,32.76482],[130.7899,32.768],[130.79037,32.76736],[130.79507,32.76911],[130.79535,32.76846],[130.79601,32.7687],[130.79551,32.7699],[130.7931,32.7746],[130.79236,32.77647],[130.79205,32.77641],[130.79155,32.77789],[130.78909,32.77716],[130.78797,32.77629],[130.78745,32.77686],[130.78765,32.77742],[130.7876,32.7787],[130.78688,32.77957],[130.78631,32.7807],[130.78625,32.78158],[130.78578,32.78248],[130.78475,32.78306],[130.78438,32.78353],[130.78464,32.78454],[130.78141,32.78486],[130.78113,32.78655],[130.78186,32.78664],[130.78326,32.788],[130.78267,32.78868],[130.78407,32.78969],[130.78334,32.79114],[130.78286,32.79148],[130.78303,32.79205],[130.78272,32.79271],[130.78236,32.79431],[130.78346,32.79641],[130.78259,32.79686],[130.78234,32.79772],[130.78169,32.79866],[130.78036,32.80011],[130.78,32.80131],[130.77812,32.80454],[130.78008,32.80483],[130.7803,32.80459],[130.78219,32.80561],[130.78301,32.80517],[130.78375,32.80412],[130.78502,32.80266],[130.78601,32.80124],[130.78607,32.80045],[130.78726,32.79964],[130.78785,32.79993],[130.79098,32.80099],[130.79291,32.80129],[130.79622,32.80249],[130.79801,32.80333],[130.79921,32.80419],[130.79967,32.80339],[130.80101,32.80392],[130.80133,32.80426],[130.80329,32.80508],[130.80617,32.80584],[130.80635,32.80647],[130.80712,32.80686],[130.80718,32.80811],[130.80814,32.80948],[130.80834,32.8111],[130.80874,32.81232],[130.80976,32.81307],[130.81112,32.81367],[130.81169,32.81424],[130.81309,32.81483],[130.8157,32.81542],[130.81627,32.81535],[130.82076,32.81434],[130.82225,32.81451],[130.82434,32.8145],[130.82547,32.81493],[130.82553,32.81522],[130.82762,32.81524],[130.82831,32.8148],[130.82905,32.81539],[130.82918,32.81664],[130.82874,32.81849],[130.82858,32.82191],[130.82778,32.82537],[130.82755,32.82902],[130.8281,32.83117],[130.82732,32.83138],[130.82733,32.83185],[130.82637,32.83265],[130.82457,32.83441],[130.82418,32.83441],[130.8236,32.83535],[130.8233,32.83642],[130.82252,32.83619],[130.82186,32.83653],[130.82066,32.8385],[130.81937,32.83835],[130.81788,32.83891],[130.81564,32.83825],[130.8139,32.83812],[130.81276,32.83787],[130.81184,32.83821],[130.80766,32.83743],[130.80689,32.83872],[130.80574,32.83941],[130.80528,32.84071],[130.80499,32.84097],[130.80476,32.84267],[130.80544,32.84312],[130.80652,32.84319],[130.80659,32.84438],[130.80626,32.84561],[130.80583,32.8462],[130.80476,32.84667],[130.80481,32.84719],[130.80551,32.84806],[130.80501,32.84924],[130.80474,32.85085],[130.80496,32.85142],[130.80481,32.85222],[130.79763,32.8523],[130.79765,32.85142],[130.79692,32.85124],[130.79587,32.85135],[130.79529,32.85197],[130.79358,32.8544],[130.79276,32.8548],[130.79184,32.85449],[130.79051,32.85333],[130.78991,32.85272],[130.78815,32.85137],[130.78719,32.85048],[130.7865,32.84842],[130.78626,32.84682],[130.78592,32.84562],[130.78474,32.84555],[130.78415,32.84627],[130.78273,32.84745],[130.78108,32.84809],[130.77864,32.84827],[130.776,32.84826],[130.77365,32.84781],[130.77277,32.8474],[130.77224,32.84662],[130.77234,32.84484],[130.77296,32.84389],[130.77322,32.84296],[130.77247,32.84197],[130.77063,32.84146],[130.76826,32.84202],[130.76739,32.84192],[130.76683,32.84112],[130.76713,32.84056],[130.76694,32.83977],[130.76641,32.83887],[130.7659,32.83604],[130.76595,32.83527],[130.76556,32.83473],[130.76411,32.83407],[130.76287,32.83419],[130.76142,32.83488],[130.76038,32.83473],[130.75984,32.83327],[130.7602,32.83254],[130.76144,32.83099],[130.76244,32.82893],[130.76213,32.8278],[130.76074,32.82642],[130.7597,32.82582],[130.75928,32.82612],[130.75872,32.82771],[130.75799,32.82848],[130.75707,32.82893],[130.75575,32.82878],[130.75469,32.82812],[130.75398,32.82715],[130.75398,32.82644],[130.75442,32.82562],[130.75521,32.82486],[130.75558,32.82408],[130.75527,32.82311],[130.75463,32.82219],[130.75381,32.82218],[130.75285,32.82391],[130.75159,32.82402],[130.74942,32.82199],[130.74824,32.82063],[130.74744,32.8192],[130.74672,32.81836],[130.74587,32.81817],[130.74381,32.81824],[130.74275,32.81746],[130.74188,32.81618],[130.74134,32.81449],[130.74011,32.81291],[130.73894,32.81206],[130.73993,32.81101],[130.73945,32.8107],[130.74069,32.80895],[130.7415,32.80843],[130.74127,32.8079],[130.74325,32.80779],[130.74458,32.80616],[130.74593,32.80698],[130.74629,32.80756],[130.74787,32.80745],[130.74889,32.80693],[130.75092,32.80709],[130.75187,32.80825],[130.75343,32.80875],[130.7554,32.80876],[130.75718,32.80895],[130.75922,32.80952],[130.75981,32.80891],[130.7619,32.80584],[130.76329,32.80644],[130.76397,32.80538],[130.75896,32.803],[130.75924,32.80201],[130.75796,32.80162],[130.75731,32.79891],[130.75613,32.7985],[130.7553,32.7993],[130.75471,32.79874],[130.75423,32.79893],[130.75253,32.79688],[130.75209,32.7968],[130.75143,32.79608],[130.74944,32.79699],[130.74788,32.79747],[130.74743,32.79745],[130.7465,32.79362],[130.75035,32.79304],[130.75,32.7917],[130.74936,32.79103],[130.74917,32.78997],[130.74922,32.78802],[130.74976,32.78804],[130.74715,32.78551],[130.7463,32.78348],[130.74657,32.78241],[130.74486,32.78224],[130.74427,32.78103],[130.74324,32.77994],[130.74152,32.77888],[130.74001,32.77836],[130.74029,32.77738],[130.73921,32.77678],[130.73862,32.77725],[130.73815,32.77982],[130.73849,32.78117],[130.73668,32.78147],[130.73473,32.78232],[130.73368,32.78364],[130.73318,32.78356],[130.73334,32.78154],[130.73429,32.7812],[130.73485,32.77868],[130.73378,32.77877],[130.73114,32.77825],[130.73144,32.77637],[130.7317,32.77558],[130.73171,32.77448],[130.73106,32.77438],[130.73115,32.77291],[130.73065,32.77222],[130.73081,32.77006],[130.73047,32.76927],[130.72977,32.7695],[130.72858,32.76953]]]]}},
  {"type":"Feature","properties":{"name":"西区","code":"43103"},"geometry":{"type":"MultiPolygon","coordinates":[[[[130.70953,32.82089],[130.70916,32.82178],[130.70922,32.8228],[130.70867,32.82324],[130.70879,32.82462],[130.70953,32.82482],[130.70981,32.82557],[130.70958,32.82645],[130.71055,32.82719],[130.7109,32.82783],[130.71016,32.82818],[130.71048,32.82931],[130.71043,32.83089],[130.70932,32.8314],[130.70802,32.83226],[130.70662,32.83185],[130.70631,32.83227],[130.70484,32.83143],[130.70367,32.83178],[130.7044,32.83254],[130.7037,32.83365],[130.70308,32.83401],[130.70223,32.83377],[130.70077,32.83419],[130.70064,32.83324],[130.70136,32.83278],[130.70167,32.83199],[130.7001,32.83224],[130.69995,32.83277],[130.70021,32.83364],[130.69998,32.83478],[130.69886,32.83542],[130.6995,32.83634],[130.69934,32.83692],[130.69836,32.83684],[130.69704,32.83723],[130.69509,32.83613],[130.69453,32.8343],[130.69519,32.83384],[130.69505,32.83273],[130.69275,32.83149],[130.69172,32.83132],[130.69055,32.8319],[130.69007,32.83269],[130.68861,32.83363],[130.68762,32.83586],[130.68565,32.83754],[130.68506,32.83738],[130.68408,32.83797],[130.68405,32.83725],[130.68271,32.83762],[130.68178,32.83726],[130.6809,32.83747],[130.67953,32.83727],[130.6766,32.83644],[130.67558,32.83658],[130.6747,32.83569],[130.67332,32.83486],[130.6727,32.83375],[130.67185,32.83262],[130.67185,32.8318],[130.67038,32.82992],[130.66851,32.82893],[130.66731,32.82776],[130.66592,32.82695],[130.66491,32.82691],[130.66187,32.82577],[130.66083,32.82566],[130.6602,32.82606],[130.65872,32.8261],[130.65729,32.82669],[130.65652,32.82784],[130.65693,32.82878],[130.65619,32.82917],[130.65585,32.83019],[130.65662,32.83132],[130.65609,32.83224],[130.65766,32.8332],[130.659,32.83369],[130.66078,32.83471],[130.66194,32.83567],[130.6624,32.8368],[130.66403,32.83804],[130.66561,32.83863],[130.66698,32.83963],[130.66729,32.8406],[130.66775,32.84111],[130.66781,32.84341],[130.66902,32.84497],[130.67031,32.84432],[130.67173,32.84493],[130.67212,32.84585],[130.67219,32.84698],[130.67298,32.84747],[130.67486,32.84802],[130.67584,32.84798],[130.67611,32.84866],[130.67562,32.85007],[130.67433,32.85029],[130.67306,32.84976],[130.6725,32.84886],[130.67141,32.8486],[130.6706,32.84875],[130.66938,32.84943],[130.66953,32.85056],[130.67048,32.8516],[130.67054,32.85237],[130.67004,32.85269],[130.66867,32.85204],[130.66771,32.85181],[130.66731,32.85243],[130.66889,32.85368],[130.67055,32.85423],[130.67155,32.85397],[130.67227,32.85442],[130.67236,32.85511],[130.67374,32.85634],[130.67255,32.85758],[130.67101,32.85883],[130.67055,32.85948],[130.67031,32.86055],[130.66924,32.86094],[130.66869,32.86157],[130.66757,32.86199],[130.6672,32.86182],[130.66546,32.86182],[130.66511,32.8622],[130.66371,32.86268],[130.663,32.8634],[130.66152,32.86319],[130.66055,32.86335],[130.65958,32.86315],[130.65887,32.86358],[130.65792,32.86316],[130.6569,32.8631],[130.65594,32.86256],[130.65498,32.86256],[130.65307,32.86198],[130.65272,32.86169],[130.65206,32.86246],[130.65143,32.86272],[130.64886,32.86122],[130.64694,32.86029],[130.64523,32.85965],[130.6443,32.85908],[130.64313,32.85869],[130.64058,32.85936],[130.63977,32.8597],[130.63928,32.85957],[130.63746,32.85989],[130.63538,32.86084],[130.63477,32.86094],[130.63322,32.86136],[130.63214,32.86236],[130.62766,32.86177],[130.62624,32.86198],[130.62726,32.86056],[130.62845,32.85797],[130.62901,32.85703],[130.63015,32.85695],[130.63156,32.8556],[130.63137,32.85434],[130.63082,32.8538],[130.62804,32.85268],[130.6252,32.85254],[130.62489,32.85228],[130.62383,32.8501],[130.6226,32.84896],[130.62226,32.84835],[130.62251,32.84676],[130.62204,32.84472],[130.62066,32.84465],[130.6186,32.84411],[130.61801,32.84427],[130.61502,32.84393],[130.61432,32.84323],[130.61317,32.84309],[130.609,32.84424],[130.60687,32.84532],[130.60551,32.84584],[130.60445,32.84591],[130.60376,32.84656],[130.60225,32.8468],[130.60044,32.84749],[130.59954,32.84745],[130.59629,32.84652],[130.59217,32.84724],[130.59065,32.84823],[130.58879,32.84819],[130.58737,32.84839],[130.58562,32.84942],[130.57318,32.85272],[130.57154,32.84878],[130.57226,32.84861],[130.57271,32.8471],[130.57401,32.84578],[130.57889,32.84148],[130.57918,32.84164],[130.58012,32.84101],[130.58439,32.84198],[130.58418,32.8411],[130.58374,32.84074],[130.5832,32.83945],[130.58196,32.8391],[130.58149,32.84049],[130.57771,32.83953],[130.57979,32.83413],[130.58045,32.83432],[130.58065,32.83368],[130.58179,32.83229],[130.58294,32.83281],[130.5836,32.83282],[130.58289,32.8312],[130.58177,32.82998],[130.58165,32.82951],[130.57982,32.83027],[130.57838,32.82892],[130.5796,32.82828],[130.58185,32.82657],[130.58308,32.8265],[130.58488,32.82661],[130.58575,32.82694],[130.58725,32.82679],[130.58777,32.82701],[130.58904,32.82658],[130.59112,32.82527],[130.59234,32.82395],[130.59304,32.82226],[130.59212,32.82205],[130.59196,32.82056],[130.59289,32.82039],[130.59343,32.81848],[130.59249,32.8174],[130.59316,32.81706],[130.59424,32.81832],[130.59487,32.81805],[130.59442,32.8172],[130.59359,32.81668],[130.59297,32.81494],[130.59191,32.81385],[130.5936,32.8133],[130.5948,32.81275],[130.59517,32.8116],[130.59505,32.81122],[130.59577,32.81058],[130.59773,32.81025],[130.59944,32.81066],[130.60031,32.81115],[130.60163,32.81044],[130.60225,32.8095],[130.60292,32.80736],[130.60436,32.80658],[130.60492,32.80575],[130.60411,32.80117],[130.60375,32.80042],[130.60456,32.80037],[130.6054,32.79991],[130.60596,32.79998],[130.60676,32.79918],[130.60702,32.79855],[130.60783,32.79839],[130.60961,32.79743],[130.61006,32.79786],[130.61257,32.79792],[130.61304,32.7972],[130.61231,32.7963],[130.61241,32.79579],[130.61438,32.79266],[130.61228,32.79178],[130.6103,32.79142],[130.61014,32.79091],[130.60893,32.79059],[130.60747,32.79],[130.60572,32.78798],[130.60451,32.78631],[130.60341,32.78448],[130.60327,32.78387],[130.60318,32.77869],[130.60222,32.77828],[130.59845,32.77816],[130.5977,32.7763],[130.59798,32.77327],[130.59987,32.77259],[130.60009,32.76721],[130.59941,32.76687],[130.60136,32.76229],[130.60181,32.76093],[130.60353,32.75668],[130.60272,32.75581],[130.60342,32.75373],[130.60394,32.75419],[130.60609,32.75429],[130.60696,32.75431],[130.61361,32.75575],[130.62164,32.75898],[130.62314,32.75968],[130.62471,32.76162],[130.62538,32.76182],[130.6268,32.76136],[130.62842,32.76138],[130.62924,32.76155],[130.63022,32.76243],[130.63225,32.76261],[130.63556,32.76196],[130.63714,32.76175],[130.63781,32.76143],[130.64009,32.76112],[130.64188,32.76077],[130.64212,32.76093],[130.64314,32.76521],[130.64504,32.76529],[130.64565,32.7662],[130.64606,32.76773],[130.64698,32.76762],[130.64685,32.76826],[130.6462,32.76922],[130.64634,32.76969],[130.64754,32.76938],[130.64934,32.76915],[130.65168,32.76899],[130.65608,32.76904],[130.65745,32.76915],[130.66035,32.77001],[130.66425,32.77186],[130.66657,32.77246],[130.66947,32.77276],[130.67473,32.77285],[130.6761,32.77272],[130.67857,32.77206],[130.68169,32.77094],[130.68395,32.77037],[130.68596,32.77003],[130.68903,32.76981],[130.68998,32.7703],[130.69113,32.77166],[130.69133,32.77279],[130.69108,32.77706],[130.69147,32.77852],[130.69188,32.77913],[130.69343,32.78148],[130.69403,32.78386],[130.69397,32.78489],[130.69298,32.78866],[130.6929,32.78966],[130.69181,32.78961],[130.69199,32.79051],[130.69256,32.79171],[130.69365,32.79245],[130.69392,32.79325],[130.69343,32.79498],[130.69098,32.79467],[130.69045,32.79506],[130.69021,32.79574],[130.68912,32.79673],[130.6881,32.79674],[130.68671,32.79712],[130.68654,32.7988],[130.68818,32.79866],[130.68934,32.79954],[130.6896,32.80001],[130.69155,32.80015],[130.69077,32.8007],[130.6907,32.80179],[130.68972,32.80189],[130.68944,32.80225],[130.68987,32.80442],[130.69043,32.80491],[130.69183,32.80711],[130.69411,32.81089],[130.69615,32.81012],[130.69638,32.81074],[130.69791,32.8103],[130.69962,32.81046],[130.70073,32.8101],[130.70263,32.81],[130.70289,32.81142],[130.7028,32.81395],[130.70238,32.81495],[130.7017,32.81584],[130.70302,32.81613],[130.70276,32.81656],[130.7028,32.8179],[130.70229,32.81862],[130.70249,32.81946],[130.70466,32.81923],[130.70468,32.81896],[130.70669,32.81893],[130.70668,32.81861],[130.7079,32.81847],[130.70865,32.82034],[130.70919,32.82021],[130.70953,32.82089]]],[[[130.57322,32.76287],[130.58248,32.76357],[130.58258,32.76228],[130.5883,32.76254],[130.59098,32.76295],[130.59136,32.76368],[130.59348,32.76384],[130.59173,32.7644],[130.59171,32.76518],[130.59333,32.76531],[130.59291,32.76929],[130.58451,32.76866],[130.5843,32.76923],[130.57407,32.76847],[130.57423,32.76697],[130.57264,32.76683],[130.57304,32.76281],[130.57322,32.76287]]],[[[130.59167,32.76094],[130.59188,32.75846],[130.59475,32.75868],[130.59446,32.76138],[130.59389,32.76134],[130.5941,32.75914],[130.59188,32.75897],[130.59167,32.76094]]]]}},
  {"type":"Feature","properties":{"name":"南区","code":"43104"},"geometry":{"type":"MultiPolygon","coordinates":[[[[130.69188,32.77913],[130.69147,32.77852],[130.69108,32.77706],[130.69133,32.77279],[130.69113,32.77166],[130.68998,32.7703],[130.68903,32.76981],[130.68596,32.77003],[130.68395,32.77037],[130.68169,32.77094],[130.67857,32.77206],[130.6761,32.77272],[130.67473,32.77285],[130.66947,32.77276],[130.66657,32.77246],[130.66425,32.77186],[130.66035,32.77001],[130.65745,32.76915],[130.65608,32.76904],[130.65168,32.76899],[130.64934,32.76915],[130.64754,32.76938],[130.64634,32.76969],[130.6462,32.76922],[130.64685,32.76826],[130.64698,32.76762],[130.64606,32.76773],[130.64565,32.7662],[130.64504,32.76529],[130.64314,32.76521],[130.64212,32.76093],[130.64188,32.76077],[130.64009,32.76112],[130.63781,32.76143],[130.63714,32.76175],[130.63556,32.76196],[130.63225,32.76261],[130.63022,32.76243],[130.62924,32.76155],[130.62842,32.76138],[130.6268,32.76136],[130.62538,32.76182],[130.62471,32.76162],[130.62314,32.75968],[130.62164,32.75898],[130.61361,32.75575],[130.60696,32.75431],[130.60609,32.75429],[130.60602,32.75359],[130.60495,32.75336],[130.60421,32.75291],[130.60422,32.75203],[130.6031,32.75188],[130.60504,32.75051],[130.6054,32.74554],[130.60783,32.74601],[130.60848,32.7458],[130.60813,32.74505],[130.60713,32.74546],[130.60641,32.74393],[130.60733,32.74256],[130.60368,32.73121],[130.60379,32.73107],[130.60635,32.73077],[130.60507,32.72176],[130.60511,32.72138],[130.60729,32.71891],[130.60718,32.71826],[130.60793,32.71782],[130.60756,32.71579],[130.61115,32.71519],[130.616,32.7142],[130.61858,32.71323],[130.62268,32.71147],[130.62535,32.71019],[130.62733,32.70934],[130.62929,32.70898],[130.63057,32.70904],[130.63228,32.70988],[130.63549,32.71061],[130.63696,32.71121],[130.64139,32.7137],[130.64267,32.71478],[130.64398,32.71731],[130.64513,32.71639],[130.64626,32.71525],[130.64803,32.714],[130.65001,32.71289],[130.65324,32.71156],[130.65487,32.71071],[130.65623,32.7094],[130.65705,32.70758],[130.65725,32.70609],[130.65699,32.70398],[130.65655,32.70289],[130.65653,32.70189],[130.65711,32.70163],[130.65828,32.70339],[130.65892,32.70479],[130.65938,32.70628],[130.66045,32.70665],[130.66229,32.70668],[130.66387,32.70707],[130.66455,32.70683],[130.66511,32.70617],[130.66526,32.7045],[130.66597,32.70352],[130.6688,32.70258],[130.66868,32.70145],[130.66886,32.70073],[130.66984,32.70028],[130.66974,32.69936],[130.67025,32.69913],[130.67011,32.69814],[130.66901,32.69855],[130.6684,32.69789],[130.66906,32.69726],[130.67081,32.69696],[130.67118,32.69644],[130.67121,32.69564],[130.67227,32.69405],[130.67277,32.69418],[130.67228,32.69526],[130.6728,32.69526],[130.67389,32.69594],[130.67415,32.69522],[130.67489,32.69523],[130.67624,32.6963],[130.67722,32.69438],[130.67829,32.69388],[130.67995,32.69443],[130.68093,32.69446],[130.68159,32.69418],[130.68365,32.6957],[130.68476,32.69491],[130.68495,32.69438],[130.68657,32.69396],[130.68738,32.69332],[130.68748,32.69259],[130.68832,32.69264],[130.68918,32.69143],[130.68994,32.69107],[130.69092,32.69136],[130.69141,32.69182],[130.69229,32.69186],[130.69304,32.69231],[130.69477,32.69263],[130.69575,32.6924],[130.69702,32.69295],[130.6985,32.69194],[130.69845,32.6908],[130.69889,32.68976],[130.70012,32.68972],[130.70097,32.68882],[130.70356,32.68876],[130.70508,32.68807],[130.70638,32.68829],[130.70734,32.68784],[130.70823,32.68834],[130.70877,32.68811],[130.71002,32.68841],[130.71084,32.68757],[130.71206,32.68715],[130.71265,32.68645],[130.71292,32.68553],[130.71333,32.68525],[130.71479,32.68517],[130.71545,32.68458],[130.716,32.68461],[130.71665,32.68315],[130.71724,32.68233],[130.71677,32.68113],[130.71796,32.67993],[130.7186,32.67952],[130.7197,32.67813],[130.7215,32.67722],[130.72232,32.67657],[130.72403,32.67641],[130.72543,32.67694],[130.72596,32.67638],[130.72527,32.67582],[130.72595,32.67369],[130.72719,32.67372],[130.72775,32.67298],[130.72785,32.6719],[130.72839,32.67064],[130.72941,32.66976],[130.73168,32.66924],[130.73264,32.6679],[130.73374,32.66712],[130.73399,32.66633],[130.73398,32.66504],[130.73442,32.66456],[130.73401,32.66367],[130.73394,32.66252],[130.7343,32.66106],[130.73478,32.66068],[130.73598,32.66034],[130.73859,32.66048],[130.73863,32.66215],[130.73898,32.66247],[130.74058,32.66261],[130.74204,32.66403],[130.74205,32.66517],[130.74273,32.66591],[130.74292,32.6667],[130.74341,32.66695],[130.74463,32.66696],[130.74561,32.66779],[130.74615,32.66864],[130.74568,32.6699],[130.74604,32.67051],[130.74568,32.67083],[130.74626,32.67277],[130.74767,32.67419],[130.74845,32.67389],[130.74882,32.67291],[130.74972,32.67327],[130.75155,32.67274],[130.75174,32.67187],[130.75243,32.67142],[130.75292,32.67005],[130.75281,32.66828],[130.7521,32.66729],[130.75222,32.66656],[130.75272,32.66617],[130.75479,32.66612],[130.75586,32.66632],[130.75631,32.66584],[130.75909,32.66654],[130.75976,32.66562],[130.76055,32.66559],[130.76147,32.66624],[130.76253,32.66743],[130.76362,32.66799],[130.76429,32.66639],[130.76505,32.66649],[130.7653,32.66695],[130.76646,32.66683],[130.76772,32.667],[130.76864,32.66654],[130.77107,32.66656],[130.77273,32.66687],[130.77343,32.66622],[130.77486,32.66605],[130.77686,32.66614],[130.77743,32.66661],[130.77781,32.66738],[130.77766,32.66793],[130.77689,32.66831],[130.77643,32.66932],[130.77532,32.67038],[130.77498,32.67133],[130.77407,32.6727],[130.77487,32.67388],[130.77527,32.67577],[130.77478,32.67672],[130.77352,32.67732],[130.77331,32.67778],[130.77243,32.67802],[130.77248,32.67935],[130.77225,32.68054],[130.77318,32.68125],[130.77278,32.6817],[130.77139,32.68234],[130.77053,32.68311],[130.7661,32.68562],[130.76534,32.68617],[130.76431,32.6865],[130.76403,32.68831],[130.76277,32.68945],[130.7642,32.69038],[130.76463,32.6911],[130.76477,32.69265],[130.7625,32.69424],[130.75919,32.69618],[130.75555,32.6984],[130.75377,32.69972],[130.75378,32.7017],[130.75349,32.70331],[130.75284,32.70436],[130.75341,32.70868],[130.75612,32.7085],[130.75686,32.709],[130.75712,32.70956],[130.75779,32.70944],[130.75954,32.70966],[130.76184,32.71165],[130.76089,32.71391],[130.76062,32.71594],[130.75998,32.71821],[130.75994,32.71966],[130.75972,32.72033],[130.76006,32.72174],[130.75964,32.72331],[130.75736,32.72791],[130.75705,32.72833],[130.75448,32.73111],[130.75196,32.73317],[130.75053,32.73397],[130.74902,32.73463],[130.74722,32.73493],[130.74485,32.73502],[130.74203,32.73499],[130.73822,32.73507],[130.73673,32.73527],[130.73183,32.73624],[130.72859,32.73649],[130.72611,32.73704],[130.72479,32.73714],[130.72383,32.73698],[130.72156,32.73629],[130.71762,32.73566],[130.71395,32.73541],[130.71141,32.73577],[130.70815,32.73634],[130.70473,32.73621],[130.6995,32.73586],[130.69615,32.73512],[130.69529,32.73716],[130.69622,32.73798],[130.69755,32.74026],[130.69772,32.74259],[130.69846,32.74332],[130.69937,32.74346],[130.7,32.74285],[130.69998,32.74179],[130.70117,32.73971],[130.70149,32.73961],[130.7048,32.74025],[130.70578,32.74034],[130.70677,32.74074],[130.70772,32.74058],[130.70908,32.73927],[130.71035,32.73868],[130.71252,32.73827],[130.7134,32.73876],[130.71492,32.74072],[130.71494,32.74227],[130.71551,32.74319],[130.71751,32.74457],[130.71822,32.74464],[130.71975,32.74537],[130.72126,32.74519],[130.72266,32.74446],[130.72339,32.74357],[130.72368,32.74255],[130.72436,32.74224],[130.72581,32.74345],[130.72577,32.74507],[130.72661,32.74659],[130.72678,32.74836],[130.7271,32.74903],[130.72895,32.75028],[130.7283,32.7509],[130.72795,32.75206],[130.72861,32.75289],[130.72897,32.7542],[130.72874,32.75478],[130.72879,32.7558],[130.72856,32.75696],[130.72894,32.75763],[130.72911,32.7588],[130.72839,32.7606],[130.72789,32.76362],[130.72769,32.76643],[130.72858,32.76953],[130.72856,32.76998],[130.72772,32.7721],[130.72692,32.773],[130.72379,32.77326],[130.72156,32.77332],[130.72079,32.7743],[130.7194,32.77434],[130.71924,32.77613],[130.71968,32.77634],[130.71942,32.77807],[130.71906,32.77804],[130.71868,32.7794],[130.71559,32.77926],[130.71584,32.77877],[130.71353,32.77859],[130.7135,32.7792],[130.71223,32.77892],[130.71037,32.77877],[130.70796,32.7776],[130.70473,32.77735],[130.70355,32.77739],[130.70344,32.77908],[130.70196,32.77915],[130.70188,32.77873],[130.70063,32.77863],[130.70051,32.77904],[130.69943,32.77894],[130.69901,32.77955],[130.69812,32.77933],[130.69616,32.77855],[130.69482,32.77841],[130.69372,32.77859],[130.69188,32.77913]]]]}},
  {"type":"Feature","properties":{"name":"北区","code":"43105"},"geometry":{"type":"MultiPolygon","coordinates":[[[[130.74744,32.8192],[130.74824,32.82063],[130.74942,32.82199],[130.75159,32.82402],[130.75285,32.82391],[130.75381,32.82218],[130.75463,32.82219],[130.75527,32.82311],[130.75558,32.82408],[130.75521,32.82486],[130.75442,32.82562],[130.75398,32.82644],[130.75398,32.82715],[130.75469,32.82812],[130.75575,32.82878],[130.75707,32.82893],[130.75799,32.82848],[130.75872,32.82771],[130.75928,32.82612],[130.7597,32.82582],[130.76074,32.82642],[130.76213,32.8278],[130.76244,32.82893],[130.76144,32.83099],[130.7602,32.83254],[130.75984,32.83327],[130.76038,32.83473],[130.76142,32.83488],[130.76287,32.83419],[130.76411,32.83407],[130.76556,32.83473],[130.76595,32.83527],[130.7659,32.83604],[130.76641,32.83887],[130.76694,32.83977],[130.76713,32.84056],[130.76683,32.84112],[130.76739,32.84192],[130.76826,32.84202],[130.77063,32.84146],[130.77247,32.84197],[130.77322,32.84296],[130.77296,32.84389],[130.77234,32.84484],[130.77224,32.84662],[130.77277,32.8474],[130.77365,32.84781],[130.776,32.84826],[130.77864,32.84827],[130.78108,32.84809],[130.78273,32.84745],[130.78415,32.84627],[130.78474,32.84555],[130.78592,32.84562],[130.78626,32.84682],[130.7865,32.84842],[130.78719,32.85048],[130.78815,32.85137],[130.78991,32.85272],[130.79051,32.85333],[130.78937,32.85346],[130.78843,32.85657],[130.78739,32.85831],[130.78377,32.85709],[130.77965,32.85638],[130.77918,32.85772],[130.77732,32.85752],[130.77633,32.85794],[130.77324,32.85727],[130.77181,32.85733],[130.76802,32.85694],[130.76817,32.85611],[130.7656,32.85545],[130.76608,32.85391],[130.765,32.85432],[130.76385,32.85411],[130.76341,32.85442],[130.76185,32.85426],[130.7621,32.85363],[130.76104,32.85318],[130.75973,32.85289],[130.75926,32.85233],[130.75715,32.85249],[130.75575,32.85233],[130.75595,32.85316],[130.75654,32.85329],[130.75687,32.85392],[130.75923,32.85516],[130.7595,32.85598],[130.76036,32.85714],[130.7601,32.85733],[130.75708,32.85676],[130.75491,32.85626],[130.75216,32.85542],[130.75154,32.85544],[130.75077,32.85624],[130.75099,32.85672],[130.74856,32.85783],[130.74812,32.85712],[130.74699,32.85664],[130.74572,32.85586],[130.74458,32.85572],[130.74307,32.85523],[130.74256,32.85456],[130.74108,32.85413],[130.74096,32.85385],[130.73823,32.85349],[130.73665,32.85306],[130.73489,32.85217],[130.7327,32.85251],[130.73234,32.85182],[130.73175,32.85164],[130.72944,32.85167],[130.72645,32.85152],[130.72514,32.85195],[130.72526,32.85292],[130.72561,32.85369],[130.72736,32.8563],[130.72966,32.86026],[130.73093,32.86203],[130.73087,32.86284],[130.73124,32.86396],[130.73092,32.86428],[130.73068,32.8664],[130.73093,32.86797],[130.73069,32.86843],[130.73166,32.86916],[130.73181,32.86965],[130.73104,32.86991],[130.73098,32.87212],[130.73139,32.87332],[130.73231,32.87466],[130.73231,32.87875],[130.73063,32.87873],[130.72994,32.8798],[130.73005,32.88187],[130.73011,32.88816],[130.72424,32.88789],[130.72257,32.88999],[130.72236,32.89041],[130.72252,32.89259],[130.72199,32.89266],[130.72204,32.89353],[130.72144,32.89364],[130.72012,32.89537],[130.72028,32.89612],[130.71998,32.89695],[130.72124,32.89794],[130.72248,32.89951],[130.72295,32.90048],[130.72279,32.90197],[130.72204,32.9059],[130.72209,32.90695],[130.72279,32.90934],[130.7237,32.91308],[130.72435,32.91446],[130.72474,32.9157],[130.72504,32.9177],[130.72559,32.91883],[130.72622,32.92065],[130.72702,32.92199],[130.72714,32.92304],[130.72777,32.92325],[130.72809,32.92492],[130.72864,32.92652],[130.72909,32.9272],[130.72975,32.92753],[130.72946,32.92837],[130.72943,32.92968],[130.72994,32.92992],[130.72893,32.93112],[130.72903,32.93216],[130.72991,32.93226],[130.73038,32.93324],[130.73274,32.9333],[130.73268,32.93359],[130.73078,32.93374],[130.73056,32.93424],[130.73096,32.93633],[130.73078,32.9374],[130.73076,32.93906],[130.73033,32.93961],[130.72917,32.94207],[130.7284,32.94424],[130.72866,32.94455],[130.72862,32.94637],[130.72941,32.94642],[130.7294,32.94844],[130.73017,32.94931],[130.73023,32.95006],[130.72922,32.95074],[130.7299,32.9533],[130.7296,32.9536],[130.72944,32.95497],[130.72965,32.95672],[130.73091,32.95818],[130.72995,32.95814],[130.72994,32.95895],[130.72859,32.96121],[130.72898,32.9623],[130.72889,32.96291],[130.72805,32.96431],[130.72829,32.96586],[130.72861,32.96643],[130.72986,32.96758],[130.73361,32.97197],[130.72988,32.97426],[130.72872,32.97518],[130.72766,32.97493],[130.72714,32.97583],[130.72615,32.97609],[130.72471,32.97698],[130.72285,32.97471],[130.72105,32.97572],[130.72041,32.97544],[130.71896,32.97352],[130.71813,32.97405],[130.71859,32.97457],[130.71555,32.97638],[130.71497,32.9758],[130.71206,32.97736],[130.70812,32.97986],[130.70723,32.97892],[130.70926,32.97702],[130.709,32.97668],[130.70955,32.97607],[130.70859,32.97589],[130.70749,32.97502],[130.70812,32.97432],[130.70887,32.97402],[130.70935,32.97327],[130.70908,32.97235],[130.70824,32.97174],[130.70745,32.97152],[130.70667,32.97079],[130.70631,32.96942],[130.70587,32.96906],[130.70452,32.96879],[130.70398,32.96807],[130.70398,32.96624],[130.70313,32.96553],[130.70287,32.96436],[130.70244,32.96356],[130.70273,32.96185],[130.70117,32.9596],[130.70037,32.9588],[130.69948,32.95824],[130.69814,32.95695],[130.69701,32.95536],[130.69642,32.95489],[130.69453,32.95521],[130.69374,32.95566],[130.69321,32.95646],[130.69354,32.95768],[130.6925,32.95841],[130.69225,32.95906],[130.69155,32.95955],[130.69022,32.95926],[130.6891,32.95823],[130.68623,32.9577],[130.68491,32.9571],[130.6835,32.95753],[130.6829,32.95744],[130.68136,32.95637],[130.68042,32.95552],[130.67983,32.95465],[130.678,32.95399],[130.67606,32.9531],[130.67511,32.95295],[130.67364,32.9523],[130.67284,32.95088],[130.67165,32.95069],[130.67154,32.94986],[130.67076,32.94972],[130.66934,32.94885],[130.66972,32.94859],[130.67083,32.94867],[130.67094,32.94744],[130.66947,32.94443],[130.66876,32.94393],[130.66737,32.94376],[130.66745,32.94223],[130.66809,32.94111],[130.66668,32.94023],[130.66714,32.93966],[130.66662,32.93826],[130.66726,32.93789],[130.66705,32.93694],[130.66612,32.93681],[130.66546,32.93608],[130.66359,32.93485],[130.66265,32.93483],[130.66196,32.93426],[130.66099,32.93429],[130.66045,32.93475],[130.65925,32.93492],[130.65772,32.93436],[130.65662,32.93429],[130.65493,32.93526],[130.65394,32.93472],[130.65293,32.93384],[130.65181,32.93329],[130.65161,32.93221],[130.6513,32.93119],[130.6493,32.93091],[130.64801,32.93131],[130.64624,32.93155],[130.64454,32.93081],[130.64319,32.93077],[130.64169,32.93025],[130.64218,32.92896],[130.64162,32.92837],[130.64079,32.92818],[130.6394,32.92677],[130.6389,32.92555],[130.64123,32.92449],[130.64187,32.92394],[130.63926,32.921],[130.63854,32.91965],[130.63761,32.91921],[130.63801,32.91828],[130.6366,32.91747],[130.63577,32.91729],[130.6372,32.91623],[130.63906,32.91555],[130.63915,32.91441],[130.63976,32.91457],[130.64023,32.91408],[130.64017,32.91337],[130.6408,32.91325],[130.64142,32.91255],[130.64212,32.91225],[130.64515,32.90901],[130.64592,32.90879],[130.64656,32.90802],[130.64643,32.90671],[130.64691,32.90587],[130.6473,32.90462],[130.64872,32.90329],[130.64966,32.90278],[130.64949,32.9019],[130.64891,32.90148],[130.64804,32.90028],[130.64802,32.89931],[130.64905,32.89797],[130.64921,32.89728],[130.6489,32.89651],[130.64937,32.89252],[130.65035,32.8915],[130.65132,32.89114],[130.65183,32.8899],[130.65196,32.88794],[130.65089,32.8872],[130.64944,32.88669],[130.64948,32.88622],[130.64841,32.88594],[130.64638,32.88599],[130.64557,32.88562],[130.64485,32.88494],[130.64371,32.88076],[130.64206,32.87858],[130.64212,32.87794],[130.64299,32.87758],[130.6426,32.87561],[130.64028,32.87402],[130.6398,32.87338],[130.63976,32.87231],[130.64001,32.87023],[130.63994,32.8697],[130.63923,32.86787],[130.63846,32.86503],[130.63687,32.86332],[130.63563,32.8623],[130.63477,32.86094],[130.63538,32.86084],[130.63746,32.85989],[130.63928,32.85957],[130.63977,32.8597],[130.64058,32.85936],[130.64313,32.85869],[130.6443,32.85908],[130.64523,32.85965],[130.64694,32.86029],[130.64886,32.86122],[130.65143,32.86272],[130.65206,32.86246],[130.65272,32.86169],[130.65307,32.86198],[130.65498,32.86256],[130.65594,32.86256],[130.6569,32.8631],[130.65792,32.86316],[130.65887,32.86358],[130.65958,32.86315],[130.66055,32.86335],[130.66152,32.86319],[130.663,32.8634],[130.66371,32.86268],[130.66511,32.8622],[130.66546,32.86182],[130.6672,32.86182],[130.66757,32.86199],[130.66869,32.86157],[130.66924,32.86094],[130.67031,32.86055],[130.67055,32.85948],[130.67101,32.85883],[130.67255,32.85758],[130.67374,32.85634],[130.67236,32.85511],[130.67227,32.85442],[130.67155,32.85397],[130.67055,32.85423],[130.66889,32.85368],[130.66731,32.85243],[130.66771,32.85181],[130.66867,32.85204],[130.67004,32.85269],[130.67054,32.85237],[130.67048,32.8516],[130.66953,32.85056],[130.66938,32.84943],[130.6706,32.84875],[130.67141,32.8486],[130.6725,32.84886],[130.67306,32.84976],[130.67433,32.85029],[130.67562,32.85007],[130.67611,32.84866],[130.67584,32.84798],[130.67486,32.84802],[130.67298,32.84747],[130.67219,32.84698],[130.67212,32.84585],[130.67173,32.84493],[130.67031,32.84432],[130.66902,32.84497],[130.66781,32.84341],[130.66775,32.84111],[130.66729,32.8406],[130.66698,32.83963],[130.66561,32.83863],[130.66403,32.83804],[130.6624,32.8368],[130.66194,32.83567],[130.66078,32.83471],[130.659,32.83369],[130.65766,32.8332],[130.65609,32.83224],[130.65662,32.83132],[130.65585,32.83019],[130.65619,32.82917],[130.65693,32.82878],[130.65652,32.82784],[130.65729,32.82669],[130.65872,32.8261],[130.6602,32.82606],[130.66083,32.82566],[130.66187,32.82577],[130.66491,32.82691],[130.66592,32.82695],[130.66731,32.82776],[130.66851,32.82893],[130.67038,32.82992],[130.67185,32.8318],[130.67185,32.83262],[130.6727,32.83375],[130.67332,32.83486],[130.6747,32.83569],[130.67558,32.83658],[130.6766,32.83644],[130.67953,32.83727],[130.6809,32.83747],[130.68178,32.83726],[130.68271,32.83762],[130.68405,32.83725],[130.68408,32.83797],[130.68506,32.83738],[130.68565,32.83754],[130.68762,32.83586],[130.68861,32.83363],[130.69007,32.83269],[130.69055,32.8319],[130.69172,32.83132],[130.69275,32.83149],[130.69505,32.83273],[130.69519,32.83384],[130.69453,32.8343],[130.69509,32.83613],[130.69704,32.83723],[130.69836,32.83684],[130.69934,32.83692],[130.6995,32.83634],[130.69886,32.83542],[130.69998,32.83478],[130.70021,32.83364],[130.69995,32.83277],[130.7001,32.83224],[130.70167,32.83199],[130.70136,32.83278],[130.70064,32.83324],[130.70077,32.83419],[130.70223,32.83377],[130.70308,32.83401],[130.7037,32.83365],[130.7044,32.83254],[130.70367,32.83178],[130.70484,32.83143],[130.70631,32.83227],[130.70662,32.83185],[130.70802,32.83226],[130.70932,32.8314],[130.71043,32.83089],[130.71048,32.82931],[130.71016,32.82818],[130.7109,32.82783],[130.71055,32.82719],[130.70958,32.82645],[130.70981,32.82557],[130.70953,32.82482],[130.70879,32.82462],[130.70867,32.82324],[130.70922,32.8228],[130.70916,32.82178],[130.70953,32.82089],[130.70976,32.82146],[130.71061,32.82138],[130.71184,32.82166],[130.7123,32.82044],[130.71295,32.82069],[130.71392,32.82194],[130.71491,32.82284],[130.71603,32.82194],[130.71761,32.82146],[130.71814,32.82164],[130.71808,32.82235],[130.71969,32.82239],[130.72051,32.82225],[130.72159,32.82357],[130.72266,32.82326],[130.72263,32.82227],[130.72331,32.82245],[130.72361,32.82322],[130.72535,32.82285],[130.7257,32.82263],[130.72791,32.82314],[130.72977,32.82391],[130.73021,32.82432],[130.73154,32.82468],[130.73187,32.8253],[130.73256,32.82558],[130.73372,32.82667],[130.73493,32.82648],[130.73533,32.82743],[130.73663,32.82941],[130.73575,32.82957],[130.73581,32.83014],[130.73721,32.82978],[130.73824,32.8297],[130.73895,32.82857],[130.73967,32.8278],[130.73987,32.82634],[130.74148,32.82517],[130.74338,32.82264],[130.74395,32.82209],[130.74596,32.82136],[130.74662,32.8208],[130.7459,32.82015],[130.74744,32.8192]]]]}}
]}
