{"type":"FeatureCollection", "features": [
  {"type":"Feature","properties":{"name":"北区","code":"26101"},"geometry":{"type":"MultiPolygon","coordinates":[[[[135.733137,35.022427],[135.733024,35.023689],[135.73308,35.026049],[135.732936,35.027033],[135.733409,35.028018],[135.734599,35.031961],[135.735634,35.034602],[135.736369,35.034031],[135.737431,35.032723],[135.738,35.03272],[135.738017,35.033856],[135.740009,35.033806],[135.739749,35.034785],[135.739814,35.035906],[135.741135,35.036113],[135.741157,35.035519],[135.743111,35.035607],[135.747044,35.035459],[135.74763,35.036927],[135.747696,35.039032],[135.749227,35.039188],[135.750374,35.038234],[135.751481,35.038273],[135.752156,35.037564],[135.755291,35.037282],[135.757397,35.037331],[135.757856,35.037645],[135.758936,35.037408],[135.761161,35.037572],[135.761161,35.037059],[135.763098,35.037086],[135.764289,35.037446],[135.765223,35.036353],[135.765753,35.035466],[135.766759,35.034868],[135.768799,35.032246],[135.769812,35.032633],[135.76555,35.039605],[135.762959,35.043496],[135.758365,35.050107],[135.759782,35.05048],[135.766016,35.051111],[135.767542,35.051208],[135.767415,35.054589],[135.768807,35.054833],[135.769272,35.055744],[135.768675,35.056975],[135.769248,35.057516],[135.770166,35.057623],[135.772275,35.057324],[135.772394,35.05803],[135.771442,35.058514],[135.772473,35.059139],[135.77228,35.059642],[135.7715,35.060073],[135.77142,35.061006],[135.772153,35.061737],[135.771831,35.062051],[135.77065,35.062044],[135.768615,35.062421],[135.767583,35.062476],[135.766504,35.06127],[135.766003,35.061719],[135.765666,35.062968],[135.765749,35.063458],[135.766928,35.06416],[135.767474,35.065367],[135.769034,35.066596],[135.769142,35.067765],[135.768471,35.068785],[135.766389,35.068378],[135.76462,35.068501],[135.764644,35.069054],[135.767615,35.069959],[135.768335,35.071034],[135.768101,35.071896],[135.76705,35.072075],[135.766364,35.07168],[135.766124,35.071047],[135.764885,35.070879],[135.765936,35.072007],[135.76571,35.072187],[135.764219,35.071216],[135.764088,35.071872],[135.764448,35.072531],[135.765705,35.073101],[135.765811,35.073395],[135.764798,35.073929],[135.764428,35.074951],[135.763621,35.074884],[135.762168,35.073996],[135.760177,35.073463],[135.758776,35.074525],[135.759286,35.074963],[135.760305,35.074541],[135.761208,35.074643],[135.761115,35.075292],[135.763229,35.075314],[135.764156,35.075669],[135.765299,35.075747],[135.764788,35.077645],[135.764198,35.077538],[135.763111,35.077799],[135.763147,35.079817],[135.762955,35.080438],[135.762249,35.080413],[135.761998,35.08182],[135.761234,35.081871],[135.759835,35.080871],[135.759134,35.079401],[135.758124,35.078232],[135.757448,35.078063],[135.756167,35.077336],[135.756075,35.076698],[135.754116,35.076596],[135.752635,35.076892],[135.753184,35.077388],[135.754106,35.077334],[135.754896,35.078158],[135.755822,35.078346],[135.75566,35.078921],[135.756383,35.079056],[135.757188,35.080076],[135.758472,35.08016],[135.759142,35.08126],[135.760153,35.081972],[135.759897,35.082678],[135.760434,35.083104],[135.759798,35.084012],[135.758,35.083945],[135.757208,35.083456],[135.755772,35.083092],[135.756909,35.084215],[135.758174,35.08519],[135.757854,35.085485],[135.755154,35.085776],[135.754195,35.086331],[135.751789,35.086816],[135.750626,35.087392],[135.748156,35.088128],[135.747479,35.087014],[135.746843,35.086476],[135.745308,35.086306],[135.744387,35.085921],[135.743114,35.086321],[135.742345,35.086253],[135.741583,35.085403],[135.741305,35.086612],[135.740359,35.087087],[135.739994,35.087998],[135.740334,35.088619],[135.741075,35.089162],[135.740117,35.089551],[135.738762,35.090814],[135.74015,35.091484],[135.740578,35.091938],[135.743235,35.091172],[135.743507,35.091464],[135.746023,35.092928],[135.748123,35.095451],[135.747164,35.095988],[135.744813,35.096071],[135.743463,35.096286],[135.742671,35.096973],[135.74311,35.097841],[135.741675,35.099132],[135.742822,35.100724],[135.742295,35.101433],[135.742475,35.102384],[135.742154,35.102982],[135.741952,35.104148],[135.742439,35.105293],[135.742409,35.106756],[135.741601,35.108957],[135.741398,35.110384],[135.74158,35.112118],[135.741564,35.114399],[135.741137,35.115258],[135.741066,35.116258],[135.741249,35.117287],[135.741636,35.11789],[135.742046,35.119301],[135.741968,35.119847],[135.741149,35.120177],[135.740334,35.121857],[135.740784,35.122301],[135.740988,35.123214],[135.741718,35.123404],[135.741748,35.124116],[135.740999,35.124686],[135.740922,35.12539],[135.74012,35.126768],[135.739768,35.128226],[135.738894,35.129706],[135.738146,35.131854],[135.738906,35.133296],[135.738734,35.134556],[135.738962,35.134826],[135.740998,35.135706],[135.743015,35.137605],[135.744701,35.137894],[135.744948,35.13815],[135.745564,35.139993],[135.744347,35.140633],[135.744869,35.141824],[135.744976,35.143798],[135.744584,35.145089],[135.743739,35.146424],[135.742477,35.147192],[135.742617,35.148588],[135.743511,35.14923],[135.743679,35.14972],[135.744655,35.150097],[135.743954,35.152317],[135.743655,35.152739],[135.743576,35.154287],[135.743093,35.155683],[135.742116,35.156393],[135.742051,35.157766],[135.741642,35.158364],[135.740004,35.159289],[135.737888,35.160826],[135.737356,35.160999],[135.735777,35.160915],[135.734396,35.16184],[135.733448,35.163291],[135.73318,35.164766],[135.732468,35.165398],[135.732058,35.166351],[135.73144,35.166658],[135.731305,35.167521],[135.730726,35.16818],[135.730866,35.169874],[135.729879,35.170124],[135.728619,35.170892],[135.727454,35.170194],[135.726185,35.170961],[135.725169,35.170851],[135.724073,35.171493],[135.723744,35.170933],[135.722756,35.170094],[135.721624,35.170216],[135.720753,35.169874],[135.720324,35.169123],[135.720267,35.168235],[135.719317,35.168533],[135.716691,35.16902],[135.714953,35.168526],[135.713644,35.168823],[135.713003,35.167665],[135.712379,35.166062],[135.711226,35.165276],[135.710268,35.164269],[135.709336,35.164128],[135.707921,35.164773],[135.706632,35.165599],[135.705793,35.165921],[135.704739,35.165963],[135.70359,35.165571],[135.701585,35.165394],[135.700286,35.164904],[135.700039,35.165353],[135.699082,35.165911],[135.6973,35.165867],[135.696358,35.166038],[135.694961,35.165877],[135.693961,35.166417],[135.690334,35.166099],[135.689657,35.166226],[135.687229,35.167743],[135.686715,35.167723],[135.685362,35.165843],[135.684253,35.16547],[135.681666,35.165586],[135.680658,35.166044],[135.679369,35.16688],[135.677511,35.166084],[135.67578,35.166003],[135.675878,35.165006],[135.674644,35.164151],[135.674584,35.163286],[135.674241,35.162895],[135.674654,35.161569],[135.674319,35.159742],[135.672932,35.158631],[135.672653,35.157339],[135.673311,35.155376],[135.672766,35.154073],[135.672576,35.151737],[135.672891,35.150705],[135.672743,35.149371],[135.673257,35.148934],[135.673656,35.14722],[135.673507,35.14635],[135.672582,35.145573],[135.672498,35.144678],[135.672771,35.143973],[135.672484,35.142604],[135.672587,35.141692],[135.673329,35.139551],[135.674221,35.138296],[135.675491,35.137726],[135.675843,35.137004],[135.675487,35.136002],[135.675433,35.134961],[135.675653,35.134107],[135.675043,35.13276],[135.674126,35.131273],[135.674286,35.129762],[135.673597,35.129413],[135.673431,35.128624],[135.672431,35.127636],[135.672273,35.126913],[135.671208,35.126497],[135.67066,35.125787],[135.670405,35.123196],[135.670085,35.122804],[135.669151,35.122741],[135.667642,35.121355],[135.666372,35.12123],[135.665333,35.120813],[135.664648,35.119663],[135.664593,35.119031],[135.663334,35.118011],[135.662599,35.117785],[135.660756,35.116564],[135.659799,35.116108],[135.658363,35.116809],[135.656809,35.117231],[135.655521,35.116593],[135.654153,35.1147],[135.652752,35.115072],[135.652137,35.115599],[135.650745,35.116171],[135.64986,35.117798],[135.649073,35.118843],[135.648276,35.118976],[135.646965,35.117993],[135.647884,35.117098],[135.649006,35.1148],[135.649738,35.114423],[135.648355,35.112693],[135.648189,35.111851],[135.649226,35.109864],[135.650939,35.109695],[135.652646,35.109153],[135.654552,35.10876],[135.654463,35.108037],[135.653655,35.10668],[135.654427,35.105755],[135.653192,35.104855],[135.652813,35.103944],[135.652165,35.103224],[135.651011,35.103024],[135.650353,35.102295],[135.650163,35.101607],[135.650899,35.100541],[135.651459,35.098473],[135.652299,35.097687],[135.652188,35.096699],[135.65274,35.096016],[135.652593,35.094903],[135.654298,35.092782],[135.654325,35.092363],[135.655668,35.091503],[135.65609,35.090513],[135.657262,35.091877],[135.657758,35.092214],[135.659263,35.092588],[135.660975,35.0937],[135.662819,35.096447],[135.662998,35.097244],[135.663531,35.098045],[135.664852,35.098407],[135.66517,35.097719],[135.666168,35.096814],[135.667689,35.095949],[135.67052,35.095023],[135.671372,35.095134],[135.672998,35.094293],[135.673045,35.092696],[135.672074,35.092199],[135.670599,35.09227],[135.669491,35.091455],[135.668939,35.08984],[135.668198,35.089031],[135.667476,35.086893],[135.668044,35.086063],[135.668438,35.083242],[135.668303,35.082379],[135.669363,35.082918],[135.670598,35.08411],[135.671461,35.085397],[135.672608,35.083428],[135.674399,35.083811],[135.674938,35.083436],[135.675573,35.083625],[135.677231,35.083323],[135.676957,35.082896],[135.67679,35.08142],[135.676046,35.080493],[135.676014,35.079467],[135.676587,35.078983],[135.679214,35.078316],[135.68043,35.077722],[135.682318,35.077252],[135.683907,35.076025],[135.684868,35.076487],[135.685204,35.07692],[135.685523,35.078121],[135.686527,35.079043],[135.68695,35.080694],[135.687864,35.081514],[135.688757,35.080824],[135.689886,35.080299],[135.690509,35.078972],[135.691141,35.07818],[135.691051,35.077541],[135.691806,35.075578],[135.692213,35.075208],[135.692648,35.074117],[135.693402,35.073265],[135.693502,35.072576],[135.694306,35.071533],[135.695761,35.07086],[135.695651,35.070321],[135.693855,35.068388],[135.694313,35.06737],[135.695029,35.066361],[135.695863,35.068288],[135.696657,35.069372],[135.698855,35.069806],[135.700416,35.06896],[135.700462,35.068369],[135.701167,35.067941],[135.702218,35.066736],[135.702912,35.066561],[135.703012,35.06604],[135.70397,35.065518],[135.703673,35.063452],[135.705116,35.062219],[135.705436,35.061744],[135.706778,35.062135],[135.708344,35.060692],[135.708889,35.060417],[135.710598,35.061168],[135.7107,35.059434],[135.709953,35.05708],[135.709039,35.055854],[135.708814,35.055111],[135.709051,35.053144],[135.710019,35.053056],[135.710696,35.05261],[135.71176,35.052504],[135.712769,35.053554],[135.713563,35.053414],[135.714045,35.051931],[135.714329,35.049751],[135.713818,35.048275],[135.713986,35.047402],[135.712408,35.04421],[135.711377,35.043884],[135.710843,35.042147],[135.711024,35.041894],[135.712609,35.041894],[135.7136,35.042125],[135.714367,35.041831],[135.715193,35.039541],[135.716801,35.039501],[135.716967,35.038531],[135.718378,35.0376],[135.71918,35.037294],[135.719651,35.036438],[135.721117,35.036244],[135.722219,35.035907],[135.721601,35.033338],[135.722188,35.032644],[135.722152,35.028923],[135.722261,35.02768],[135.723053,35.027645],[135.723276,35.026642],[135.723011,35.026048],[135.724624,35.026087],[135.724634,35.023933],[135.725351,35.023762],[135.725361,35.022515],[135.726813,35.022544],[135.729326,35.022476],[135.731943,35.022631],[135.733137,35.022427]]]]}},
  {"type":"Feature","properties":{"name":"上京区","code":"26102"},"geometry":{"type":"MultiPolygon","coordinates":[[[[135.733137,35.022427],[135.73295,35.021031],[135.733278,35.019709],[135.735655,35.019693],[135.735653,35.018799],[135.736562,35.018806],[135.736622,35.019896],[135.738924,35.020066],[135.741107,35.019999],[135.741107,35.01936],[135.742015,35.018853],[135.742838,35.017975],[135.742844,35.015074],[135.745321,35.014914],[135.745403,35.01613],[135.751551,35.016],[135.752304,35.016623],[135.75233,35.017797],[135.753076,35.01761],[135.755342,35.017593],[135.755313,35.017972],[135.756741,35.018108],[135.756734,35.017606],[135.766979,35.017675],[135.768349,35.01671],[135.771628,35.016692],[135.771545,35.022227],[135.771697,35.02689],[135.771532,35.029195],[135.771064,35.030622],[135.769812,35.032633],[135.768799,35.032246],[135.766759,35.034868],[135.765753,35.035466],[135.765223,35.036353],[135.764289,35.037446],[135.763098,35.037086],[135.761161,35.037059],[135.761161,35.037572],[135.758936,35.037408],[135.757856,35.037645],[135.757397,35.037331],[135.755291,35.037282],[135.752156,35.037564],[135.751481,35.038273],[135.750374,35.038234],[135.749227,35.039188],[135.747696,35.039032],[135.74763,35.036927],[135.747044,35.035459],[135.743111,35.035607],[135.741157,35.035519],[135.741135,35.036113],[135.739814,35.035906],[135.739749,35.034785],[135.740009,35.033806],[135.738017,35.033856],[135.738,35.03272],[135.737431,35.032723],[135.736369,35.034031],[135.735634,35.034602],[135.734599,35.031961],[135.733409,35.028018],[135.732936,35.027033],[135.73308,35.026049],[135.733024,35.023689],[135.733137,35.022427]]]]}},
  {"type":"Feature","properties":{"name":"左京区","code":"26103"},"geometry":{"type":"MultiPolygon","coordinates":[[[[135.769812,35.032633],[135.771064,35.030622],[135.771532,35.029195],[135.771697,35.02689],[135.771545,35.022227],[135.771628,35.016692],[135.771793,35.009591],[135.774042,35.009671],[135.775439,35.009591],[135.778821,35.009903],[135.778909,35.010309],[135.780673,35.01023],[135.781308,35.010556],[135.784478,35.010854],[135.784698,35.00973],[135.786175,35.009763],[135.78704,35.01],[135.788593,35.010057],[135.789075,35.009519],[135.790618,35.009466],[135.791123,35.009153],[135.790537,35.00857],[135.790706,35.007728],[135.790976,35.007098],[135.791804,35.007053],[135.793717,35.006512],[135.794651,35.006424],[135.795128,35.007173],[135.795711,35.00742],[135.797029,35.006719],[135.797831,35.006647],[135.800728,35.007601],[135.801857,35.008561],[135.802078,35.009475],[135.80298,35.009604],[135.803576,35.010209],[135.803739,35.010889],[135.80315,35.012148],[135.803508,35.013315],[135.804284,35.013789],[135.804587,35.014621],[135.805345,35.014981],[135.806838,35.015244],[135.807264,35.015502],[135.808803,35.015606],[135.809316,35.016528],[135.810689,35.016605],[135.811002,35.015575],[135.812389,35.015507],[135.813022,35.015265],[135.815149,35.015207],[135.81601,35.014827],[135.816583,35.012918],[135.817328,35.013401],[135.818258,35.013307],[135.819074,35.012886],[135.820239,35.012962],[135.820458,35.014529],[135.820949,35.014716],[135.82127,35.013813],[135.822119,35.013464],[135.823089,35.013499],[135.824388,35.013136],[135.824946,35.012351],[135.82792,35.012179],[135.828414,35.011894],[135.831701,35.011709],[135.833477,35.012001],[135.834343,35.012421],[135.835464,35.012329],[135.83595,35.014447],[135.835699,35.016032],[135.834746,35.017392],[135.835157,35.01838],[135.834883,35.019079],[135.834936,35.019939],[135.83458,35.020643],[135.834518,35.022081],[135.833724,35.022242],[135.832724,35.021655],[135.830046,35.021418],[135.829154,35.021702],[135.828746,35.022165],[135.827374,35.022133],[135.826421,35.023614],[135.826773,35.024685],[135.826634,35.025617],[135.827469,35.025942],[135.827575,35.027327],[135.828112,35.028381],[135.82806,35.029517],[135.827497,35.030656],[135.82661,35.030999],[135.825598,35.031956],[135.825708,35.032876],[135.825489,35.033464],[135.824827,35.03404],[135.824617,35.035638],[135.824028,35.036095],[135.823231,35.035839],[135.821704,35.036054],[135.819223,35.038814],[135.817204,35.039933],[135.815633,35.041418],[135.815417,35.042151],[135.816187,35.043601],[135.814783,35.044829],[135.815355,35.046368],[135.815901,35.047369],[135.816919,35.048171],[135.817441,35.048216],[135.819111,35.049219],[135.821101,35.049409],[135.821568,35.049816],[135.82204,35.050872],[135.823121,35.050999],[135.824303,35.051979],[135.825343,35.052428],[135.825849,35.053426],[135.826983,35.053853],[135.828138,35.053404],[135.83052,35.052993],[135.831556,35.052592],[135.833288,35.053014],[135.833379,35.054176],[135.834376,35.055283],[135.834853,35.055554],[135.834804,35.056576],[135.835203,35.057811],[135.835915,35.058966],[135.836031,35.059907],[135.835729,35.061765],[135.835847,35.06233],[135.834671,35.065026],[135.834251,35.066779],[135.834418,35.067752],[135.833485,35.069212],[135.832825,35.069944],[135.832699,35.070724],[135.831892,35.071456],[135.834093,35.074994],[135.834219,35.076074],[135.835246,35.077143],[135.836325,35.077522],[135.836591,35.078935],[135.838318,35.079079],[135.838106,35.080039],[135.838308,35.082289],[135.839196,35.085014],[135.83984,35.086137],[135.838913,35.088119],[135.83749,35.089651],[135.836462,35.090461],[135.835308,35.090912],[135.835046,35.091327],[135.835854,35.092329],[135.836675,35.092853],[135.837525,35.094486],[135.837323,35.095889],[135.837895,35.097444],[135.838703,35.098246],[135.838798,35.098973],[135.839815,35.100258],[135.841312,35.100738],[135.841433,35.101243],[135.842587,35.101972],[135.842938,35.102515],[135.843016,35.103805],[135.843461,35.104553],[135.842942,35.105718],[135.843584,35.106899],[135.843644,35.108241],[135.843263,35.109903],[135.843678,35.110745],[135.84444,35.111646],[135.844694,35.112393],[135.844386,35.113495],[135.844955,35.114325],[135.846668,35.113858],[135.847351,35.11426],[135.847665,35.115541],[135.848119,35.1189],[135.848808,35.1194],[135.849177,35.120165],[135.849813,35.12054],[135.849478,35.122003],[135.85018,35.123296],[135.850073,35.123801],[135.849325,35.124757],[135.849606,35.126939],[135.850729,35.128029],[135.85101,35.128705],[135.850696,35.129322],[135.85117,35.130658],[135.851879,35.131324],[135.852241,35.133238],[135.852294,35.134267],[135.851673,35.134723],[135.850174,35.135225],[135.849799,35.136863],[135.850595,35.138063],[135.849469,35.138956],[135.8497,35.140531],[135.84871,35.141852],[135.848819,35.142345],[135.850034,35.143266],[135.850646,35.144519],[135.852047,35.145529],[135.852614,35.14618],[135.852318,35.147231],[135.852839,35.147707],[135.852672,35.148702],[135.853611,35.149986],[135.853386,35.150646],[135.853791,35.15179],[135.854563,35.152731],[135.856763,35.153615],[135.856403,35.1549],[135.856854,35.15684],[135.856334,35.157584],[135.85607,35.158521],[135.856153,35.159437],[135.854519,35.16004],[135.850282,35.160336],[135.848371,35.161328],[135.846813,35.162387],[135.846516,35.164152],[135.845391,35.165358],[135.845731,35.166687],[135.844097,35.168876],[135.844165,35.169874],[135.843808,35.170464],[135.84399,35.171709],[135.843838,35.172267],[135.842363,35.173908],[135.842545,35.17486],[135.843169,35.176555],[135.842661,35.177658],[135.843349,35.178634],[135.843136,35.178889],[135.841375,35.179427],[135.84063,35.180066],[135.84063,35.181161],[135.840246,35.18223],[135.841015,35.184014],[135.840794,35.185924],[135.841368,35.187068],[135.842269,35.18758],[135.841908,35.18984],[135.841466,35.190525],[135.839821,35.191439],[135.83896,35.193276],[135.838821,35.194016],[135.837437,35.196034],[135.837134,35.197164],[135.837199,35.198033],[135.836969,35.19976],[135.836002,35.200535],[135.835241,35.20221],[135.835994,35.203293],[135.835412,35.205264],[135.835494,35.206697],[135.833585,35.209046],[135.831087,35.210417],[135.832478,35.214279],[135.830791,35.214865],[135.829816,35.21613],[135.830094,35.217474],[135.830749,35.218226],[135.830479,35.219002],[135.829382,35.219997],[135.829324,35.220481],[135.830151,35.222074],[135.830864,35.222761],[135.832183,35.222876],[135.832984,35.223662],[135.834648,35.224],[135.837352,35.225957],[135.838032,35.226253],[135.837622,35.227107],[135.837729,35.228929],[135.837516,35.230362],[135.836967,35.231548],[135.837081,35.232764],[135.837491,35.233732],[135.837303,35.234184],[135.837925,35.23528],[135.837532,35.237547],[135.836558,35.239054],[135.835223,35.23964],[135.834551,35.240817],[135.834763,35.241254],[135.836344,35.241126],[135.83708,35.241395],[135.83899,35.2434],[135.839924,35.243851],[135.83967,35.245229],[135.840153,35.247933],[135.840833,35.248728],[135.842741,35.249507],[135.842815,35.250093],[135.843994,35.251727],[135.842644,35.252789],[135.84236,35.253199],[135.843506,35.255491],[135.844615,35.256024],[135.845223,35.256653],[135.846089,35.257112],[135.84603,35.258424],[135.844667,35.261308],[135.844874,35.262338],[135.846148,35.263636],[135.846355,35.264637],[135.847535,35.266665],[135.848514,35.267343],[135.849896,35.267784],[135.850709,35.268373],[135.852479,35.268959],[135.8533,35.270261],[135.854762,35.271272],[135.855051,35.272153],[135.854532,35.275328],[135.855642,35.276571],[135.857642,35.277714],[135.858492,35.278373],[135.858595,35.281144],[135.859188,35.282019],[135.860755,35.28296],[135.860054,35.283515],[135.85977,35.285254],[135.859499,35.285959],[135.858537,35.287097],[135.858431,35.289229],[135.857084,35.289041],[135.855073,35.288338],[135.854265,35.287677],[135.85371,35.286868],[135.851681,35.285968],[135.851097,35.283563],[135.850324,35.282566],[135.849616,35.280282],[135.849203,35.279694],[135.847926,35.279096],[135.846577,35.279245],[135.846076,35.278709],[135.845019,35.278356],[135.841783,35.278124],[135.84077,35.277702],[135.840348,35.277145],[135.840376,35.275873],[135.840082,35.275554],[135.838519,35.275688],[135.837552,35.274722],[135.834609,35.274079],[135.834024,35.274288],[135.832555,35.275256],[135.831817,35.275948],[135.830743,35.276504],[135.829623,35.276735],[135.828543,35.278091],[135.828325,35.27869],[135.827169,35.280321],[135.825334,35.281697],[135.825535,35.283512],[135.825186,35.28476],[135.824284,35.28547],[135.823492,35.28673],[135.822489,35.287828],[135.821864,35.288893],[135.82055,35.290096],[135.820053,35.29107],[135.820413,35.29155],[135.820224,35.292333],[135.820625,35.293592],[135.82049,35.294273],[135.821315,35.294681],[135.821403,35.296835],[135.82122,35.297265],[135.820134,35.298324],[135.819679,35.299307],[135.81841,35.299835],[135.816624,35.299956],[135.816153,35.300169],[135.814968,35.301258],[135.815522,35.301849],[135.815769,35.303116],[135.815085,35.305497],[135.814364,35.307112],[135.812913,35.307509],[135.810672,35.308317],[135.810159,35.309184],[135.811274,35.310069],[135.811433,35.311918],[135.81119,35.312634],[135.811249,35.31353],[135.810512,35.314332],[135.810175,35.315121],[135.80925,35.315266],[135.80929,35.316433],[135.808782,35.316878],[135.807024,35.317072],[135.805863,35.316816],[135.803644,35.317251],[135.801023,35.318713],[135.798316,35.31968],[135.797059,35.320624],[135.79519,35.321239],[135.79403,35.320769],[135.793959,35.320405],[135.794607,35.318919],[135.794267,35.318131],[135.793211,35.317331],[135.791914,35.315573],[135.790968,35.31496],[135.789837,35.313704],[135.789969,35.312049],[135.789654,35.310897],[135.788732,35.309759],[135.787693,35.307973],[135.785815,35.307393],[135.785068,35.307468],[135.78393,35.307196],[135.782848,35.307236],[135.781893,35.30528],[135.780581,35.305464],[135.779143,35.305055],[135.777483,35.305116],[135.777397,35.304216],[135.777638,35.302764],[135.778386,35.301777],[135.777995,35.300776],[135.778203,35.299726],[135.777804,35.298696],[135.778385,35.297456],[135.777546,35.296603],[135.777862,35.295621],[135.777679,35.29449],[135.77792,35.294007],[135.778925,35.293467],[135.780571,35.293038],[135.781476,35.291096],[135.781455,35.290036],[135.780184,35.288909],[135.779958,35.287513],[135.779051,35.287389],[135.778137,35.286897],[135.777473,35.286835],[135.776766,35.286011],[135.776619,35.284991],[135.775927,35.28492],[135.774756,35.284085],[135.774242,35.284173],[135.774057,35.285224],[135.773226,35.286158],[135.771958,35.287044],[135.771954,35.287966],[135.770759,35.288795],[135.76918,35.28949],[135.767484,35.289818],[135.766096,35.28954],[135.764832,35.288393],[135.763541,35.288219],[135.762789,35.287824],[135.760853,35.28826],[135.759575,35.288056],[135.757996,35.288137],[135.757147,35.288389],[135.7564,35.287756],[135.754047,35.287394],[135.750787,35.287563],[135.749248,35.287381],[135.74833,35.286671],[135.745608,35.286655],[135.744555,35.286754],[135.743711,35.286401],[135.741814,35.287231],[135.740426,35.28693],[135.738281,35.287017],[135.737723,35.287371],[135.736056,35.287731],[135.734951,35.287576],[135.73379,35.286995],[135.733485,35.286283],[135.733551,35.285441],[135.733023,35.284995],[135.731816,35.284769],[135.730332,35.284711],[135.729386,35.28423],[135.729202,35.283586],[135.729954,35.281428],[135.729992,35.280601],[135.729694,35.279957],[135.729827,35.279124],[135.730544,35.27888],[135.731507,35.277946],[135.729924,35.27597],[135.729282,35.27556],[135.728863,35.274698],[135.727861,35.273772],[135.726989,35.273539],[135.725666,35.271709],[135.725799,35.270997],[135.72681,35.269984],[135.727349,35.267766],[135.727917,35.267595],[135.73049,35.265978],[135.732239,35.266134],[135.732328,35.26487],[135.732038,35.263272],[135.731254,35.261513],[135.731086,35.260303],[135.731345,35.259739],[135.731031,35.258268],[135.731692,35.257162],[135.731817,35.256516],[135.732971,35.255334],[135.732733,35.254866],[135.731871,35.254515],[135.731012,35.253589],[135.730051,35.252934],[135.729922,35.252443],[135.728655,35.251126],[135.728178,35.250195],[135.728526,35.249724],[135.730136,35.248938],[135.731439,35.248464],[135.733148,35.245714],[135.733756,35.245309],[135.735289,35.244878],[135.737024,35.245134],[135.738287,35.244772],[135.739841,35.243168],[135.742193,35.243126],[135.744166,35.243794],[135.744528,35.243784],[135.746014,35.244741],[135.747942,35.244868],[135.748301,35.244469],[135.749873,35.24399],[135.750897,35.244039],[135.752046,35.245365],[135.753754,35.245361],[135.754679,35.244916],[135.755004,35.244403],[135.755862,35.241862],[135.756723,35.240698],[135.757603,35.238898],[135.758288,35.237129],[135.759328,35.236038],[135.759598,35.234895],[135.760385,35.234783],[135.761196,35.233173],[135.761086,35.231127],[135.761533,35.229654],[135.760748,35.228383],[135.7609,35.227606],[135.760655,35.226594],[135.761424,35.225323],[135.762388,35.224788],[135.762708,35.223273],[135.763122,35.222213],[135.763198,35.220923],[135.762581,35.219764],[135.762024,35.218141],[135.761939,35.217333],[135.762573,35.21635],[135.762556,35.214995],[135.761438,35.214322],[135.759918,35.213719],[135.759428,35.212753],[135.758558,35.212455],[135.757307,35.21074],[135.756444,35.208804],[135.755235,35.208443],[135.754204,35.207409],[135.754052,35.206095],[135.753309,35.204772],[135.753512,35.202413],[135.755041,35.201171],[135.756648,35.196026],[135.757585,35.195673],[135.758525,35.194549],[135.760376,35.193368],[135.761617,35.192211],[135.764078,35.191487],[135.764559,35.190481],[135.76456,35.189758],[135.765227,35.18874],[135.766091,35.188885],[135.767688,35.188349],[135.768558,35.187184],[135.769419,35.186921],[135.769614,35.185065],[135.769512,35.183615],[135.772589,35.181535],[135.774195,35.181354],[135.773907,35.180117],[135.775233,35.178792],[135.775048,35.177979],[135.775183,35.176981],[135.773806,35.176385],[135.772815,35.175563],[135.7729,35.174426],[135.771811,35.173747],[135.77082,35.17279],[135.77093,35.171961],[135.770263,35.170839],[135.770505,35.169407],[135.769991,35.168803],[135.77017,35.167392],[135.769968,35.166374],[135.770656,35.165347],[135.770632,35.16323],[135.770811,35.162215],[135.771444,35.161327],[135.77177,35.159875],[135.772764,35.159465],[135.772911,35.158083],[135.773203,35.157151],[135.772477,35.156383],[135.772273,35.155482],[135.771449,35.154751],[135.770939,35.153866],[135.76974,35.15385],[135.769141,35.153417],[135.768594,35.152241],[135.76717,35.151133],[135.766004,35.150901],[135.765646,35.151291],[135.764439,35.151799],[135.763883,35.150934],[135.762053,35.151329],[135.761434,35.150493],[135.760788,35.15083],[135.759815,35.150459],[135.758991,35.150501],[135.758462,35.149512],[135.755289,35.147732],[135.754112,35.147796],[135.753757,35.147057],[135.753169,35.146931],[135.750973,35.148203],[135.751126,35.149181],[135.750208,35.149448],[135.748173,35.149638],[135.747476,35.14995],[135.745252,35.149841],[135.744655,35.150097],[135.743679,35.14972],[135.743511,35.14923],[135.742617,35.148588],[135.742477,35.147192],[135.743739,35.146424],[135.744584,35.145089],[135.744976,35.143798],[135.744869,35.141824],[135.744347,35.140633],[135.745564,35.139993],[135.744948,35.13815],[135.744701,35.137894],[135.743015,35.137605],[135.740998,35.135706],[135.738962,35.134826],[135.738734,35.134556],[135.738906,35.133296],[135.738146,35.131854],[135.738894,35.129706],[135.739768,35.128226],[135.74012,35.126768],[135.740922,35.12539],[135.740999,35.124686],[135.741748,35.124116],[135.741718,35.123404],[135.740988,35.123214],[135.740784,35.122301],[135.740334,35.121857],[135.741149,35.120177],[135.741968,35.119847],[135.742046,35.119301],[135.741636,35.11789],[135.741249,35.117287],[135.741066,35.116258],[135.741137,35.115258],[135.741564,35.114399],[135.74158,35.112118],[135.741398,35.110384],[135.741601,35.108957],[135.742409,35.106756],[135.742439,35.105293],[135.741952,35.104148],[135.742154,35.102982],[135.742475,35.102384],[135.742295,35.101433],[135.742822,35.100724],[135.741675,35.099132],[135.74311,35.097841],[135.742671,35.096973],[135.743463,35.096286],[135.744813,35.096071],[135.747164,35.095988],[135.748123,35.095451],[135.746023,35.092928],[135.743507,35.091464],[135.743235,35.091172],[135.740578,35.091938],[135.74015,35.091484],[135.738762,35.090814],[135.740117,35.089551],[135.741075,35.089162],[135.740334,35.088619],[135.739994,35.087998],[135.740359,35.087087],[135.741305,35.086612],[135.741583,35.085403],[135.742345,35.086253],[135.743114,35.086321],[135.744387,35.085921],[135.745308,35.086306],[135.746843,35.086476],[135.747479,35.087014],[135.748156,35.088128],[135.750626,35.087392],[135.751789,35.086816],[135.754195,35.086331],[135.755154,35.085776],[135.757854,35.085485],[135.758174,35.08519],[135.756909,35.084215],[135.755772,35.083092],[135.757208,35.083456],[135.758,35.083945],[135.759798,35.084012],[135.760434,35.083104],[135.759897,35.082678],[135.760153,35.081972],[135.759142,35.08126],[135.758472,35.08016],[135.757188,35.080076],[135.756383,35.079056],[135.75566,35.078921],[135.755822,35.078346],[135.754896,35.078158],[135.754106,35.077334],[135.753184,35.077388],[135.752635,35.076892],[135.754116,35.076596],[135.756075,35.076698],[135.756167,35.077336],[135.757448,35.078063],[135.758124,35.078232],[135.759134,35.079401],[135.759835,35.080871],[135.761234,35.081871],[135.761998,35.08182],[135.762249,35.080413],[135.762955,35.080438],[135.763147,35.079817],[135.763111,35.077799],[135.764198,35.077538],[135.764788,35.077645],[135.765299,35.075747],[135.764156,35.075669],[135.763229,35.075314],[135.761115,35.075292],[135.761208,35.074643],[135.760305,35.074541],[135.759286,35.074963],[135.758776,35.074525],[135.760177,35.073463],[135.762168,35.073996],[135.763621,35.074884],[135.764428,35.074951],[135.764798,35.073929],[135.765811,35.073395],[135.765705,35.073101],[135.764448,35.072531],[135.764088,35.071872],[135.764219,35.071216],[135.76571,35.072187],[135.765936,35.072007],[135.764885,35.070879],[135.766124,35.071047],[135.766364,35.07168],[135.76705,35.072075],[135.768101,35.071896],[135.768335,35.071034],[135.767615,35.069959],[135.764644,35.069054],[135.76462,35.068501],[135.766389,35.068378],[135.768471,35.068785],[135.769142,35.067765],[135.769034,35.066596],[135.767474,35.065367],[135.766928,35.06416],[135.765749,35.063458],[135.765666,35.062968],[135.766003,35.061719],[135.766504,35.06127],[135.767583,35.062476],[135.768615,35.062421],[135.77065,35.062044],[135.771831,35.062051],[135.772153,35.061737],[135.77142,35.061006],[135.7715,35.060073],[135.77228,35.059642],[135.772473,35.059139],[135.771442,35.058514],[135.772394,35.05803],[135.772275,35.057324],[135.770166,35.057623],[135.769248,35.057516],[135.768675,35.056975],[135.769272,35.055744],[135.768807,35.054833],[135.767415,35.054589],[135.767542,35.051208],[135.766016,35.051111],[135.759782,35.05048],[135.758365,35.050107],[135.762959,35.043496],[135.76555,35.039605],[135.769812,35.032633]]]]}},
  {"type":"Feature","properties":{"name":"中京区","code":"26104"},"geometry":{"type":"MultiPolygon","coordinates":[[[[135.726813,35.022544],[135.726824,35.02121],[135.725387,35.021187],[135.7255,35.018984],[135.725416,35.016079],[135.724033,35.016043],[135.724037,35.009548],[135.72409,35.008534],[135.726881,35.008513],[135.726918,35.008125],[135.732879,35.008273],[135.732794,35.00523],[135.732881,35.000558],[135.732891,34.996403],[135.736057,34.996433],[135.7361,34.998521],[135.739487,34.998572],[135.739498,34.998022],[135.740699,34.99802],[135.740709,34.998587],[135.745236,34.998628],[135.748282,34.998598],[135.748402,35.000178],[135.748001,35.000971],[135.746279,35.001351],[135.746301,35.002305],[135.747164,35.0023],[135.747799,35.002602],[135.748001,35.003806],[135.749944,35.004104],[135.752438,35.003872],[135.754506,35.003944],[135.755281,35.0041],[135.758997,35.004128],[135.760741,35.004233],[135.760778,35.003945],[135.771569,35.004001],[135.771826,35.005845],[135.771793,35.009591],[135.771628,35.016692],[135.768349,35.01671],[135.766979,35.017675],[135.756734,35.017606],[135.756741,35.018108],[135.755313,35.017972],[135.755342,35.017593],[135.753076,35.01761],[135.75233,35.017797],[135.752304,35.016623],[135.751551,35.016],[135.745403,35.01613],[135.745321,35.014914],[135.742844,35.015074],[135.742838,35.017975],[135.742015,35.018853],[135.741107,35.01936],[135.741107,35.019999],[135.738924,35.020066],[135.736622,35.019896],[135.736562,35.018806],[135.735653,35.018799],[135.735655,35.019693],[135.733278,35.019709],[135.73295,35.021031],[135.733137,35.022427],[135.731943,35.022631],[135.729326,35.022476],[135.726813,35.022544]]]]}},
  {"type":"Feature","properties":{"name":"東山区","code":"26105"},"geometry":{"type":"MultiPolygon","coordinates":[[[[135.771793,35.009591],[135.771826,35.005845],[135.771569,35.004001],[135.771518,35.003635],[135.768675,34.997668],[135.768044,34.996231],[135.76758,34.994461],[135.767284,34.992759],[135.767117,34.990661],[135.76722,34.988439],[135.767878,34.985902],[135.768134,34.983565],[135.767804,34.981895],[135.767505,34.980621],[135.767537,34.979473],[135.767835,34.977574],[135.767292,34.976123],[135.764644,34.972991],[135.770393,34.972917],[135.770457,34.969955],[135.771572,34.969955],[135.771618,34.970721],[135.771194,34.971221],[135.771287,34.973753],[135.773484,34.973844],[135.77353,34.972683],[135.774295,34.972456],[135.774388,34.973791],[135.776074,34.97373],[135.776903,34.973905],[135.776774,34.974398],[135.77579,34.974657],[135.775448,34.976118],[135.774988,34.976186],[135.775043,34.97718],[135.775817,34.976983],[135.776518,34.976444],[135.777476,34.976239],[135.778093,34.975503],[135.781093,34.974096],[135.783086,34.972432],[135.783879,34.972303],[135.784432,34.971279],[135.78521,34.971383],[135.786924,34.97114],[135.787831,34.97165],[135.787385,34.972176],[135.787209,34.973287],[135.786609,34.973979],[135.788125,34.976446],[135.788213,34.977208],[135.786903,34.978118],[135.786697,34.978742],[135.787099,34.979133],[135.78838,34.979507],[135.788676,34.979972],[135.787657,34.980236],[135.788214,34.981093],[135.787698,34.981452],[135.789209,34.982476],[135.788966,34.983172],[135.787271,34.984995],[135.788711,34.986801],[135.78928,34.987738],[135.789099,34.988234],[135.789304,34.989666],[135.789904,34.989733],[135.790549,34.990652],[135.790526,34.992233],[135.790059,34.993161],[135.790066,34.994588],[135.789433,34.995541],[135.790548,34.995944],[135.791137,34.996782],[135.790865,34.998101],[135.790112,34.998622],[135.789404,34.999472],[135.789267,35.000363],[135.788235,35.000859],[135.787386,35.004382],[135.786748,35.005624],[135.786954,35.006695],[135.787596,35.007291],[135.789663,35.007755],[135.790706,35.007728],[135.790537,35.00857],[135.791123,35.009153],[135.790618,35.009466],[135.789075,35.009519],[135.788593,35.010057],[135.78704,35.01],[135.786175,35.009763],[135.784698,35.00973],[135.784478,35.010854],[135.781308,35.010556],[135.780673,35.01023],[135.778909,35.010309],[135.778821,35.009903],[135.775439,35.009591],[135.774042,35.009671],[135.771793,35.009591]]]]}},
  {"type":"Feature","properties":{"name":"下京区","code":"26106"},"geometry":{"type":"MultiPolygon","coordinates":[[[[135.732891,34.996403],[135.732961,34.994002],[135.731407,34.993818],[135.729053,34.993794],[135.729067,34.989225],[135.727372,34.989058],[135.727291,34.985768],[135.728457,34.985798],[135.728493,34.984271],[135.730504,34.984253],[135.730504,34.983191],[135.732888,34.983197],[135.733185,34.983042],[135.734311,34.981467],[135.737166,34.982499],[135.744204,34.98445],[135.745769,34.984987],[135.747165,34.985056],[135.750202,34.984967],[135.753156,34.985072],[135.753974,34.985263],[135.755914,34.984935],[135.757892,34.984262],[135.761781,34.984173],[135.764764,34.984184],[135.766809,34.983921],[135.766883,34.981891],[135.767804,34.981895],[135.768134,34.983565],[135.767878,34.985902],[135.76722,34.988439],[135.767117,34.990661],[135.767284,34.992759],[135.76758,34.994461],[135.768044,34.996231],[135.768675,34.997668],[135.771518,35.003635],[135.771569,35.004001],[135.760778,35.003945],[135.760741,35.004233],[135.758997,35.004128],[135.755281,35.0041],[135.754506,35.003944],[135.752438,35.003872],[135.749944,35.004104],[135.748001,35.003806],[135.747799,35.002602],[135.747164,35.0023],[135.746301,35.002305],[135.746279,35.001351],[135.748001,35.000971],[135.748402,35.000178],[135.748282,34.998598],[135.745236,34.998628],[135.740709,34.998587],[135.740699,34.99802],[135.739498,34.998022],[135.739487,34.998572],[135.7361,34.998521],[135.736057,34.996433],[135.732891,34.996403]]]]}},
  {"type":"Feature","properties":{"name":"南区","code":"26107"},"geometry":{"type":"MultiPolygon","coordinates":[[[[135.767804,34.981895],[135.766883,34.981891],[135.766809,34.983921],[135.764764,34.984184],[135.761781,34.984173],[135.757892,34.984262],[135.755914,34.984935],[135.753974,34.985263],[135.753156,34.985072],[135.750202,34.984967],[135.747165,34.985056],[135.745769,34.984987],[135.744204,34.98445],[135.737166,34.982499],[135.734311,34.981467],[135.733185,34.983042],[135.732888,34.983197],[135.730504,34.983191],[135.730504,34.984253],[135.728493,34.984271],[135.728457,34.985798],[135.727291,34.985768],[135.727269,34.985601],[135.723089,34.98578],[135.72164,34.98538],[135.721618,34.984521],[135.720133,34.984509],[135.720031,34.983996],[135.718561,34.98402],[135.718644,34.982994],[135.71768,34.982845],[135.7179,34.981874],[135.716089,34.981618],[135.715361,34.980049],[135.71652,34.978695],[135.720892,34.974723],[135.721921,34.973267],[135.722098,34.971961],[135.721975,34.971048],[135.722029,34.968668],[135.718523,34.968627],[135.714611,34.968662],[135.710926,34.968585],[135.704931,34.968549],[135.705123,34.963454],[135.706194,34.963454],[135.706231,34.962541],[135.70998,34.962523],[135.709679,34.957048],[135.709559,34.955724],[135.710994,34.955449],[135.711001,34.953892],[135.711997,34.953803],[135.71207,34.95255],[135.713381,34.952467],[135.713403,34.951775],[135.715449,34.951745],[135.715573,34.950624],[135.717442,34.950576],[135.717438,34.949723],[135.717039,34.948697],[135.717105,34.944838],[135.718351,34.944802],[135.718333,34.942119],[135.719434,34.942915],[135.724871,34.943034],[135.724842,34.944632],[135.723314,34.94632],[135.723481,34.947424],[135.722531,34.948623],[135.724046,34.948652],[135.724035,34.949553],[135.727596,34.949541],[135.727813,34.950502],[135.72919,34.950555],[135.72953,34.950919],[135.730537,34.950311],[135.732722,34.951331],[135.735159,34.947662],[135.736735,34.944924],[135.737116,34.943619],[135.737329,34.941793],[135.739742,34.942223],[135.740256,34.942772],[135.740321,34.94366],[135.741477,34.943893],[135.740416,34.946231],[135.741122,34.948551],[135.742086,34.950037],[135.742314,34.950949],[135.742347,34.952882],[135.742593,34.953442],[135.743303,34.953431],[135.745781,34.954277],[135.745821,34.955315],[135.747165,34.955752],[135.748477,34.956836],[135.749191,34.958294],[135.750472,34.959325],[135.751916,34.961065],[135.752072,34.967325],[135.752796,34.967199],[135.759654,34.96708],[135.764644,34.972991],[135.767292,34.976123],[135.767835,34.977574],[135.767537,34.979473],[135.767505,34.980621],[135.767804,34.981895]]]]}},
  {"type":"Feature","properties":{"name":"右京区","code":"26108"},"geometry":{"type":"MultiPolygon","coordinates":[[[[135.744655,35.150097],[135.745252,35.149841],[135.747476,35.14995],[135.748173,35.149638],[135.750208,35.149448],[135.751126,35.149181],[135.750973,35.148203],[135.753169,35.146931],[135.753757,35.147057],[135.754112,35.147796],[135.755289,35.147732],[135.758462,35.149512],[135.758991,35.150501],[135.759815,35.150459],[135.760788,35.15083],[135.761434,35.150493],[135.762053,35.151329],[135.763883,35.150934],[135.764439,35.151799],[135.765646,35.151291],[135.766004,35.150901],[135.76717,35.151133],[135.768594,35.152241],[135.769141,35.153417],[135.76974,35.15385],[135.770939,35.153866],[135.771449,35.154751],[135.772273,35.155482],[135.772477,35.156383],[135.773203,35.157151],[135.772911,35.158083],[135.772764,35.159465],[135.77177,35.159875],[135.771444,35.161327],[135.770811,35.162215],[135.770632,35.16323],[135.770656,35.165347],[135.769968,35.166374],[135.77017,35.167392],[135.769991,35.168803],[135.770505,35.169407],[135.770263,35.170839],[135.77093,35.171961],[135.77082,35.17279],[135.771811,35.173747],[135.7729,35.174426],[135.772815,35.175563],[135.773806,35.176385],[135.775183,35.176981],[135.775048,35.177979],[135.775233,35.178792],[135.773907,35.180117],[135.774195,35.181354],[135.772589,35.181535],[135.769512,35.183615],[135.769614,35.185065],[135.769419,35.186921],[135.768558,35.187184],[135.767688,35.188349],[135.766091,35.188885],[135.765227,35.18874],[135.76456,35.189758],[135.764559,35.190481],[135.764078,35.191487],[135.761617,35.192211],[135.760376,35.193368],[135.758525,35.194549],[135.757585,35.195673],[135.756648,35.196026],[135.755041,35.201171],[135.753512,35.202413],[135.753309,35.204772],[135.754052,35.206095],[135.754204,35.207409],[135.755235,35.208443],[135.756444,35.208804],[135.757307,35.21074],[135.758558,35.212455],[135.759428,35.212753],[135.759918,35.213719],[135.761438,35.214322],[135.762556,35.214995],[135.762573,35.21635],[135.761939,35.217333],[135.762024,35.218141],[135.762581,35.219764],[135.763198,35.220923],[135.763122,35.222213],[135.762708,35.223273],[135.762388,35.224788],[135.761424,35.225323],[135.760655,35.226594],[135.7609,35.227606],[135.760748,35.228383],[135.761533,35.229654],[135.761086,35.231127],[135.761196,35.233173],[135.760385,35.234783],[135.759598,35.234895],[135.759328,35.236038],[135.758288,35.237129],[135.757603,35.238898],[135.756723,35.240698],[135.755862,35.241862],[135.755004,35.244403],[135.754679,35.244916],[135.753754,35.245361],[135.752046,35.245365],[135.750897,35.244039],[135.749873,35.24399],[135.748301,35.244469],[135.747942,35.244868],[135.746014,35.244741],[135.744528,35.243784],[135.744166,35.243794],[135.742193,35.243126],[135.739841,35.243168],[135.738287,35.244772],[135.737024,35.245134],[135.735289,35.244878],[135.733756,35.245309],[135.733148,35.245714],[135.731439,35.248464],[135.730136,35.248938],[135.728526,35.249724],[135.728178,35.250195],[135.728655,35.251126],[135.729922,35.252443],[135.730051,35.252934],[135.731012,35.253589],[135.731871,35.254515],[135.732733,35.254866],[135.732971,35.255334],[135.731817,35.256516],[135.731692,35.257162],[135.731031,35.258268],[135.731345,35.259739],[135.731086,35.260303],[135.731254,35.261513],[135.732038,35.263272],[135.732328,35.26487],[135.732239,35.266134],[135.73049,35.265978],[135.727917,35.267595],[135.727349,35.267766],[135.726297,35.266102],[135.725039,35.265582],[135.72347,35.265561],[135.722093,35.265877],[135.721112,35.265477],[135.719688,35.265179],[135.717573,35.265325],[135.716857,35.264607],[135.716344,35.264501],[135.714963,35.262958],[135.714116,35.26292],[135.713467,35.261892],[135.712931,35.261908],[135.71201,35.261035],[135.710542,35.260737],[135.708995,35.260685],[135.707221,35.261375],[135.705897,35.259479],[135.703609,35.257472],[135.702048,35.257053],[135.70021,35.257418],[135.699248,35.257933],[135.69766,35.257216],[135.695888,35.257249],[135.693222,35.255865],[135.691822,35.255798],[135.690643,35.256246],[135.690008,35.255252],[135.689417,35.255213],[135.686546,35.256141],[135.685672,35.257405],[135.684191,35.257911],[135.681675,35.257361],[135.681011,35.256723],[135.680164,35.257009],[135.679556,35.256711],[135.677619,35.257067],[135.676421,35.256939],[135.675549,35.258081],[135.672518,35.258323],[135.670007,35.259104],[135.668962,35.258598],[135.668339,35.258707],[135.667325,35.258427],[135.665941,35.259027],[135.665151,35.260368],[135.663413,35.260701],[135.662843,35.260248],[135.661747,35.26063],[135.660774,35.2604],[135.659877,35.260909],[135.65968,35.261498],[135.658964,35.261995],[135.656686,35.262248],[135.655448,35.263355],[135.654807,35.263171],[135.653115,35.261349],[135.652178,35.26115],[135.651923,35.259993],[135.650648,35.259934],[135.650082,35.260403],[135.649374,35.260357],[135.648512,35.259919],[135.647288,35.259925],[135.646342,35.259722],[135.644883,35.258818],[135.644353,35.257473],[135.64389,35.257144],[135.642006,35.257561],[135.641737,35.25786],[135.640013,35.258039],[135.639193,35.257716],[135.638733,35.257076],[135.63774,35.256646],[135.636504,35.255246],[135.636408,35.253145],[135.635775,35.25238],[135.634384,35.251603],[135.633428,35.250751],[135.632029,35.250113],[135.630576,35.248785],[135.630018,35.247365],[135.630067,35.246611],[135.629211,35.24614],[135.628872,35.245367],[135.629331,35.242933],[135.629218,35.241628],[135.628781,35.241322],[135.628891,35.240454],[135.628517,35.239353],[135.629531,35.238796],[135.629839,35.237679],[135.629616,35.237022],[135.629709,35.235996],[135.627901,35.235376],[135.626813,35.234589],[135.625307,35.234679],[135.624434,35.233689],[135.623468,35.233629],[135.621923,35.233189],[135.620175,35.233166],[135.619596,35.231647],[135.619576,35.230128],[135.619783,35.228899],[135.619424,35.227414],[135.619198,35.225498],[135.618261,35.225658],[135.617299,35.226534],[135.61579,35.226641],[135.614697,35.226083],[135.613206,35.225567],[135.6123,35.225945],[135.612353,35.227556],[135.611657,35.227698],[135.610645,35.22857],[135.608669,35.228334],[135.606961,35.227523],[135.605963,35.227423],[135.605539,35.226973],[135.60424,35.226584],[135.603552,35.225965],[135.602134,35.225218],[135.600934,35.225287],[135.599099,35.225041],[135.598335,35.224373],[135.597551,35.224029],[135.596912,35.223033],[135.595907,35.222155],[135.595373,35.221158],[135.59248,35.220978],[135.591799,35.220394],[135.591092,35.220497],[135.589623,35.219019],[135.589906,35.21794],[135.589732,35.217371],[135.589902,35.216405],[135.590522,35.216195],[135.591655,35.21479],[135.592201,35.213702],[135.593993,35.212644],[135.594318,35.212159],[135.595543,35.212304],[135.596683,35.212117],[135.597191,35.211315],[135.597181,35.209747],[135.596791,35.208659],[135.5963,35.207991],[135.596228,35.20717],[135.596492,35.205236],[135.59671,35.204586],[135.596542,35.202547],[135.596083,35.201716],[135.594974,35.200868],[135.594027,35.200785],[135.592861,35.199739],[135.592257,35.198761],[135.592899,35.197578],[135.591427,35.196379],[135.591212,35.195177],[135.590461,35.194789],[135.589734,35.193815],[135.588483,35.193163],[135.588146,35.192063],[135.587304,35.190861],[135.586119,35.190689],[135.58519,35.189934],[135.584231,35.189705],[135.582918,35.188238],[135.582371,35.187284],[135.582952,35.185291],[135.581544,35.18475],[135.581131,35.183169],[135.580049,35.18226],[135.579964,35.181685],[135.578805,35.180692],[135.578609,35.180143],[135.577208,35.179423],[135.576195,35.179163],[135.576371,35.177766],[135.576149,35.176033],[135.575739,35.175701],[135.57515,35.174475],[135.574588,35.173941],[135.574851,35.172693],[135.573513,35.17131],[135.573425,35.170899],[135.57425,35.170467],[135.573897,35.169023],[135.572337,35.168019],[135.572567,35.166206],[135.572339,35.165772],[135.571348,35.165716],[135.570349,35.166013],[135.568186,35.163434],[135.567976,35.162106],[135.568085,35.161227],[135.56753,35.16091],[135.56578,35.160798],[135.565564,35.160286],[135.564414,35.159355],[135.564583,35.158588],[135.563779,35.157771],[135.56163,35.156562],[135.560816,35.155511],[135.560566,35.154424],[135.561516,35.153619],[135.560777,35.152101],[135.560374,35.150628],[135.560368,35.149449],[135.560752,35.148942],[135.562378,35.148232],[135.561741,35.143884],[135.560965,35.142782],[135.560455,35.142436],[135.559763,35.140455],[135.559833,35.139093],[135.559013,35.136931],[135.559743,35.135982],[135.561356,35.134843],[135.561449,35.132603],[135.564088,35.130948],[135.56506,35.130062],[135.566477,35.12806],[135.566995,35.127701],[135.567916,35.127592],[135.568644,35.127954],[135.570306,35.129371],[135.571005,35.130906],[135.572174,35.131613],[135.57365,35.131858],[135.575287,35.132516],[135.576024,35.131257],[135.576465,35.129976],[135.577613,35.12769],[135.577988,35.127661],[135.579811,35.128273],[135.581976,35.12816],[135.582933,35.127848],[135.583739,35.127236],[135.585616,35.127563],[135.58635,35.127066],[135.58731,35.127516],[135.589515,35.12768],[135.590149,35.128296],[135.592019,35.129059],[135.593592,35.128843],[135.595542,35.128885],[135.596347,35.127841],[135.597383,35.126004],[135.59517,35.126301],[135.593531,35.125588],[135.590966,35.124174],[135.591482,35.122408],[135.591148,35.121487],[135.591776,35.120475],[135.591631,35.118988],[135.592332,35.117735],[135.592264,35.116779],[135.593176,35.115831],[135.593688,35.114503],[135.594653,35.113424],[135.595567,35.112824],[135.595867,35.111278],[135.597309,35.11006],[135.598676,35.110433],[135.59957,35.110213],[135.600326,35.11049],[135.601168,35.11022],[135.602393,35.1105],[135.6039,35.112262],[135.60428,35.112204],[135.605018,35.110669],[135.605908,35.109832],[135.606906,35.109211],[135.609605,35.108258],[135.609334,35.106883],[135.610284,35.106119],[135.611235,35.105765],[135.612018,35.104909],[135.613492,35.104497],[135.614725,35.104656],[135.616478,35.10388],[135.615849,35.103331],[135.61609,35.102603],[135.615385,35.101758],[135.616406,35.100927],[135.616015,35.099758],[135.614563,35.097384],[135.613576,35.09707],[135.612945,35.09646],[135.609668,35.095233],[135.607485,35.094003],[135.606131,35.092933],[135.605164,35.092662],[135.604458,35.094109],[135.603539,35.094497],[135.602222,35.094422],[135.600759,35.095366],[135.599692,35.094848],[135.598823,35.09505],[135.597923,35.094346],[135.598166,35.093626],[135.598206,35.092444],[135.597412,35.091309],[135.596447,35.090631],[135.595893,35.089799],[135.594158,35.08826],[135.593787,35.08765],[135.594164,35.086709],[135.592606,35.085461],[135.592049,35.084767],[135.591941,35.084074],[135.59253,35.082554],[135.591942,35.081521],[135.591959,35.07996],[135.592237,35.079155],[135.591202,35.078863],[135.590734,35.077839],[135.590096,35.077103],[135.590747,35.076233],[135.592107,35.075575],[135.592844,35.074351],[135.594426,35.074033],[135.595343,35.072341],[135.59615,35.071234],[135.598041,35.07114],[135.599589,35.070674],[135.600116,35.07017],[135.600501,35.069215],[135.601013,35.067089],[135.601887,35.066228],[135.601531,35.064544],[135.602528,35.062939],[135.60437,35.062151],[135.60523,35.062028],[135.60649,35.062679],[135.6071,35.063297],[135.607401,35.064026],[135.608145,35.064441],[135.608583,35.065669],[135.608417,35.066513],[135.612633,35.067231],[135.615884,35.067941],[135.617216,35.068334],[135.618815,35.068184],[135.619545,35.067002],[135.621997,35.064591],[135.622031,35.064119],[135.621345,35.063282],[135.62107,35.061976],[135.619475,35.059551],[135.619034,35.058199],[135.618944,35.057182],[135.617442,35.055472],[135.617454,35.054238],[135.61801,35.053761],[135.618169,35.053023],[135.618005,35.052084],[135.617969,35.049998],[135.61811,35.048785],[135.617896,35.047317],[135.617512,35.046187],[135.617544,35.044168],[135.617125,35.043158],[135.617579,35.042035],[135.618379,35.041236],[135.619322,35.040621],[135.61974,35.040018],[135.620838,35.039523],[135.621776,35.038033],[135.623394,35.038249],[135.625249,35.03929],[135.626202,35.03954],[135.626719,35.03918],[135.627065,35.038283],[135.627628,35.037791],[135.62923,35.037018],[135.629605,35.035064],[135.630486,35.033998],[135.631597,35.033981],[135.631956,35.0334],[135.632813,35.032962],[135.633162,35.032458],[135.633973,35.032233],[135.633945,35.031709],[135.635043,35.030933],[135.634927,35.030166],[135.63578,35.029161],[135.636324,35.028945],[135.636616,35.028193],[135.638006,35.027463],[135.638174,35.026722],[135.638046,35.025204],[135.639873,35.023441],[135.640209,35.023638],[135.641653,35.023659],[135.643092,35.024528],[135.646907,35.027106],[135.648672,35.028091],[135.649582,35.029086],[135.650395,35.030311],[135.650978,35.030597],[135.652546,35.030087],[135.653431,35.029128],[135.653312,35.027214],[135.653638,35.02595],[135.655141,35.025063],[135.655866,35.021469],[135.656133,35.020828],[135.657649,35.018494],[135.659265,35.017498],[135.660719,35.017528],[135.664039,35.017241],[135.666175,35.016888],[135.668102,35.01619],[135.668987,35.015443],[135.669508,35.014434],[135.67011,35.013821],[135.671408,35.013177],[135.673369,35.012833],[135.675275,35.01268],[135.677313,35.011452],[135.67827,35.01137],[135.679671,35.011741],[135.680751,35.012309],[135.683054,35.012965],[135.684216,35.012821],[135.685679,35.012147],[135.686606,35.011372],[135.687707,35.009694],[135.688917,35.008303],[135.689451,35.007318],[135.689559,35.006578],[135.689288,35.005032],[135.689588,35.003307],[135.689674,35.001796],[135.689974,34.999654],[135.691485,34.998145],[135.693079,34.997841],[135.697078,34.998151],[135.69978,34.999034],[135.70187,34.999076],[135.704109,34.998849],[135.705634,34.998539],[135.706728,34.998121],[135.708217,34.99697],[135.708905,34.995789],[135.710181,34.992276],[135.710782,34.988041],[135.711583,34.98627],[135.713136,34.98321],[135.714046,34.981725],[135.715361,34.980049],[135.716089,34.981618],[135.7179,34.981874],[135.71768,34.982845],[135.718644,34.982994],[135.718561,34.98402],[135.720031,34.983996],[135.720133,34.984509],[135.721618,34.984521],[135.72164,34.98538],[135.723089,34.98578],[135.727269,34.985601],[135.727291,34.985768],[135.727372,34.989058],[135.729067,34.989225],[135.729053,34.993794],[135.731407,34.993818],[135.732961,34.994002],[135.732891,34.996403],[135.732881,35.000558],[135.732794,35.00523],[135.732879,35.008273],[135.726918,35.008125],[135.726881,35.008513],[135.72409,35.008534],[135.724037,35.009548],[135.724033,35.016043],[135.725416,35.016079],[135.7255,35.018984],[135.725387,35.021187],[135.726824,35.02121],[135.726813,35.022544],[135.725361,35.022515],[135.725351,35.023762],[135.724634,35.023933],[135.724624,35.026087],[135.723011,35.026048],[135.723276,35.026642],[135.723053,35.027645],[135.722261,35.02768],[135.722152,35.028923],[135.722188,35.032644],[135.721601,35.033338],[135.722219,35.035907],[135.721117,35.036244],[135.719651,35.036438],[135.71918,35.037294],[135.718378,35.0376],[135.716967,35.038531],[135.716801,35.039501],[135.715193,35.039541],[135.714367,35.041831],[135.7136,35.042125],[135.712609,35.041894],[135.711024,35.041894],[135.710843,35.042147],[135.711377,35.043884],[135.712408,35.04421],[135.713986,35.047402],[135.713818,35.048275],[135.714329,35.049751],[135.714045,35.051931],[135.713563,35.053414],[135.712769,35.053554],[135.71176,35.052504],[135.710696,35.05261],[135.710019,35.053056],[135.709051,35.053144],[135.708814,35.055111],[135.709039,35.055854],[135.709953,35.05708],[135.7107,35.059434],[135.710598,35.061168],[135.708889,35.060417],[135.708344,35.060692],[135.706778,35.062135],[135.705436,35.061744],[135.705116,35.062219],[135.703673,35.063452],[135.70397,35.065518],[135.703012,35.06604],[135.702912,35.066561],[135.702218,35.066736],[135.701167,35.067941],[135.700462,35.068369],[135.700416,35.06896],[135.698855,35.069806],[135.696657,35.069372],[135.695863,35.068288],[135.695029,35.066361],[135.694313,35.06737],[135.693855,35.068388],[135.695651,35.070321],[135.695761,35.07086],[135.694306,35.071533],[135.693502,35.072576],[135.693402,35.073265],[135.692648,35.074117],[135.692213,35.075208],[135.691806,35.075578],[135.691051,35.077541],[135.691141,35.07818],[135.690509,35.078972],[135.689886,35.080299],[135.688757,35.080824],[135.687864,35.081514],[135.68695,35.080694],[135.686527,35.079043],[135.685523,35.078121],[135.685204,35.07692],[135.684868,35.076487],[135.683907,35.076025],[135.682318,35.077252],[135.68043,35.077722],[135.679214,35.078316],[135.676587,35.078983],[135.676014,35.079467],[135.676046,35.080493],[135.67679,35.08142],[135.676957,35.082896],[135.677231,35.083323],[135.675573,35.083625],[135.674938,35.083436],[135.674399,35.083811],[135.672608,35.083428],[135.671461,35.085397],[135.670598,35.08411],[135.669363,35.082918],[135.668303,35.082379],[135.668438,35.083242],[135.668044,35.086063],[135.667476,35.086893],[135.668198,35.089031],[135.668939,35.08984],[135.669491,35.091455],[135.670599,35.09227],[135.672074,35.092199],[135.673045,35.092696],[135.672998,35.094293],[135.671372,35.095134],[135.67052,35.095023],[135.667689,35.095949],[135.666168,35.096814],[135.66517,35.097719],[135.664852,35.098407],[135.663531,35.098045],[135.662998,35.097244],[135.662819,35.096447],[135.660975,35.0937],[135.659263,35.092588],[135.657758,35.092214],[135.657262,35.091877],[135.65609,35.090513],[135.655668,35.091503],[135.654325,35.092363],[135.654298,35.092782],[135.652593,35.094903],[135.65274,35.096016],[135.652188,35.096699],[135.652299,35.097687],[135.651459,35.098473],[135.650899,35.100541],[135.650163,35.101607],[135.650353,35.102295],[135.651011,35.103024],[135.652165,35.103224],[135.652813,35.103944],[135.653192,35.104855],[135.654427,35.105755],[135.653655,35.10668],[135.654463,35.108037],[135.654552,35.10876],[135.652646,35.109153],[135.650939,35.109695],[135.649226,35.109864],[135.648189,35.111851],[135.648355,35.112693],[135.649738,35.114423],[135.649006,35.1148],[135.647884,35.117098],[135.646965,35.117993],[135.648276,35.118976],[135.649073,35.118843],[135.64986,35.117798],[135.650745,35.116171],[135.652137,35.115599],[135.652752,35.115072],[135.654153,35.1147],[135.655521,35.116593],[135.656809,35.117231],[135.658363,35.116809],[135.659799,35.116108],[135.660756,35.116564],[135.662599,35.117785],[135.663334,35.118011],[135.664593,35.119031],[135.664648,35.119663],[135.665333,35.120813],[135.666372,35.12123],[135.667642,35.121355],[135.669151,35.122741],[135.670085,35.122804],[135.670405,35.123196],[135.67066,35.125787],[135.671208,35.126497],[135.672273,35.126913],[135.672431,35.127636],[135.673431,35.128624],[135.673597,35.129413],[135.674286,35.129762],[135.674126,35.131273],[135.675043,35.13276],[135.675653,35.134107],[135.675433,35.134961],[135.675487,35.136002],[135.675843,35.137004],[135.675491,35.137726],[135.674221,35.138296],[135.673329,35.139551],[135.672587,35.141692],[135.672484,35.142604],[135.672771,35.143973],[135.672498,35.144678],[135.672582,35.145573],[135.673507,35.14635],[135.673656,35.14722],[135.673257,35.148934],[135.672743,35.149371],[135.672891,35.150705],[135.672576,35.151737],[135.672766,35.154073],[135.673311,35.155376],[135.672653,35.157339],[135.672932,35.158631],[135.674319,35.159742],[135.674654,35.161569],[135.674241,35.162895],[135.674584,35.163286],[135.674644,35.164151],[135.675878,35.165006],[135.67578,35.166003],[135.677511,35.166084],[135.679369,35.16688],[135.680658,35.166044],[135.681666,35.165586],[135.684253,35.16547],[135.685362,35.165843],[135.686715,35.167723],[135.687229,35.167743],[135.689657,35.166226],[135.690334,35.166099],[135.693961,35.166417],[135.694961,35.165877],[135.696358,35.166038],[135.6973,35.165867],[135.699082,35.165911],[135.700039,35.165353],[135.700286,35.164904],[135.701585,35.165394],[135.70359,35.165571],[135.704739,35.165963],[135.705793,35.165921],[135.706632,35.165599],[135.707921,35.164773],[135.709336,35.164128],[135.710268,35.164269],[135.711226,35.165276],[135.712379,35.166062],[135.713003,35.167665],[135.713644,35.168823],[135.714953,35.168526],[135.716691,35.16902],[135.719317,35.168533],[135.720267,35.168235],[135.720324,35.169123],[135.720753,35.169874],[135.721624,35.170216],[135.722756,35.170094],[135.723744,35.170933],[135.724073,35.171493],[135.725169,35.170851],[135.726185,35.170961],[135.727454,35.170194],[135.728619,35.170892],[135.729879,35.170124],[135.730866,35.169874],[135.730726,35.16818],[135.731305,35.167521],[135.73144,35.166658],[135.732058,35.166351],[135.732468,35.165398],[135.73318,35.164766],[135.733448,35.163291],[135.734396,35.16184],[135.735777,35.160915],[135.737356,35.160999],[135.737888,35.160826],[135.740004,35.159289],[135.741642,35.158364],[135.742051,35.157766],[135.742116,35.156393],[135.743093,35.155683],[135.743576,35.154287],[135.743655,35.152739],[135.743954,35.152317],[135.744655,35.150097]]]]}},
  {"type":"Feature","properties":{"name":"伏見区","code":"26109"},"geometry":{"type":"MultiPolygon","coordinates":[[[[135.764644,34.972991],[135.759654,34.96708],[135.752796,34.967199],[135.752072,34.967325],[135.751916,34.961065],[135.750472,34.959325],[135.749191,34.958294],[135.748477,34.956836],[135.747165,34.955752],[135.745821,34.955315],[135.745781,34.954277],[135.743303,34.953431],[135.742593,34.953442],[135.742347,34.952882],[135.742314,34.950949],[135.742086,34.950037],[135.741122,34.948551],[135.740416,34.946231],[135.741477,34.943893],[135.740321,34.94366],[135.740256,34.942772],[135.739742,34.942223],[135.737329,34.941793],[135.737116,34.943619],[135.736735,34.944924],[135.735159,34.947662],[135.732722,34.951331],[135.730537,34.950311],[135.72953,34.950919],[135.72919,34.950555],[135.727813,34.950502],[135.727596,34.949541],[135.724035,34.949553],[135.724046,34.948652],[135.722531,34.948623],[135.723481,34.947424],[135.723314,34.94632],[135.724842,34.944632],[135.724871,34.943034],[135.719434,34.942915],[135.718333,34.942119],[135.718202,34.939852],[135.716691,34.937365],[135.716684,34.936822],[135.715069,34.9365],[135.713844,34.935618],[135.713764,34.933083],[135.714592,34.932075],[135.714604,34.929062],[135.714575,34.925102],[135.717383,34.925066],[135.715028,34.92277],[135.714785,34.922066],[135.714774,34.920981],[135.715379,34.920897],[135.715164,34.919282],[135.71447,34.918041],[135.714191,34.916008],[135.712273,34.916097],[135.712179,34.915166],[135.710923,34.914021],[135.709624,34.912566],[135.709266,34.909596],[135.708484,34.909262],[135.708542,34.910162],[135.707167,34.910162],[135.706997,34.908773],[135.706526,34.908107],[135.705705,34.906578],[135.705307,34.905134],[135.705282,34.904192],[135.705625,34.902742],[135.705503,34.90205],[135.705586,34.900363],[135.703174,34.898693],[135.704603,34.896943],[135.70549,34.894682],[135.708996,34.895577],[135.710165,34.892738],[135.711945,34.893204],[135.711758,34.889291],[135.712011,34.889291],[135.711942,34.887257],[135.715702,34.887174],[135.715442,34.882784],[135.720682,34.881443],[135.72374,34.880399],[135.730236,34.876552],[135.732472,34.874916],[135.732741,34.876488],[135.732708,34.87826],[135.729466,34.880521],[135.728745,34.881695],[135.727526,34.883151],[135.728713,34.885155],[135.727351,34.886377],[135.72425,34.887015],[135.722581,34.887976],[135.720388,34.887057],[135.719418,34.888244],[135.721459,34.88929],[135.720566,34.891202],[135.720098,34.89286],[135.717131,34.891792],[135.716303,34.893397],[135.718534,34.894037],[135.718195,34.894834],[135.716936,34.896701],[135.71577,34.899158],[135.715951,34.89923],[135.714185,34.900834],[135.714018,34.901591],[135.714894,34.901549],[135.716363,34.900309],[135.716653,34.899456],[135.717626,34.898454],[135.719573,34.898102],[135.720463,34.898609],[135.719331,34.898949],[135.71949,34.899736],[135.721495,34.899802],[135.722768,34.900369],[135.724733,34.901025],[135.725602,34.902069],[135.72596,34.902808],[135.728385,34.902301],[135.729749,34.902802],[135.731961,34.904413],[135.735171,34.905069],[135.736119,34.904819],[135.738167,34.905021],[135.740284,34.904789],[135.740639,34.905487],[135.74053,34.906364],[135.741124,34.906936],[135.741526,34.906429],[135.742655,34.907014],[135.742249,34.907538],[135.743762,34.908344],[135.744005,34.909107],[135.743701,34.909465],[135.744554,34.910413],[135.74581,34.910789],[135.745492,34.911278],[135.74644,34.911576],[135.746896,34.91095],[135.747713,34.911385],[135.748489,34.910306],[135.747762,34.909938],[135.748179,34.909342],[135.747607,34.909039],[135.74813,34.908327],[135.749634,34.908831],[135.753066,34.904167],[135.760916,34.908085],[135.771369,34.913317],[135.77199,34.914093],[135.772524,34.914261],[135.776128,34.916136],[135.780558,34.91708],[135.782716,34.916889],[135.784035,34.916457],[135.787233,34.916553],[135.787572,34.916889],[135.789838,34.916993],[135.789906,34.918435],[135.789711,34.919003],[135.789858,34.920054],[135.790396,34.921289],[135.790528,34.922767],[135.791154,34.922905],[135.79081,34.925212],[135.791843,34.926672],[135.791606,34.927635],[135.791703,34.929131],[135.792973,34.928884],[135.793203,34.929196],[135.792033,34.929716],[135.792209,34.930377],[135.794159,34.931089],[135.79468,34.931674],[135.795165,34.932836],[135.796888,34.937877],[135.797265,34.937584],[135.797063,34.936272],[135.798919,34.936385],[135.799251,34.936172],[135.797689,34.934513],[135.799805,34.934166],[135.801056,34.934871],[135.803204,34.936432],[135.803889,34.935869],[135.806191,34.935329],[135.806273,34.936273],[135.807496,34.937588],[135.8096,34.936859],[135.810175,34.936406],[135.810838,34.936531],[135.810783,34.935111],[135.811829,34.935049],[135.812405,34.934414],[135.812538,34.933178],[135.813232,34.932724],[135.81346,34.931169],[135.812862,34.930373],[135.813248,34.929654],[135.814313,34.929254],[135.815578,34.929421],[135.816234,34.928801],[135.817096,34.927476],[135.817756,34.927516],[135.818137,34.926648],[135.820752,34.926749],[135.825182,34.927552],[135.827638,34.927632],[135.829413,34.927392],[135.829648,34.928446],[135.830477,34.929465],[135.83072,34.930179],[135.830599,34.931073],[135.831038,34.932772],[135.83039,34.933816],[135.830147,34.935311],[135.830503,34.936231],[135.831338,34.935731],[135.831906,34.935864],[135.833186,34.935584],[135.833808,34.935157],[135.834886,34.934963],[135.83632,34.934263],[135.836507,34.934743],[135.836085,34.935824],[135.83893,34.935844],[135.84054,34.935077],[135.843324,34.935618],[135.844694,34.935504],[135.845059,34.934393],[135.844418,34.933412],[135.842962,34.932784],[135.841479,34.932597],[135.839801,34.93173],[135.84002,34.930457],[135.842935,34.930458],[135.845521,34.930218],[135.845999,34.930805],[135.847274,34.930843],[135.847088,34.93193],[135.848101,34.931957],[135.848823,34.932604],[135.84884,34.934602],[135.849539,34.934907],[135.850066,34.935934],[135.85009,34.936675],[135.849425,34.937269],[135.84991,34.939407],[135.847711,34.940152],[135.847525,34.941089],[135.848213,34.943989],[135.84784,34.944409],[135.847103,34.944443],[135.847192,34.945063],[135.844628,34.948083],[135.845309,34.948543],[135.847111,34.948447],[135.848564,34.950672],[135.849114,34.952632],[135.850005,34.95398],[135.850168,34.954783],[135.851035,34.955907],[135.851012,34.957367],[135.851917,34.956926],[135.854822,34.957186],[135.855293,34.956982],[135.85727,34.957243],[135.858515,34.957018],[135.859465,34.957089],[135.859532,34.953865],[135.860614,34.953209],[135.86171,34.951398],[135.862627,34.95084],[135.864206,34.95054],[135.865418,34.950621],[135.867111,34.950136],[135.868728,34.949237],[135.871022,34.948491],[135.87171,34.948482],[135.874591,34.947615],[135.875853,34.94757],[135.877725,34.947246],[135.878442,34.947434],[135.87773,34.948293],[135.876987,34.948657],[135.876771,34.949399],[135.876008,34.949939],[135.875713,34.95056],[135.875742,34.952414],[135.875427,34.953665],[135.874566,34.954213],[135.874204,34.955018],[135.873381,34.955341],[135.871519,34.955526],[135.870854,34.955352],[135.869907,34.956411],[135.86925,34.95676],[135.868264,34.9565],[135.864861,34.957165],[135.863878,34.957602],[135.86349,34.95837],[135.863681,34.959358],[135.863411,34.960054],[135.862199,34.960282],[135.860438,34.960941],[135.859006,34.961897],[135.857095,34.962916],[135.856168,34.963217],[135.854166,34.963525],[135.852981,34.963347],[135.852223,34.963786],[135.851828,34.964491],[135.850489,34.964668],[135.849638,34.964383],[135.848796,34.964837],[135.846512,34.965662],[135.845786,34.96618],[135.845641,34.96667],[135.844445,34.968113],[135.843266,34.967534],[135.842783,34.967029],[135.840766,34.965858],[135.838812,34.966255],[135.837403,34.967432],[135.836487,34.969483],[135.836046,34.969857],[135.834831,34.969441],[135.833762,34.968791],[135.832343,34.968399],[135.830964,34.967348],[135.83062,34.966607],[135.829029,34.965664],[135.828348,34.9642],[135.826445,34.964916],[135.823243,34.964296],[135.820736,34.964337],[135.819336,34.963565],[135.819248,34.96284],[135.819702,34.961966],[135.819643,34.960674],[135.817402,34.960654],[135.817161,34.960239],[135.817673,34.958347],[135.81768,34.957549],[135.816897,34.957476],[135.815594,34.958307],[135.814471,34.958598],[135.813995,34.959014],[135.813152,34.959045],[135.812954,34.958051],[135.813584,34.958047],[135.813093,34.956481],[135.813269,34.955721],[135.811322,34.955579],[135.810619,34.954001],[135.809482,34.953775],[135.80886,34.95289],[135.808018,34.953185],[135.804817,34.952965],[135.803716,34.954094],[135.801781,34.955434],[135.800646,34.955633],[135.799527,34.955012],[135.799138,34.953321],[135.798054,34.952833],[135.797264,34.952104],[135.794778,34.951506],[135.79357,34.950349],[135.793168,34.951481],[135.792634,34.952289],[135.792586,34.952894],[135.791656,34.954581],[135.791605,34.956466],[135.790873,34.95746],[135.790513,34.958704],[135.79118,34.960323],[135.790565,34.96253],[135.791399,34.963344],[135.791084,34.964528],[135.791289,34.965058],[135.790455,34.966549],[135.789868,34.966836],[135.788668,34.968613],[135.788653,34.969284],[135.788177,34.970043],[135.787831,34.97165],[135.786924,34.97114],[135.78521,34.971383],[135.784432,34.971279],[135.783879,34.972303],[135.783086,34.972432],[135.781093,34.974096],[135.778093,34.975503],[135.777476,34.976239],[135.776518,34.976444],[135.775817,34.976983],[135.775043,34.97718],[135.774988,34.976186],[135.775448,34.976118],[135.77579,34.974657],[135.776774,34.974398],[135.776903,34.973905],[135.776074,34.97373],[135.774388,34.973791],[135.774295,34.972456],[135.77353,34.972683],[135.773484,34.973844],[135.771287,34.973753],[135.771194,34.971221],[135.771618,34.970721],[135.771572,34.969955],[135.770457,34.969955],[135.770393,34.972917],[135.764644,34.972991]]]]}},
  {"type":"Feature","properties":{"name":"山科区","code":"26110"},"geometry":{"type":"MultiPolygon","coordinates":[[[[135.790706,35.007728],[135.789663,35.007755],[135.787596,35.007291],[135.786954,35.006695],[135.786748,35.005624],[135.787386,35.004382],[135.788235,35.000859],[135.789267,35.000363],[135.789404,34.999472],[135.790112,34.998622],[135.790865,34.998101],[135.791137,34.996782],[135.790548,34.995944],[135.789433,34.995541],[135.790066,34.994588],[135.790059,34.993161],[135.790526,34.992233],[135.790549,34.990652],[135.789904,34.989733],[135.789304,34.989666],[135.789099,34.988234],[135.78928,34.987738],[135.788711,34.986801],[135.787271,34.984995],[135.788966,34.983172],[135.789209,34.982476],[135.787698,34.981452],[135.788214,34.981093],[135.787657,34.980236],[135.788676,34.979972],[135.78838,34.979507],[135.787099,34.979133],[135.786697,34.978742],[135.786903,34.978118],[135.788213,34.977208],[135.788125,34.976446],[135.786609,34.973979],[135.787209,34.973287],[135.787385,34.972176],[135.787831,34.97165],[135.788177,34.970043],[135.788653,34.969284],[135.788668,34.968613],[135.789868,34.966836],[135.790455,34.966549],[135.791289,34.965058],[135.791084,34.964528],[135.791399,34.963344],[135.790565,34.96253],[135.79118,34.960323],[135.790513,34.958704],[135.790873,34.95746],[135.791605,34.956466],[135.791656,34.954581],[135.792586,34.952894],[135.792634,34.952289],[135.793168,34.951481],[135.79357,34.950349],[135.794778,34.951506],[135.797264,34.952104],[135.798054,34.952833],[135.799138,34.953321],[135.799527,34.955012],[135.800646,34.955633],[135.801781,34.955434],[135.803716,34.954094],[135.804817,34.952965],[135.808018,34.953185],[135.80886,34.95289],[135.809482,34.953775],[135.810619,34.954001],[135.811322,34.955579],[135.813269,34.955721],[135.813093,34.956481],[135.813584,34.958047],[135.812954,34.958051],[135.813152,34.959045],[135.813995,34.959014],[135.814471,34.958598],[135.815594,34.958307],[135.816897,34.957476],[135.81768,34.957549],[135.817673,34.958347],[135.817161,34.960239],[135.817402,34.960654],[135.819643,34.960674],[135.819702,34.961966],[135.819248,34.96284],[135.819336,34.963565],[135.820736,34.964337],[135.823243,34.964296],[135.826445,34.964916],[135.828348,34.9642],[135.829029,34.965664],[135.83062,34.966607],[135.830964,34.967348],[135.832343,34.968399],[135.833762,34.968791],[135.834831,34.969441],[135.836046,34.969857],[135.836487,34.969483],[135.837403,34.967432],[135.838812,34.966255],[135.840766,34.965858],[135.842783,34.967029],[135.843266,34.967534],[135.844445,34.968113],[135.845641,34.96667],[135.845786,34.96618],[135.846512,34.965662],[135.848796,34.964837],[135.849638,34.964383],[135.850489,34.964668],[135.851828,34.964491],[135.852223,34.963786],[135.852981,34.963347],[135.854166,34.963525],[135.856168,34.963217],[135.857095,34.962916],[135.859006,34.961897],[135.860438,34.960941],[135.862199,34.960282],[135.863411,34.960054],[135.863043,34.960781],[135.862081,34.961319],[135.861232,34.962878],[135.860021,34.963125],[135.859053,34.964085],[135.858854,34.96485],[135.857702,34.965647],[135.857312,34.96622],[135.856386,34.966516],[135.856117,34.967127],[135.856413,34.968469],[135.855648,34.969879],[135.853823,34.970929],[135.853088,34.970649],[135.852438,34.970789],[135.852275,34.971348],[135.852889,34.973294],[135.854127,34.973954],[135.854756,34.974978],[135.854078,34.976587],[135.854162,34.977335],[135.855222,34.977701],[135.856506,34.979228],[135.85676,34.980002],[135.856144,34.981296],[135.856695,34.982457],[135.855748,34.983383],[135.855747,34.983991],[135.855026,34.984742],[135.853578,34.984218],[135.851949,34.984282],[135.850889,34.984119],[135.849991,34.984899],[135.849118,34.984812],[135.849118,34.987166],[135.849854,34.988391],[135.850087,34.989968],[135.84991,34.990716],[135.849267,34.991734],[135.848051,34.991274],[135.8423,34.989942],[135.84018,34.989998],[135.834797,34.990779],[135.830945,34.990876],[135.829232,34.991126],[135.827475,34.991119],[135.827091,34.991607],[135.829448,34.993587],[135.829021,34.994792],[135.830583,34.996116],[135.831394,34.99747],[135.832572,34.999101],[135.832358,35.000835],[135.833586,35.000948],[135.833762,34.9993],[135.835456,34.999254],[135.836279,34.999957],[135.836559,35.001226],[135.835564,35.00308],[135.834053,35.004475],[135.833556,35.006057],[135.833456,35.006875],[135.832682,35.009425],[135.831686,35.00986],[135.830542,35.009796],[135.829178,35.009297],[135.828667,35.008755],[135.82768,35.009062],[135.826835,35.008368],[135.825077,35.008504],[135.824098,35.008824],[135.823681,35.010166],[135.823178,35.010516],[135.822457,35.011936],[135.821158,35.012819],[135.820239,35.012962],[135.819074,35.012886],[135.818258,35.013307],[135.817328,35.013401],[135.816583,35.012918],[135.81601,35.014827],[135.815149,35.015207],[135.813022,35.015265],[135.812389,35.015507],[135.811002,35.015575],[135.810689,35.016605],[135.809316,35.016528],[135.808803,35.015606],[135.807264,35.015502],[135.806838,35.015244],[135.805345,35.014981],[135.804587,35.014621],[135.804284,35.013789],[135.803508,35.013315],[135.80315,35.012148],[135.803739,35.010889],[135.803576,35.010209],[135.80298,35.009604],[135.802078,35.009475],[135.801857,35.008561],[135.800728,35.007601],[135.797831,35.006647],[135.797029,35.006719],[135.795711,35.00742],[135.795128,35.007173],[135.794651,35.006424],[135.793717,35.006512],[135.791804,35.007053],[135.790976,35.007098],[135.790706,35.007728]]]]}},
  {"type":"Feature","properties":{"name":"西京区","code":"26111"},"geometry":{"type":"MultiPolygon","coordinates":[[[[135.715361,34.980049],[135.714046,34.981725],[135.713136,34.98321],[135.711583,34.98627],[135.710782,34.988041],[135.710181,34.992276],[135.708905,34.995789],[135.708217,34.99697],[135.706728,34.998121],[135.705634,34.998539],[135.704109,34.998849],[135.70187,34.999076],[135.69978,34.999034],[135.697078,34.998151],[135.693079,34.997841],[135.691485,34.998145],[135.689974,34.999654],[135.689674,35.001796],[135.689588,35.003307],[135.689288,35.005032],[135.689559,35.006578],[135.689451,35.007318],[135.688917,35.008303],[135.687707,35.009694],[135.686606,35.011372],[135.685679,35.012147],[135.684216,35.012821],[135.683054,35.012965],[135.680751,35.012309],[135.679671,35.011741],[135.67827,35.01137],[135.677313,35.011452],[135.675275,35.01268],[135.673369,35.012833],[135.671408,35.013177],[135.67011,35.013821],[135.669508,35.014434],[135.668987,35.015443],[135.668102,35.01619],[135.666175,35.016888],[135.664039,35.017241],[135.660719,35.017528],[135.659265,35.017498],[135.657649,35.018494],[135.656133,35.020828],[135.655866,35.021469],[135.655141,35.025063],[135.653638,35.02595],[135.653312,35.027214],[135.653431,35.029128],[135.652546,35.030087],[135.650978,35.030597],[135.650395,35.030311],[135.649582,35.029086],[135.648672,35.028091],[135.646907,35.027106],[135.643092,35.024528],[135.641653,35.023659],[135.640209,35.023638],[135.639873,35.023441],[135.639748,35.021909],[135.639001,35.020086],[135.637825,35.01948],[135.63645,35.019121],[135.637541,35.017477],[135.637495,35.016842],[135.638892,35.016504],[135.639843,35.015796],[135.639836,35.015139],[135.641276,35.014356],[135.641402,35.013946],[135.642991,35.013065],[135.643696,35.011355],[135.6442,35.010668],[135.644338,35.009752],[135.645028,35.009399],[135.645661,35.008523],[135.646745,35.007477],[135.646679,35.005223],[135.646325,35.003469],[135.645687,35.002368],[135.646089,35.001419],[135.644438,35.000376],[135.643115,35.000018],[135.642768,35.000477],[135.641876,35.000346],[135.641268,34.999606],[135.640428,34.999021],[135.639794,34.998198],[135.638997,34.997882],[135.639109,34.996564],[135.63895,34.995789],[135.639239,34.994954],[135.639221,34.993743],[135.638685,34.993236],[135.638443,34.990904],[135.637751,34.989562],[135.637758,34.98918],[135.638689,34.987576],[135.638834,34.98689],[135.637968,34.985011],[135.637907,34.983782],[135.638298,34.982524],[135.63753,34.982232],[135.638186,34.980776],[135.638816,34.980287],[135.64016,34.978396],[135.641294,34.975641],[135.641157,34.975313],[135.638327,34.975444],[135.637791,34.974961],[135.636599,34.975348],[135.635266,34.975271],[135.634143,34.974752],[135.632082,34.974525],[135.630361,34.974549],[135.628572,34.973398],[135.627673,34.972658],[135.626956,34.972676],[135.626358,34.973714],[135.624931,34.973809],[135.623968,34.974388],[135.62275,34.974447],[135.621135,34.97415],[135.62083,34.973673],[135.617749,34.972574],[135.615917,34.972205],[135.615649,34.971638],[135.614634,34.971095],[135.613264,34.971195],[135.613832,34.968689],[135.613766,34.967449],[135.614932,34.966734],[135.61549,34.965887],[135.615374,34.964569],[135.615667,34.962804],[135.617783,34.960997],[135.618793,34.958816],[135.618626,34.957963],[135.617677,34.957391],[135.616887,34.957677],[135.616546,34.957319],[135.617046,34.956718],[135.617111,34.955728],[135.616438,34.955239],[135.615199,34.953843],[135.615321,34.953337],[135.616096,34.952872],[135.614784,34.952371],[135.615328,34.95156],[135.614799,34.950928],[135.614813,34.950343],[135.614115,34.950268],[135.614086,34.948323],[135.613659,34.947411],[135.612794,34.946889],[135.612815,34.946424],[135.613975,34.946358],[135.613895,34.945792],[135.612537,34.945193],[135.611523,34.943898],[135.611678,34.943374],[135.61317,34.94202],[135.612851,34.941644],[135.611345,34.942282],[135.610874,34.941936],[135.611197,34.940828],[135.610801,34.93974],[135.610186,34.939382],[135.609251,34.939895],[135.608302,34.939334],[135.608069,34.938218],[135.606996,34.937574],[135.607619,34.936924],[135.607489,34.936279],[135.606938,34.936059],[135.60641,34.935206],[135.605526,34.9353],[135.605439,34.936022],[135.603448,34.93582],[135.603919,34.935146],[135.603202,34.934949],[135.602673,34.933977],[135.602035,34.93353],[135.601928,34.932507],[135.60051,34.93097],[135.600524,34.930475],[135.601111,34.929717],[135.59943,34.928632],[135.599749,34.928053],[135.600561,34.92794],[135.60285,34.927306],[135.605371,34.92739],[135.606269,34.927616],[135.607653,34.928338],[135.609262,34.928123],[135.610027,34.928364],[135.611954,34.928406],[135.613178,34.928001],[135.615199,34.927625],[135.615583,34.928036],[135.616938,34.928546],[135.617764,34.929995],[135.617829,34.930508],[135.618858,34.931194],[135.619111,34.931963],[135.621026,34.932982],[135.622497,34.933506],[135.62375,34.934908],[135.626641,34.933751],[135.628108,34.933733],[135.629028,34.935004],[135.630405,34.935147],[135.631647,34.934789],[135.632973,34.934622],[135.634389,34.933584],[135.634317,34.932356],[135.635491,34.93195],[135.636574,34.931038],[135.637226,34.931282],[135.638204,34.932106],[135.640729,34.931342],[135.641207,34.930698],[135.642765,34.930662],[135.64316,34.929714],[135.646111,34.929514],[135.647313,34.93017],[135.648389,34.932496],[135.649599,34.932234],[135.651302,34.932461],[135.651899,34.933087],[135.653008,34.933737],[135.654044,34.934113],[135.655044,34.933976],[135.656714,34.934125],[135.659275,34.932938],[135.659818,34.934376],[135.659586,34.934942],[135.659866,34.935545],[135.661568,34.935622],[135.663731,34.936129],[135.663955,34.936356],[135.663752,34.93777],[135.664364,34.938533],[135.664553,34.939249],[135.666212,34.939154],[135.667494,34.939494],[135.668085,34.940042],[135.668288,34.941092],[135.669418,34.941319],[135.670193,34.941206],[135.670885,34.941826],[135.671906,34.942321],[135.672254,34.943024],[135.67203,34.94343],[135.672809,34.944343],[135.67341,34.944474],[135.674613,34.945691],[135.675569,34.945578],[135.678094,34.944975],[135.679394,34.945005],[135.679901,34.944486],[135.681155,34.944749],[135.685346,34.944784],[135.685897,34.945381],[135.688052,34.945584],[135.691388,34.945417],[135.693337,34.945953],[135.694968,34.946678],[135.695659,34.946932],[135.696079,34.947784],[135.695619,34.948536],[135.695061,34.948607],[135.693529,34.949343],[135.690595,34.953584],[135.689508,34.954138],[135.689012,34.954842],[135.688679,34.956041],[135.687588,34.957699],[135.687751,34.959006],[135.686274,34.960586],[135.685278,34.961475],[135.684995,34.962745],[135.683876,34.963807],[135.683122,34.96423],[135.682988,34.965554],[135.68343,34.966717],[135.683159,34.969014],[135.68426,34.969485],[135.686322,34.968321],[135.686488,34.967271],[135.687481,34.966764],[135.688437,34.967092],[135.690252,34.967193],[135.692628,34.967748],[135.692868,34.968363],[135.698931,34.968625],[135.699743,34.968577],[135.699826,34.965691],[135.702333,34.965553],[135.702315,34.9634],[135.705123,34.963454],[135.704931,34.968549],[135.710926,34.968585],[135.714611,34.968662],[135.718523,34.968627],[135.722029,34.968668],[135.721975,34.971048],[135.722098,34.971961],[135.721921,34.973267],[135.720892,34.974723],[135.71652,34.978695],[135.715361,34.980049]]]]}}
]}
