{"type":"FeatureCollection", "features": [
  {"type":"Feature","properties":{"name":"青葉区","code":"04101"},"geometry":{"type":"MultiPolygon","coordinates":[[[[140.56324,38.3772],[140.56325,38.37551],[140.56417,38.37344],[140.5669,38.37294],[140.56796,38.37257],[140.56882,38.37201],[140.56906,38.37089],[140.56956,38.37025],[140.56959,38.36888],[140.56926,38.36823],[140.56946,38.36768],[140.57118,38.36652],[140.5726,38.36577],[140.5748,38.36587],[140.57654,38.36485],[140.57833,38.36398],[140.57851,38.363],[140.58,38.36235],[140.58076,38.36152],[140.58123,38.36043],[140.58117,38.35957],[140.58358,38.35603],[140.58535,38.3553],[140.58582,38.35422],[140.58643,38.3535],[140.5883,38.35233],[140.5884,38.35179],[140.58935,38.34995],[140.59074,38.34817],[140.59086,38.34655],[140.59161,38.3459],[140.59317,38.344],[140.59143,38.34316],[140.59089,38.34248],[140.59089,38.34126],[140.59042,38.34054],[140.58831,38.33914],[140.58863,38.33841],[140.58835,38.33769],[140.58928,38.33746],[140.58988,38.33695],[140.58975,38.33628],[140.59055,38.33551],[140.59078,38.33457],[140.59157,38.33438],[140.59233,38.33352],[140.5919,38.33274],[140.59035,38.33099],[140.59013,38.33007],[140.59073,38.32917],[140.59086,38.32707],[140.58977,38.32777],[140.58789,38.32847],[140.58646,38.32804],[140.58631,38.32743],[140.5853,38.32548],[140.58377,38.32345],[140.58138,38.32172],[140.58124,38.32132],[140.58261,38.32068],[140.58389,38.32093],[140.5864,38.32061],[140.58968,38.32095],[140.59239,38.32202],[140.59501,38.32178],[140.59872,38.3212],[140.60076,38.32135],[140.60175,38.32113],[140.6027,38.32045],[140.60395,38.31985],[140.60537,38.31888],[140.60754,38.317],[140.60807,38.31634],[140.60779,38.31508],[140.60688,38.31376],[140.60621,38.31325],[140.60318,38.31204],[140.60012,38.31147],[140.59828,38.31175],[140.59651,38.31176],[140.59498,38.31119],[140.59429,38.31075],[140.59265,38.31078],[140.59168,38.31041],[140.5906,38.30937],[140.59,38.30835],[140.58781,38.30746],[140.58611,38.30654],[140.58377,38.30489],[140.58366,38.30417],[140.58412,38.30304],[140.58408,38.30239],[140.58469,38.30144],[140.58443,38.29881],[140.58536,38.29774],[140.58639,38.29791],[140.58857,38.29866],[140.58964,38.29868],[140.5915,38.29923],[140.59219,38.29906],[140.5949,38.29907],[140.59589,38.29856],[140.59638,38.29749],[140.59769,38.2966],[140.59913,38.29626],[140.60097,38.29471],[140.60381,38.29326],[140.60535,38.29307],[140.60759,38.29324],[140.60964,38.292],[140.61032,38.2918],[140.60939,38.29031],[140.60937,38.28908],[140.60968,38.28859],[140.61083,38.28817],[140.6117,38.28724],[140.61282,38.28702],[140.61536,38.28797],[140.61591,38.28858],[140.61689,38.2891],[140.62088,38.28903],[140.6237,38.29049],[140.62391,38.29137],[140.62463,38.29269],[140.6245,38.29338],[140.62495,38.29368],[140.62585,38.29329],[140.62693,38.29168],[140.62954,38.29143],[140.63146,38.29164],[140.63414,38.29233],[140.63575,38.2926],[140.637,38.29233],[140.63816,38.29179],[140.64001,38.29158],[140.64141,38.29162],[140.64273,38.29088],[140.64447,38.29074],[140.6456,38.28989],[140.64704,38.29003],[140.65004,38.28972],[140.65241,38.29021],[140.6534,38.29064],[140.65325,38.29141],[140.65368,38.29161],[140.65519,38.29138],[140.65848,38.2934],[140.65916,38.29412],[140.6596,38.29499],[140.66066,38.29624],[140.66157,38.29657],[140.66242,38.29749],[140.66301,38.29883],[140.6634,38.30067],[140.66404,38.2996],[140.6649,38.29887],[140.66629,38.29868],[140.6673,38.29742],[140.66843,38.29779],[140.66908,38.29715],[140.67003,38.29721],[140.67168,38.29611],[140.67224,38.2954],[140.67321,38.29492],[140.67466,38.29545],[140.67556,38.29495],[140.67776,38.29485],[140.67759,38.29414],[140.67778,38.29265],[140.67964,38.29163],[140.67947,38.29018],[140.67691,38.28863],[140.67648,38.28808],[140.67635,38.28716],[140.67719,38.28404],[140.67602,38.28214],[140.67571,38.28135],[140.67579,38.28052],[140.67753,38.28031],[140.6787,38.27993],[140.67997,38.28029],[140.68061,38.28096],[140.68264,38.28154],[140.6836,38.28209],[140.68411,38.28269],[140.68469,38.28261],[140.68456,38.28089],[140.68517,38.27903],[140.68527,38.27801],[140.685,38.27668],[140.68456,38.27596],[140.68471,38.27496],[140.68526,38.27365],[140.68571,38.27334],[140.68664,38.2735],[140.6873,38.27331],[140.68737,38.27202],[140.68963,38.27269],[140.69163,38.27179],[140.69266,38.27168],[140.69382,38.27208],[140.69498,38.27188],[140.69653,38.27124],[140.6964,38.26969],[140.69606,38.26889],[140.69694,38.26785],[140.69636,38.26739],[140.69645,38.26653],[140.69713,38.26585],[140.69769,38.26405],[140.69812,38.26381],[140.69964,38.26469],[140.7007,38.26455],[140.70309,38.26521],[140.70565,38.26543],[140.70717,38.26431],[140.70814,38.26399],[140.71029,38.26374],[140.71186,38.26267],[140.71401,38.26022],[140.71473,38.25824],[140.71578,38.25852],[140.71644,38.25718],[140.71571,38.25647],[140.71507,38.2554],[140.71454,38.25411],[140.7145,38.25337],[140.71482,38.2523],[140.7155,38.25193],[140.71644,38.25201],[140.71766,38.2525],[140.71846,38.25253],[140.7196,38.25182],[140.72122,38.25167],[140.72295,38.25179],[140.72394,38.2497],[140.72452,38.24894],[140.72473,38.24762],[140.72558,38.24674],[140.72646,38.24643],[140.72663,38.24552],[140.72749,38.24487],[140.72823,38.24474],[140.72852,38.24422],[140.72939,38.24383],[140.73072,38.24415],[140.73222,38.244],[140.73282,38.24356],[140.73409,38.24339],[140.73514,38.24275],[140.73573,38.24267],[140.73862,38.24332],[140.73905,38.2442],[140.74059,38.24439],[140.74107,38.2442],[140.74208,38.24466],[140.74398,38.24461],[140.74517,38.24504],[140.74615,38.24511],[140.74707,38.24471],[140.74768,38.24482],[140.74856,38.24574],[140.74962,38.24575],[140.75084,38.24521],[140.75018,38.24365],[140.75035,38.24327],[140.75162,38.24266],[140.75361,38.24206],[140.75417,38.24217],[140.75511,38.24184],[140.75611,38.24231],[140.75751,38.24151],[140.75813,38.24236],[140.75988,38.2425],[140.76041,38.2427],[140.76249,38.24295],[140.76364,38.24265],[140.76532,38.24263],[140.76682,38.242],[140.76889,38.24308],[140.77098,38.24373],[140.77257,38.24528],[140.77282,38.24597],[140.77503,38.24752],[140.77614,38.24923],[140.77718,38.25039],[140.77908,38.2513],[140.77952,38.25265],[140.77995,38.25254],[140.78007,38.25157],[140.78051,38.2502],[140.78109,38.24923],[140.78187,38.24865],[140.78205,38.24809],[140.78376,38.24643],[140.78554,38.2457],[140.78665,38.24567],[140.78863,38.2449],[140.78909,38.24421],[140.7909,38.24472],[140.79238,38.24438],[140.79336,38.24473],[140.79427,38.24479],[140.7951,38.24533],[140.79562,38.24506],[140.79461,38.24331],[140.79443,38.24246],[140.79512,38.24101],[140.79525,38.24004],[140.79489,38.23841],[140.79546,38.23642],[140.79723,38.23716],[140.79804,38.23773],[140.79859,38.23856],[140.79982,38.23865],[140.80173,38.23945],[140.80194,38.23994],[140.80277,38.24042],[140.80532,38.241],[140.80586,38.24075],[140.80775,38.24121],[140.80755,38.24208],[140.80628,38.24308],[140.80584,38.24415],[140.80467,38.24508],[140.80454,38.24636],[140.8076,38.24745],[140.809,38.25011],[140.81037,38.24972],[140.81174,38.24899],[140.81338,38.24858],[140.81624,38.2486],[140.81823,38.2482],[140.81978,38.2474],[140.82116,38.24695],[140.82199,38.24643],[140.82379,38.24704],[140.82563,38.24651],[140.82595,38.24555],[140.82585,38.24462],[140.82669,38.24462],[140.82753,38.24511],[140.82787,38.2457],[140.82949,38.2461],[140.83024,38.24589],[140.83251,38.24433],[140.8333,38.24406],[140.83577,38.2463],[140.83729,38.24641],[140.83839,38.24599],[140.8392,38.24645],[140.83975,38.24595],[140.8411,38.24587],[140.84093,38.24644],[140.84211,38.24688],[140.84318,38.24823],[140.84412,38.24832],[140.84434,38.24884],[140.84508,38.24924],[140.84592,38.24932],[140.84575,38.25032],[140.84695,38.25039],[140.84778,38.25021],[140.84819,38.2495],[140.849,38.24946],[140.8498,38.24992],[140.85192,38.25058],[140.85285,38.25011],[140.85413,38.25049],[140.85675,38.24967],[140.85725,38.24932],[140.85836,38.25004],[140.85893,38.25014],[140.86081,38.24968],[140.86122,38.24937],[140.86281,38.24988],[140.86366,38.24973],[140.86409,38.25038],[140.86466,38.25045],[140.86639,38.25013],[140.86695,38.24948],[140.86813,38.2494],[140.86826,38.24861],[140.86879,38.24768],[140.87027,38.24672],[140.87141,38.24651],[140.87236,38.24667],[140.87417,38.24745],[140.87629,38.24761],[140.87846,38.24729],[140.87999,38.24672],[140.88098,38.24966],[140.88137,38.2512],[140.88205,38.25511],[140.88317,38.25498],[140.88261,38.25621],[140.88278,38.25725],[140.88329,38.25839],[140.88377,38.2585],[140.88351,38.25942],[140.8837,38.26067],[140.88269,38.26193],[140.88305,38.26318],[140.88453,38.26463],[140.88547,38.26524],[140.89181,38.26754],[140.89428,38.26848],[140.89545,38.26922],[140.89644,38.26947],[140.89737,38.27015],[140.89755,38.27136],[140.89691,38.27255],[140.89544,38.27366],[140.89313,38.27472],[140.89309,38.27588],[140.89245,38.27604],[140.89267,38.27674],[140.89267,38.27965],[140.89321,38.27959],[140.89404,38.2789],[140.89577,38.27858],[140.89693,38.27932],[140.8977,38.28036],[140.89873,38.2802],[140.89968,38.28158],[140.89789,38.28199],[140.89717,38.28199],[140.89505,38.28267],[140.8955,38.28322],[140.89652,38.28369],[140.89701,38.28483],[140.89722,38.28626],[140.8957,38.2867],[140.89406,38.28786],[140.89297,38.28737],[140.89201,38.28731],[140.89179,38.28864],[140.89025,38.28988],[140.89068,38.29076],[140.89032,38.29326],[140.88986,38.29521],[140.88958,38.2958],[140.88947,38.29737],[140.88891,38.3005],[140.88341,38.30237],[140.88243,38.30293],[140.88166,38.30308],[140.88118,38.30355],[140.88108,38.30523],[140.88118,38.30626],[140.88072,38.30747],[140.87995,38.3082],[140.88034,38.30915],[140.87964,38.30942],[140.87917,38.30862],[140.87876,38.30688],[140.87761,38.30601],[140.87567,38.3051],[140.87452,38.30481],[140.87359,38.30372],[140.8716,38.30301],[140.87046,38.30163],[140.86939,38.30071],[140.86799,38.30047],[140.86554,38.30082],[140.86477,38.3013],[140.86375,38.30092],[140.86318,38.30115],[140.86284,38.30238],[140.86092,38.30309],[140.8583,38.30346],[140.8577,38.30377],[140.85659,38.30501],[140.85626,38.30611],[140.85667,38.30771],[140.85731,38.30903],[140.85639,38.3094],[140.85572,38.30874],[140.85415,38.30887],[140.8534,38.30966],[140.85295,38.30923],[140.8517,38.30869],[140.85003,38.30879],[140.84814,38.31065],[140.84685,38.31046],[140.84654,38.30985],[140.84502,38.30957],[140.84337,38.30871],[140.84322,38.30804],[140.84201,38.30782],[140.84022,38.30723],[140.8391,38.3077],[140.83756,38.30797],[140.83554,38.30776],[140.83525,38.30806],[140.83371,38.30793],[140.8324,38.30837],[140.83205,38.30797],[140.83205,38.30703],[140.83134,38.30579],[140.83179,38.30451],[140.83101,38.30175],[140.83088,38.30056],[140.82994,38.29999],[140.83013,38.29843],[140.8295,38.29784],[140.8291,38.29653],[140.82703,38.29673],[140.82636,38.29697],[140.82537,38.29789],[140.82461,38.29806],[140.82177,38.29959],[140.81883,38.30133],[140.8179,38.30244],[140.81526,38.30306],[140.81366,38.30443],[140.81329,38.30534],[140.81189,38.30523],[140.81115,38.30548],[140.80962,38.30507],[140.80948,38.30337],[140.80965,38.30262],[140.80868,38.30285],[140.80697,38.30286],[140.80596,38.30376],[140.80458,38.30377],[140.80468,38.30416],[140.80376,38.30446],[140.80264,38.30439],[140.80242,38.30622],[140.80084,38.3063],[140.8011,38.30739],[140.79836,38.30797],[140.79522,38.30844],[140.79311,38.3089],[140.792,38.3094],[140.79184,38.31115],[140.79212,38.3117],[140.79287,38.31216],[140.79307,38.31276],[140.79236,38.31463],[140.79223,38.31648],[140.79187,38.31716],[140.79016,38.31841],[140.79,38.32008],[140.78962,38.32135],[140.78912,38.32193],[140.78786,38.32232],[140.78712,38.32278],[140.78625,38.32238],[140.78464,38.32235],[140.78303,38.32209],[140.7809,38.32248],[140.77936,38.32209],[140.77866,38.32276],[140.77798,38.32232],[140.77657,38.3225],[140.77604,38.3228],[140.77462,38.32278],[140.77307,38.32411],[140.77208,38.32412],[140.77202,38.32341],[140.76989,38.32404],[140.76908,38.32335],[140.76832,38.32352],[140.76741,38.3232],[140.76692,38.32347],[140.76541,38.32302],[140.76527,38.32248],[140.7643,38.32246],[140.7626,38.32292],[140.76186,38.32262],[140.76108,38.32268],[140.76054,38.32322],[140.75927,38.32223],[140.75869,38.32269],[140.75738,38.32227],[140.75617,38.32395],[140.75527,38.32436],[140.75436,38.32422],[140.75403,38.32506],[140.75289,38.32463],[140.75017,38.32611],[140.74931,38.32699],[140.74642,38.32887],[140.74393,38.32947],[140.74255,38.32917],[140.74122,38.32962],[140.73946,38.3298],[140.7383,38.33147],[140.73759,38.33272],[140.73672,38.3331],[140.73466,38.33347],[140.7331,38.33413],[140.7317,38.33421],[140.73074,38.33453],[140.73039,38.33516],[140.72876,38.33611],[140.72833,38.33695],[140.72699,38.33717],[140.72528,38.33647],[140.72438,38.33699],[140.72376,38.33862],[140.72243,38.33894],[140.72191,38.3396],[140.71978,38.34022],[140.71796,38.34059],[140.71774,38.34124],[140.71868,38.34208],[140.71812,38.34306],[140.71837,38.34351],[140.71812,38.34458],[140.71978,38.34497],[140.72014,38.34537],[140.72181,38.3463],[140.72246,38.34779],[140.72377,38.34879],[140.72445,38.34959],[140.72582,38.35021],[140.72679,38.35015],[140.72891,38.35085],[140.73025,38.35152],[140.73104,38.35223],[140.73047,38.35287],[140.7307,38.3539],[140.73195,38.35519],[140.73305,38.35583],[140.7332,38.35688],[140.73284,38.35779],[140.73307,38.3587],[140.73209,38.35847],[140.73136,38.3586],[140.73052,38.35954],[140.7298,38.35997],[140.72655,38.36054],[140.72519,38.36057],[140.7244,38.36094],[140.72428,38.36164],[140.7231,38.36164],[140.72118,38.36247],[140.71971,38.36248],[140.71831,38.36282],[140.71754,38.3634],[140.71626,38.36365],[140.71472,38.36452],[140.71378,38.36573],[140.71241,38.36613],[140.71174,38.36668],[140.70987,38.36732],[140.70941,38.36785],[140.70855,38.36797],[140.70762,38.36851],[140.70686,38.36859],[140.70636,38.36922],[140.70399,38.3712],[140.70349,38.37116],[140.70196,38.37188],[140.69989,38.37363],[140.69949,38.37411],[140.69817,38.37447],[140.6968,38.3746],[140.69394,38.37655],[140.69305,38.37698],[140.69272,38.37745],[140.69194,38.37748],[140.69133,38.37801],[140.69059,38.3781],[140.69018,38.37879],[140.6894,38.37921],[140.6884,38.38177],[140.68777,38.38244],[140.68844,38.38378],[140.68991,38.38515],[140.69089,38.38554],[140.69166,38.38689],[140.69169,38.38805],[140.69269,38.3888],[140.69323,38.38996],[140.69407,38.39018],[140.69532,38.38971],[140.69664,38.39155],[140.69734,38.39222],[140.69856,38.39477],[140.69978,38.39635],[140.70011,38.3984],[140.69987,38.40138],[140.69969,38.4022],[140.69899,38.40355],[140.69856,38.40576],[140.69803,38.40744],[140.69719,38.40943],[140.69659,38.41019],[140.69393,38.41265],[140.69346,38.4132],[140.69372,38.41408],[140.69687,38.41564],[140.69667,38.41618],[140.6969,38.41961],[140.69784,38.42058],[140.69798,38.42144],[140.69705,38.42229],[140.69667,38.42352],[140.69613,38.42426],[140.69589,38.42529],[140.69397,38.42579],[140.69248,38.42592],[140.69077,38.42562],[140.68958,38.42558],[140.68773,38.42584],[140.68579,38.42645],[140.6825,38.42656],[140.68112,38.42745],[140.67973,38.42899],[140.67688,38.4308],[140.67477,38.43148],[140.67325,38.43218],[140.67055,38.43273],[140.6647,38.43272],[140.66114,38.4322],[140.65917,38.43221],[140.65862,38.43246],[140.65781,38.43339],[140.65573,38.4352],[140.65544,38.43571],[140.65382,38.43717],[140.65177,38.43784],[140.65021,38.43782],[140.64846,38.43754],[140.64687,38.43697],[140.64596,38.43686],[140.64279,38.43687],[140.64242,38.43758],[140.64077,38.43784],[140.63887,38.43895],[140.63711,38.43935],[140.63491,38.44123],[140.63373,38.44173],[140.63358,38.44302],[140.63295,38.4434],[140.63032,38.44304],[140.62691,38.4436],[140.62722,38.44435],[140.62637,38.44542],[140.62634,38.44701],[140.62585,38.44728],[140.62471,38.44762],[140.6238,38.4494],[140.62388,38.45099],[140.62338,38.45179],[140.62251,38.45254],[140.6209,38.45245],[140.61989,38.45333],[140.61968,38.45469],[140.61496,38.45427],[140.61344,38.4536],[140.61258,38.4527],[140.61181,38.45091],[140.61107,38.44987],[140.61027,38.44761],[140.60962,38.44644],[140.6086,38.44566],[140.60836,38.44471],[140.60736,38.44419],[140.60562,38.44436],[140.60443,38.44404],[140.60306,38.443],[140.60265,38.44179],[140.60211,38.44105],[140.6006,38.4407],[140.5992,38.43928],[140.59776,38.43653],[140.59645,38.43746],[140.59574,38.43862],[140.59488,38.43921],[140.59421,38.44024],[140.59236,38.44172],[140.59113,38.43996],[140.58977,38.43917],[140.58843,38.43946],[140.58729,38.44024],[140.58615,38.44053],[140.58533,38.44042],[140.58418,38.43965],[140.58315,38.4393],[140.58241,38.43864],[140.58195,38.43776],[140.58063,38.43744],[140.58046,38.4367],[140.58054,38.43489],[140.58142,38.43421],[140.5817,38.43344],[140.581,38.43148],[140.58114,38.43045],[140.58041,38.42835],[140.58053,38.42697],[140.57961,38.42572],[140.57922,38.42484],[140.5794,38.42318],[140.57804,38.42237],[140.57792,38.42136],[140.57831,38.42035],[140.5774,38.41924],[140.57509,38.4172],[140.57403,38.41611],[140.57327,38.4156],[140.57204,38.41516],[140.5716,38.41438],[140.5713,38.41311],[140.57151,38.41183],[140.5713,38.41057],[140.5726,38.40934],[140.57372,38.40772],[140.57335,38.4057],[140.57368,38.40499],[140.57441,38.40418],[140.57402,38.40316],[140.5743,38.40157],[140.57418,38.4002],[140.57461,38.39752],[140.57453,38.39668],[140.5767,38.39566],[140.57709,38.3953],[140.57823,38.39296],[140.577,38.39229],[140.57571,38.39131],[140.5745,38.38996],[140.57296,38.38904],[140.57185,38.38867],[140.57144,38.38737],[140.56757,38.38533],[140.56747,38.38469],[140.56674,38.3837],[140.56568,38.38138],[140.56535,38.38039],[140.564,38.37865],[140.56368,38.37744],[140.56324,38.3772]]]]}},
  {"type":"Feature","properties":{"name":"宮城野区","code":"04102"},"geometry":{"type":"MultiPolygon","coordinates":[[[[140.88278,38.25725],[140.8836,38.25747],[140.88866,38.25725],[140.89509,38.25659],[140.89716,38.25586],[140.89636,38.25493],[140.89829,38.25387],[140.89899,38.25378],[140.90586,38.25341],[140.90663,38.25326],[140.90956,38.25209],[140.91735,38.25183],[140.91805,38.25297],[140.91801,38.25692],[140.9204,38.25695],[140.92036,38.26128],[140.92982,38.26127],[140.93038,38.26138],[140.93839,38.2614],[140.93818,38.26012],[140.94345,38.26012],[140.94661,38.26004],[140.94946,38.26005],[140.95729,38.25896],[140.95787,38.2588],[140.95782,38.25524],[140.95896,38.25213],[140.95883,38.25172],[140.95989,38.25028],[140.96112,38.24975],[140.96241,38.24972],[140.96245,38.24852],[140.96221,38.24697],[140.96272,38.24566],[140.96392,38.24505],[140.96478,38.24487],[140.96569,38.2442],[140.96636,38.24409],[140.97001,38.24046],[140.9716,38.24106],[140.97174,38.24202],[140.97256,38.24188],[140.97283,38.24142],[140.97278,38.23966],[140.97182,38.23874],[140.97141,38.23755],[140.97505,38.23653],[140.9753,38.23721],[140.98145,38.23368],[140.98221,38.23332],[140.98286,38.23435],[140.98658,38.23216],[140.98751,38.23328],[140.99049,38.23217],[140.99532,38.22972],[140.99611,38.23058],[140.99711,38.23203],[141.00135,38.23713],[141.00423,38.24091],[141.00622,38.24313],[141.00719,38.24451],[141.01219,38.25074],[141.01291,38.25143],[141.01468,38.25393],[141.01615,38.2553],[141.01782,38.25805],[141.01873,38.25976],[141.0208,38.26289],[141.02228,38.26433],[141.02278,38.26439],[141.02616,38.26409],[141.02723,38.26505],[141.02786,38.26527],[141.03558,38.26565],[141.04672,38.26467],[141.04674,38.2648],[141.03557,38.26578],[141.03233,38.2656],[141.03325,38.26662],[141.02886,38.26703],[141.02951,38.2665],[141.02856,38.26567],[141.02793,38.26563],[141.0267,38.2665],[141.02674,38.26758],[140.99851,38.26999],[140.99892,38.27311],[141.0037,38.27271],[141.00326,38.27334],[141.00346,38.27386],[141.00569,38.27335],[141.00582,38.27363],[141.00807,38.27314],[141.01017,38.27297],[141.01214,38.27197],[141.02154,38.27117],[141.02156,38.27136],[141.02497,38.27107],[141.02541,38.27265],[141.02589,38.27639],[141.02822,38.2817],[141.02852,38.28226],[141.02759,38.28273],[141.02692,38.28214],[141.02554,38.28314],[141.02479,38.28266],[141.02053,38.28041],[141.01851,38.27948],[141.01455,38.2775],[141.01288,38.2764],[141.01152,38.27648],[141.01119,38.27723],[141.01036,38.2775],[141.00932,38.27727],[141.00915,38.27824],[141.01017,38.27843],[141.01017,38.27957],[141.00861,38.27926],[141.00721,38.2788],[141.00584,38.27994],[141.00536,38.28074],[141.00561,38.28125],[141.0071,38.28185],[141.00666,38.28271],[141.00478,38.28149],[141.00379,38.28166],[141.00227,38.28093],[141.00143,38.282],[141.00034,38.28148],[140.99924,38.28137],[140.99825,38.28152],[140.99813,38.28201],[140.99593,38.28189],[140.99573,38.28299],[140.99438,38.28286],[140.99409,38.28343],[140.9912,38.28377],[140.98868,38.28418],[140.98682,38.28391],[140.98252,38.28376],[140.97587,38.2836],[140.97574,38.28433],[140.97366,38.28431],[140.9725,38.28543],[140.97091,38.28604],[140.96855,38.28616],[140.96781,38.28651],[140.96683,38.28655],[140.96602,38.28623],[140.9662,38.2854],[140.96351,38.28594],[140.96309,38.28617],[140.96221,38.28742],[140.96179,38.28868],[140.96087,38.28966],[140.95928,38.29008],[140.95889,38.29067],[140.95891,38.29142],[140.95994,38.29182],[140.9608,38.29288],[140.96043,38.29406],[140.95959,38.29484],[140.95817,38.29495],[140.95645,38.29625],[140.95655,38.29752],[140.95713,38.29835],[140.9571,38.29948],[140.95771,38.3007],[140.95974,38.3005],[140.96041,38.30166],[140.95831,38.30189],[140.95949,38.30289],[140.9614,38.30486],[140.95984,38.30605],[140.9627,38.3096],[140.95892,38.30961],[140.9575,38.31008],[140.95816,38.31154],[140.95891,38.3118],[140.96015,38.31277],[140.95968,38.31341],[140.95752,38.31288],[140.95702,38.31251],[140.95723,38.31185],[140.95592,38.31076],[140.95562,38.31018],[140.95476,38.30966],[140.95357,38.30848],[140.9511,38.30986],[140.94945,38.30982],[140.94907,38.30935],[140.9476,38.30864],[140.94689,38.3096],[140.94637,38.31084],[140.94486,38.31085],[140.94417,38.31176],[140.94269,38.31219],[140.94212,38.31359],[140.9415,38.31406],[140.94127,38.31481],[140.93823,38.31596],[140.93641,38.31689],[140.9368,38.31756],[140.9362,38.32013],[140.93563,38.3207],[140.93628,38.3212],[140.93661,38.3224],[140.93597,38.32381],[140.93582,38.32501],[140.93611,38.32607],[140.93796,38.32684],[140.93907,38.32695],[140.93923,38.32911],[140.93874,38.33004],[140.93755,38.33015],[140.93686,38.33172],[140.93775,38.33379],[140.93853,38.33417],[140.93954,38.33535],[140.94051,38.3374],[140.93926,38.33762],[140.93762,38.33646],[140.93616,38.33794],[140.9357,38.33939],[140.93415,38.3408],[140.93251,38.34001],[140.93164,38.33987],[140.93108,38.34012],[140.92978,38.33983],[140.92803,38.33857],[140.92682,38.33835],[140.92654,38.33777],[140.927,38.33689],[140.92741,38.33548],[140.92717,38.33489],[140.92744,38.33394],[140.92726,38.33309],[140.92727,38.33188],[140.9275,38.33115],[140.92822,38.33029],[140.92849,38.3295],[140.92944,38.3288],[140.93079,38.32837],[140.93174,38.32862],[140.9324,38.32799],[140.93202,38.32605],[140.93176,38.32555],[140.93194,38.32415],[140.93171,38.32328],[140.93136,38.31993],[140.93101,38.31847],[140.93099,38.3175],[140.93065,38.31693],[140.931,38.31613],[140.93054,38.31467],[140.93025,38.31303],[140.93031,38.31226],[140.92966,38.3117],[140.92965,38.31049],[140.92918,38.30914],[140.92927,38.30649],[140.92658,38.30608],[140.92539,38.30579],[140.92552,38.30534],[140.92435,38.30498],[140.92345,38.30405],[140.92226,38.30385],[140.92231,38.30324],[140.92156,38.30306],[140.92007,38.30359],[140.91902,38.30349],[140.91863,38.30278],[140.91834,38.30098],[140.91779,38.29996],[140.91719,38.29977],[140.91672,38.29882],[140.914,38.29814],[140.91259,38.29712],[140.91159,38.29595],[140.90974,38.29604],[140.90926,38.29582],[140.90912,38.29504],[140.90831,38.2943],[140.90655,38.2932],[140.90382,38.29126],[140.90297,38.29182],[140.90021,38.29253],[140.89927,38.29251],[140.89785,38.2912],[140.8961,38.29052],[140.89485,38.28936],[140.89406,38.28786],[140.8957,38.2867],[140.89722,38.28626],[140.89701,38.28483],[140.89652,38.28369],[140.8955,38.28322],[140.89505,38.28267],[140.89717,38.28199],[140.89789,38.28199],[140.89968,38.28158],[140.89873,38.2802],[140.8977,38.28036],[140.89693,38.27932],[140.89577,38.27858],[140.89404,38.2789],[140.89321,38.27959],[140.89267,38.27965],[140.89267,38.27674],[140.89245,38.27604],[140.89309,38.27588],[140.89313,38.27472],[140.89544,38.27366],[140.89691,38.27255],[140.89755,38.27136],[140.89737,38.27015],[140.89644,38.26947],[140.89545,38.26922],[140.89428,38.26848],[140.89181,38.26754],[140.88547,38.26524],[140.88453,38.26463],[140.88305,38.26318],[140.88269,38.26193],[140.8837,38.26067],[140.88351,38.25942],[140.88377,38.2585],[140.88329,38.25839],[140.88278,38.25725]]],[[[141.04346,38.27681],[141.04151,38.27995],[141.04061,38.28071],[141.0398,38.28194],[141.03838,38.28273],[141.03746,38.28292],[141.03647,38.28247],[141.03501,38.28234],[141.03437,38.28183],[141.03423,38.28105],[141.03289,38.28026],[141.0322,38.28037],[141.03131,38.28071],[141.03105,38.2803],[141.02947,38.27665],[141.02957,38.27557],[141.03447,38.27427],[141.03614,38.27407],[141.03642,38.27374],[141.04031,38.2727],[141.04316,38.27396],[141.04435,38.27478],[141.04346,38.27681]]]]}},
  {"type":"Feature","properties":{"name":"若林区","code":"04103"},"geometry":{"type":"MultiPolygon","coordinates":[[[[140.87999,38.24672],[140.88073,38.24624],[140.883,38.24411],[140.88671,38.23857],[140.88931,38.23566],[140.8898,38.23495],[140.8911,38.23374],[140.89342,38.23239],[140.89453,38.23137],[140.89472,38.23081],[140.89591,38.22976],[140.89844,38.22706],[140.90052,38.22566],[140.90182,38.2252],[140.90527,38.22373],[140.90645,38.22337],[140.90684,38.223],[140.90712,38.22168],[140.90804,38.22063],[140.90902,38.22016],[140.91048,38.21878],[140.91006,38.21647],[140.90891,38.21376],[140.90834,38.21077],[140.90753,38.20884],[140.91312,38.20546],[140.91923,38.19982],[140.91999,38.19935],[140.9228,38.19857],[140.93163,38.19828],[140.93329,38.19765],[140.93419,38.1985],[140.93507,38.19867],[140.93591,38.19764],[140.93587,38.19656],[140.93633,38.19488],[140.93668,38.19245],[140.93688,38.19002],[140.9371,38.18929],[140.93922,38.18698],[140.94026,38.18602],[140.9415,38.18528],[140.94483,38.18424],[140.9471,38.18365],[140.94821,38.18308],[140.94957,38.18186],[140.9514,38.17988],[140.95529,38.17795],[140.9591,38.17617],[140.96019,38.17543],[140.96086,38.17599],[140.96157,38.17847],[140.96289,38.18131],[140.9641,38.18319],[140.96497,38.18524],[140.96589,38.18697],[140.96636,38.18831],[140.96772,38.19098],[140.96825,38.19171],[140.96911,38.19204],[140.9707,38.19449],[140.97115,38.19553],[140.9722,38.1973],[140.97348,38.19903],[140.9743,38.20068],[140.97546,38.20252],[140.97657,38.204],[140.97937,38.20821],[140.97981,38.20857],[140.9812,38.21073],[140.98353,38.21333],[140.98464,38.21396],[140.98506,38.21479],[140.98573,38.21532],[140.98606,38.21639],[140.98655,38.21683],[140.98774,38.21904],[140.98851,38.21959],[140.98936,38.22098],[140.98971,38.22201],[140.99085,38.22402],[140.99199,38.22526],[140.99271,38.22636],[140.9942,38.2281],[140.99532,38.22972],[140.99049,38.23217],[140.98751,38.23328],[140.98658,38.23216],[140.98286,38.23435],[140.98221,38.23332],[140.98145,38.23368],[140.9753,38.23721],[140.97505,38.23653],[140.97141,38.23755],[140.97182,38.23874],[140.97278,38.23966],[140.97283,38.24142],[140.97256,38.24188],[140.97174,38.24202],[140.9716,38.24106],[140.97001,38.24046],[140.96636,38.24409],[140.96569,38.2442],[140.96478,38.24487],[140.96392,38.24505],[140.96272,38.24566],[140.96221,38.24697],[140.96245,38.24852],[140.96241,38.24972],[140.96112,38.24975],[140.95989,38.25028],[140.95883,38.25172],[140.95896,38.25213],[140.95782,38.25524],[140.95787,38.2588],[140.95729,38.25896],[140.94946,38.26005],[140.94661,38.26004],[140.94345,38.26012],[140.93818,38.26012],[140.93839,38.2614],[140.93038,38.26138],[140.92982,38.26127],[140.92036,38.26128],[140.9204,38.25695],[140.91801,38.25692],[140.91805,38.25297],[140.91735,38.25183],[140.90956,38.25209],[140.90663,38.25326],[140.90586,38.25341],[140.89899,38.25378],[140.89829,38.25387],[140.89636,38.25493],[140.89716,38.25586],[140.89509,38.25659],[140.88866,38.25725],[140.8836,38.25747],[140.88278,38.25725],[140.88261,38.25621],[140.88317,38.25498],[140.88205,38.25511],[140.88137,38.2512],[140.88098,38.24966],[140.87999,38.24672]]]]}},
  {"type":"Feature","properties":{"name":"太白区","code":"04104"},"geometry":{"type":"MultiPolygon","coordinates":[[[[140.56324,38.3772],[140.56112,38.37716],[140.56033,38.37777],[140.55882,38.3774],[140.55655,38.3776],[140.55517,38.37724],[140.55384,38.37641],[140.55258,38.37653],[140.55079,38.37459],[140.55001,38.37266],[140.54955,38.37221],[140.55034,38.3709],[140.54861,38.36928],[140.54767,38.36869],[140.54691,38.36588],[140.5454,38.36407],[140.54385,38.36385],[140.54315,38.36355],[140.54086,38.36209],[140.53797,38.36231],[140.53628,38.36217],[140.53565,38.36196],[140.5346,38.36223],[140.53374,38.36209],[140.5311,38.36087],[140.53021,38.36021],[140.52929,38.35993],[140.52761,38.35845],[140.52631,38.35753],[140.5249,38.35515],[140.52393,38.35452],[140.52275,38.35318],[140.52185,38.35056],[140.52167,38.34963],[140.52209,38.34892],[140.52211,38.34822],[140.52158,38.34757],[140.52217,38.34504],[140.52317,38.34377],[140.52378,38.34272],[140.5241,38.34109],[140.52378,38.33934],[140.52504,38.33628],[140.52537,38.33363],[140.52511,38.33268],[140.52726,38.33042],[140.52759,38.32976],[140.52759,38.32818],[140.52801,38.32731],[140.53066,38.3252],[140.52932,38.32426],[140.52922,38.32348],[140.52858,38.32262],[140.52871,38.32211],[140.52983,38.32091],[140.52974,38.3207],[140.52788,38.32019],[140.52812,38.31924],[140.52791,38.31887],[140.52658,38.31857],[140.5259,38.31809],[140.52576,38.31744],[140.52391,38.3168],[140.52338,38.31585],[140.52271,38.31519],[140.52191,38.31399],[140.5218,38.3117],[140.52088,38.31006],[140.52028,38.30952],[140.51922,38.30966],[140.51828,38.31022],[140.51646,38.31092],[140.5155,38.31111],[140.51429,38.31093],[140.51278,38.31117],[140.51174,38.31116],[140.50942,38.31324],[140.50791,38.31352],[140.5064,38.31411],[140.50431,38.31414],[140.50472,38.31312],[140.50474,38.31122],[140.50428,38.30807],[140.50349,38.3072],[140.50256,38.30545],[140.50069,38.30381],[140.50013,38.30368],[140.49799,38.3037],[140.4962,38.30402],[140.49459,38.30271],[140.49308,38.30287],[140.49259,38.30269],[140.49234,38.30165],[140.4931,38.30034],[140.49192,38.29686],[140.49216,38.29588],[140.49282,38.29546],[140.49253,38.29276],[140.49293,38.29067],[140.49382,38.28916],[140.49421,38.28769],[140.49558,38.28607],[140.49528,38.28515],[140.49695,38.28314],[140.49616,38.28287],[140.49514,38.28163],[140.49305,38.28082],[140.49199,38.28012],[140.4915,38.27907],[140.49123,38.27792],[140.49059,38.27642],[140.48873,38.27525],[140.48788,38.2745],[140.48603,38.27433],[140.48457,38.27369],[140.48312,38.2737],[140.48172,38.27333],[140.47976,38.27362],[140.47718,38.27288],[140.47582,38.27238],[140.47486,38.27156],[140.47301,38.27182],[140.47257,38.2706],[140.47118,38.26936],[140.47145,38.26867],[140.47155,38.26603],[140.47128,38.26513],[140.47225,38.26432],[140.47226,38.26265],[140.47281,38.2614],[140.4727,38.26051],[140.47232,38.2602],[140.47044,38.25947],[140.46965,38.2581],[140.4695,38.25641],[140.47015,38.25589],[140.4711,38.25464],[140.47195,38.25295],[140.47253,38.25223],[140.47528,38.25149],[140.47637,38.25139],[140.47762,38.2516],[140.47814,38.25195],[140.47885,38.25339],[140.4794,38.25388],[140.48027,38.25414],[140.48116,38.2552],[140.48213,38.25512],[140.4835,38.25534],[140.48471,38.25573],[140.48551,38.25575],[140.48629,38.25648],[140.48755,38.25619],[140.48965,38.25636],[140.49046,38.25575],[140.49158,38.25526],[140.49256,38.25514],[140.49318,38.25573],[140.49453,38.2564],[140.49549,38.25665],[140.49715,38.25622],[140.49974,38.25613],[140.50099,38.25545],[140.50164,38.25546],[140.50307,38.25634],[140.50435,38.25833],[140.50546,38.25886],[140.50763,38.25933],[140.51065,38.25958],[140.51154,38.25942],[140.51282,38.25981],[140.51557,38.26005],[140.51887,38.25975],[140.51931,38.25992],[140.52074,38.26114],[140.52277,38.26173],[140.52338,38.26137],[140.52401,38.25995],[140.52576,38.2594],[140.52707,38.25975],[140.52897,38.25973],[140.53044,38.25957],[140.53252,38.25988],[140.53409,38.2597],[140.53514,38.25993],[140.53583,38.26048],[140.53671,38.26189],[140.53785,38.26331],[140.53963,38.26322],[140.54135,38.26383],[140.5446,38.26241],[140.54834,38.26131],[140.54875,38.26145],[140.55048,38.26293],[140.55139,38.26406],[140.55237,38.26443],[140.55371,38.26547],[140.55451,38.26578],[140.55733,38.26624],[140.5577,38.26681],[140.55889,38.26684],[140.56032,38.26723],[140.56257,38.26753],[140.5642,38.26666],[140.56508,38.26687],[140.56568,38.26594],[140.56626,38.26578],[140.56758,38.26617],[140.5691,38.26575],[140.57033,38.26632],[140.57237,38.26622],[140.57346,38.26559],[140.5748,38.26561],[140.57685,38.26505],[140.57718,38.26463],[140.57857,38.26419],[140.57998,38.26441],[140.58105,38.26368],[140.58327,38.26404],[140.58458,38.26387],[140.58524,38.26316],[140.58694,38.26373],[140.58869,38.264],[140.5913,38.26392],[140.59257,38.26401],[140.59418,38.26462],[140.59639,38.26463],[140.59767,38.26424],[140.59887,38.2644],[140.60016,38.26422],[140.60242,38.26356],[140.60467,38.26339],[140.60538,38.26365],[140.60636,38.26476],[140.60735,38.26529],[140.6079,38.26519],[140.61029,38.26408],[140.61206,38.26281],[140.61188,38.26233],[140.61226,38.26139],[140.61304,38.26089],[140.61381,38.26082],[140.616,38.26128],[140.61688,38.26037],[140.61768,38.2602],[140.61888,38.2595],[140.62047,38.2595],[140.62162,38.25857],[140.62378,38.25861],[140.62676,38.25847],[140.62798,38.25822],[140.63013,38.25825],[140.63134,38.25752],[140.633,38.25708],[140.63426,38.25653],[140.63617,38.25495],[140.6374,38.25436],[140.63952,38.25392],[140.64053,38.25319],[140.64122,38.25311],[140.64249,38.25249],[140.64328,38.2516],[140.64445,38.25094],[140.64718,38.2498],[140.64806,38.24964],[140.65,38.24884],[140.65097,38.24816],[140.65258,38.24753],[140.65288,38.24703],[140.65405,38.24665],[140.65513,38.24578],[140.65542,38.24493],[140.65491,38.24481],[140.65288,38.24511],[140.65169,38.24459],[140.65149,38.24377],[140.65076,38.24295],[140.65097,38.24182],[140.65032,38.24071],[140.65066,38.24038],[140.65209,38.24028],[140.653,38.24043],[140.65376,38.23998],[140.65517,38.23986],[140.65661,38.24057],[140.65791,38.23944],[140.65892,38.23917],[140.66058,38.23932],[140.6624,38.23878],[140.66329,38.2388],[140.66388,38.23934],[140.66681,38.23967],[140.66885,38.23965],[140.67078,38.23982],[140.67179,38.23978],[140.6706,38.23851],[140.67026,38.23766],[140.67056,38.2372],[140.67035,38.23627],[140.67253,38.2346],[140.67345,38.2344],[140.67516,38.23351],[140.67709,38.23279],[140.67755,38.23118],[140.67885,38.23024],[140.67922,38.22963],[140.67986,38.22939],[140.68155,38.22976],[140.68324,38.22945],[140.68421,38.22973],[140.68634,38.22918],[140.68588,38.2281],[140.68423,38.2269],[140.68406,38.2265],[140.68312,38.22598],[140.68374,38.22503],[140.68575,38.22505],[140.68722,38.22487],[140.68971,38.2234],[140.69059,38.2232],[140.6923,38.22195],[140.69189,38.22291],[140.69215,38.22344],[140.69314,38.22375],[140.69578,38.22308],[140.69642,38.22322],[140.69831,38.22299],[140.70051,38.22134],[140.70135,38.22109],[140.70233,38.22],[140.70415,38.21988],[140.7074,38.21916],[140.70772,38.21869],[140.70868,38.21864],[140.71026,38.21829],[140.71084,38.21781],[140.71164,38.21843],[140.71217,38.21798],[140.71395,38.21753],[140.71695,38.2176],[140.71866,38.21692],[140.71922,38.21634],[140.71991,38.217],[140.72077,38.2171],[140.72124,38.21665],[140.72228,38.21655],[140.72318,38.21591],[140.72367,38.21482],[140.72446,38.21488],[140.72536,38.21455],[140.72606,38.2148],[140.72711,38.21432],[140.7284,38.21402],[140.72868,38.21323],[140.72964,38.21245],[140.73047,38.21237],[140.73056,38.21189],[140.73233,38.21184],[140.73388,38.21116],[140.73573,38.21071],[140.73662,38.21012],[140.73786,38.20898],[140.73775,38.20835],[140.73839,38.20792],[140.7374,38.20617],[140.73815,38.20531],[140.73828,38.20468],[140.7394,38.20305],[140.73961,38.20239],[140.7402,38.20189],[140.74068,38.20075],[140.74188,38.19973],[140.74355,38.19914],[140.74442,38.19827],[140.74478,38.19698],[140.74405,38.19723],[140.74354,38.19813],[140.74305,38.19845],[140.74247,38.19792],[140.74227,38.19648],[140.7438,38.19476],[140.7436,38.19407],[140.74199,38.19408],[140.74241,38.19295],[140.74244,38.19206],[140.7432,38.18971],[140.74576,38.18759],[140.74587,38.18724],[140.74509,38.18578],[140.7452,38.18501],[140.74367,38.18287],[140.74662,38.18082],[140.74834,38.18059],[140.74884,38.17966],[140.7497,38.17904],[140.75022,38.1795],[140.75068,38.18089],[140.75168,38.18032],[140.753,38.17989],[140.75351,38.18074],[140.75438,38.18042],[140.75535,38.17893],[140.75658,38.17866],[140.75637,38.17704],[140.75671,38.17671],[140.75979,38.17756],[140.76089,38.17742],[140.76278,38.17746],[140.76316,38.17792],[140.76481,38.17821],[140.76613,38.17785],[140.76689,38.17852],[140.76784,38.1783],[140.7684,38.17756],[140.77034,38.17764],[140.7709,38.17808],[140.77221,38.17813],[140.77298,38.17847],[140.7765,38.1795],[140.77747,38.1793],[140.77811,38.17877],[140.7782,38.17819],[140.77994,38.17836],[140.78126,38.17757],[140.78201,38.1776],[140.7824,38.17711],[140.78384,38.17745],[140.78548,38.1771],[140.78652,38.17728],[140.78711,38.17578],[140.78788,38.1752],[140.79012,38.17503],[140.79197,38.1744],[140.79344,38.17439],[140.79581,38.17532],[140.79647,38.17744],[140.79643,38.17907],[140.79675,38.18025],[140.79751,38.18088],[140.80032,38.1822],[140.80269,38.18389],[140.80408,38.18427],[140.80526,38.1854],[140.80624,38.18536],[140.80743,38.18437],[140.80821,38.18411],[140.80982,38.18444],[140.81063,38.18513],[140.81175,38.18494],[140.81342,38.1851],[140.81407,38.18551],[140.81437,38.18652],[140.81521,38.18732],[140.81326,38.1873],[140.81031,38.18849],[140.80944,38.18928],[140.80751,38.19037],[140.8062,38.19265],[140.80577,38.19288],[140.80326,38.19263],[140.8021,38.19306],[140.80046,38.19334],[140.8004,38.19423],[140.79865,38.19439],[140.79797,38.19464],[140.79727,38.19434],[140.79463,38.19414],[140.79486,38.19516],[140.79549,38.19583],[140.79597,38.19716],[140.79703,38.19852],[140.7968,38.19962],[140.7956,38.2001],[140.79472,38.2008],[140.79389,38.20256],[140.79288,38.20317],[140.79213,38.20266],[140.79064,38.20303],[140.78971,38.20222],[140.78799,38.20237],[140.78683,38.20434],[140.78609,38.20525],[140.78676,38.20616],[140.78633,38.20675],[140.78533,38.20727],[140.78566,38.20832],[140.78528,38.20912],[140.7846,38.20938],[140.78448,38.2109],[140.7845,38.21302],[140.78393,38.21437],[140.78416,38.21498],[140.78542,38.21544],[140.78692,38.217],[140.78817,38.21805],[140.78894,38.21833],[140.79078,38.2186],[140.79285,38.21872],[140.79534,38.2192],[140.79697,38.21886],[140.79774,38.21824],[140.79782,38.21685],[140.7975,38.21428],[140.7977,38.21353],[140.79827,38.2128],[140.79924,38.2125],[140.80092,38.21284],[140.80252,38.21263],[140.80443,38.21184],[140.80635,38.21069],[140.80734,38.21044],[140.80857,38.21055],[140.80929,38.21089],[140.80958,38.2115],[140.80815,38.21205],[140.80796,38.21368],[140.80969,38.21372],[140.81188,38.21426],[140.81256,38.21469],[140.81259,38.21606],[140.81313,38.21709],[140.81577,38.21866],[140.81701,38.21874],[140.8188,38.21807],[140.82025,38.2172],[140.82134,38.21726],[140.82226,38.21757],[140.82669,38.21693],[140.82857,38.21556],[140.83057,38.21394],[140.83777,38.21104],[140.84043,38.20978],[140.8409,38.20967],[140.84316,38.20849],[140.84484,38.2073],[140.84772,38.20669],[140.84991,38.20587],[140.85151,38.20482],[140.85394,38.20396],[140.85513,38.20381],[140.8584,38.20413],[140.85953,38.20399],[140.86108,38.20403],[140.86335,38.20195],[140.86354,38.20059],[140.86335,38.19972],[140.86269,38.19859],[140.8596,38.19495],[140.86154,38.19507],[140.86362,38.19533],[140.86341,38.19401],[140.86449,38.1933],[140.86644,38.19121],[140.86719,38.18921],[140.86699,38.18775],[140.87236,38.18761],[140.87271,38.18778],[140.8728,38.18886],[140.87578,38.18916],[140.87754,38.18921],[140.87977,38.18896],[140.88136,38.18942],[140.88182,38.19023],[140.88414,38.19044],[140.88489,38.189],[140.8863,38.18887],[140.88832,38.18832],[140.88939,38.1885],[140.89026,38.1898],[140.89142,38.18988],[140.89419,38.19037],[140.895,38.19035],[140.89764,38.18983],[140.89995,38.18962],[140.89982,38.1878],[140.8999,38.18678],[140.89967,38.18635],[140.89874,38.18642],[140.89844,38.18589],[140.89856,38.18474],[140.90345,38.1846],[140.9038,38.18805],[140.90105,38.18839],[140.90114,38.18941],[140.90331,38.18918],[140.90712,38.18841],[140.9074,38.18762],[140.90573,38.18767],[140.90552,38.18701],[140.90418,38.1871],[140.9039,38.18458],[140.90694,38.18455],[140.90764,38.18491],[140.90736,38.18562],[140.90861,38.18543],[140.90954,38.1855],[140.90973,38.18628],[140.91102,38.18579],[140.91233,38.18503],[140.91323,38.18498],[140.9133,38.18548],[140.91515,38.18535],[140.91505,38.18437],[140.91615,38.18433],[140.91757,38.1837],[140.92051,38.18354],[140.92996,38.18289],[140.93234,38.18305],[140.93349,38.18253],[140.93531,38.18439],[140.93459,38.18484],[140.93502,38.18634],[140.93456,38.18711],[140.9336,38.18714],[140.93198,38.1878],[140.93156,38.18869],[140.92972,38.18946],[140.92834,38.19128],[140.92798,38.19307],[140.92844,38.19384],[140.93094,38.19606],[140.93329,38.19765],[140.93163,38.19828],[140.9228,38.19857],[140.91999,38.19935],[140.91923,38.19982],[140.91312,38.20546],[140.90753,38.20884],[140.90834,38.21077],[140.90891,38.21376],[140.91006,38.21647],[140.91048,38.21878],[140.90902,38.22016],[140.90804,38.22063],[140.90712,38.22168],[140.90684,38.223],[140.90645,38.22337],[140.90527,38.22373],[140.90182,38.2252],[140.90052,38.22566],[140.89844,38.22706],[140.89591,38.22976],[140.89472,38.23081],[140.89453,38.23137],[140.89342,38.23239],[140.8911,38.23374],[140.8898,38.23495],[140.88931,38.23566],[140.88671,38.23857],[140.883,38.24411],[140.88073,38.24624],[140.87999,38.24672],[140.87846,38.24729],[140.87629,38.24761],[140.87417,38.24745],[140.87236,38.24667],[140.87141,38.24651],[140.87027,38.24672],[140.86879,38.24768],[140.86826,38.24861],[140.86813,38.2494],[140.86695,38.24948],[140.86639,38.25013],[140.86466,38.25045],[140.86409,38.25038],[140.86366,38.24973],[140.86281,38.24988],[140.86122,38.24937],[140.86081,38.24968],[140.85893,38.25014],[140.85836,38.25004],[140.85725,38.24932],[140.85675,38.24967],[140.85413,38.25049],[140.85285,38.25011],[140.85192,38.25058],[140.8498,38.24992],[140.849,38.24946],[140.84819,38.2495],[140.84778,38.25021],[140.84695,38.25039],[140.84575,38.25032],[140.84592,38.24932],[140.84508,38.24924],[140.84434,38.24884],[140.84412,38.24832],[140.84318,38.24823],[140.84211,38.24688],[140.84093,38.24644],[140.8411,38.24587],[140.83975,38.24595],[140.8392,38.24645],[140.83839,38.24599],[140.83729,38.24641],[140.83577,38.2463],[140.8333,38.24406],[140.83251,38.24433],[140.83024,38.24589],[140.82949,38.2461],[140.82787,38.2457],[140.82753,38.24511],[140.82669,38.24462],[140.82585,38.24462],[140.82595,38.24555],[140.82563,38.24651],[140.82379,38.24704],[140.82199,38.24643],[140.82116,38.24695],[140.81978,38.2474],[140.81823,38.2482],[140.81624,38.2486],[140.81338,38.24858],[140.81174,38.24899],[140.81037,38.24972],[140.809,38.25011],[140.8076,38.24745],[140.80454,38.24636],[140.80467,38.24508],[140.80584,38.24415],[140.80628,38.24308],[140.80755,38.24208],[140.80775,38.24121],[140.80586,38.24075],[140.80532,38.241],[140.80277,38.24042],[140.80194,38.23994],[140.80173,38.23945],[140.79982,38.23865],[140.79859,38.23856],[140.79804,38.23773],[140.79723,38.23716],[140.79546,38.23642],[140.79489,38.23841],[140.79525,38.24004],[140.79512,38.24101],[140.79443,38.24246],[140.79461,38.24331],[140.79562,38.24506],[140.7951,38.24533],[140.79427,38.24479],[140.79336,38.24473],[140.79238,38.24438],[140.7909,38.24472],[140.78909,38.24421],[140.78863,38.2449],[140.78665,38.24567],[140.78554,38.2457],[140.78376,38.24643],[140.78205,38.24809],[140.78187,38.24865],[140.78109,38.24923],[140.78051,38.2502],[140.78007,38.25157],[140.77995,38.25254],[140.77952,38.25265],[140.77908,38.2513],[140.77718,38.25039],[140.77614,38.24923],[140.77503,38.24752],[140.77282,38.24597],[140.77257,38.24528],[140.77098,38.24373],[140.76889,38.24308],[140.76682,38.242],[140.76532,38.24263],[140.76364,38.24265],[140.76249,38.24295],[140.76041,38.2427],[140.75988,38.2425],[140.75813,38.24236],[140.75751,38.24151],[140.75611,38.24231],[140.75511,38.24184],[140.75417,38.24217],[140.75361,38.24206],[140.75162,38.24266],[140.75035,38.24327],[140.75018,38.24365],[140.75084,38.24521],[140.74962,38.24575],[140.74856,38.24574],[140.74768,38.24482],[140.74707,38.24471],[140.74615,38.24511],[140.74517,38.24504],[140.74398,38.24461],[140.74208,38.24466],[140.74107,38.2442],[140.74059,38.24439],[140.73905,38.2442],[140.73862,38.24332],[140.73573,38.24267],[140.73514,38.24275],[140.73409,38.24339],[140.73282,38.24356],[140.73222,38.244],[140.73072,38.24415],[140.72939,38.24383],[140.72852,38.24422],[140.72823,38.24474],[140.72749,38.24487],[140.72663,38.24552],[140.72646,38.24643],[140.72558,38.24674],[140.72473,38.24762],[140.72452,38.24894],[140.72394,38.2497],[140.72295,38.25179],[140.72122,38.25167],[140.7196,38.25182],[140.71846,38.25253],[140.71766,38.2525],[140.71644,38.25201],[140.7155,38.25193],[140.71482,38.2523],[140.7145,38.25337],[140.71454,38.25411],[140.71507,38.2554],[140.71571,38.25647],[140.71644,38.25718],[140.71578,38.25852],[140.71473,38.25824],[140.71401,38.26022],[140.71186,38.26267],[140.71029,38.26374],[140.70814,38.26399],[140.70717,38.26431],[140.70565,38.26543],[140.70309,38.26521],[140.7007,38.26455],[140.69964,38.26469],[140.69812,38.26381],[140.69769,38.26405],[140.69713,38.26585],[140.69645,38.26653],[140.69636,38.26739],[140.69694,38.26785],[140.69606,38.26889],[140.6964,38.26969],[140.69653,38.27124],[140.69498,38.27188],[140.69382,38.27208],[140.69266,38.27168],[140.69163,38.27179],[140.68963,38.27269],[140.68737,38.27202],[140.6873,38.27331],[140.68664,38.2735],[140.68571,38.27334],[140.68526,38.27365],[140.68471,38.27496],[140.68456,38.27596],[140.685,38.27668],[140.68527,38.27801],[140.68517,38.27903],[140.68456,38.28089],[140.68469,38.28261],[140.68411,38.28269],[140.6836,38.28209],[140.68264,38.28154],[140.68061,38.28096],[140.67997,38.28029],[140.6787,38.27993],[140.67753,38.28031],[140.67579,38.28052],[140.67571,38.28135],[140.67602,38.28214],[140.67719,38.28404],[140.67635,38.28716],[140.67648,38.28808],[140.67691,38.28863],[140.67947,38.29018],[140.67964,38.29163],[140.67778,38.29265],[140.67759,38.29414],[140.67776,38.29485],[140.67556,38.29495],[140.67466,38.29545],[140.67321,38.29492],[140.67224,38.2954],[140.67168,38.29611],[140.67003,38.29721],[140.66908,38.29715],[140.66843,38.29779],[140.6673,38.29742],[140.66629,38.29868],[140.6649,38.29887],[140.66404,38.2996],[140.6634,38.30067],[140.66301,38.29883],[140.66242,38.29749],[140.66157,38.29657],[140.66066,38.29624],[140.6596,38.29499],[140.65916,38.29412],[140.65848,38.2934],[140.65519,38.29138],[140.65368,38.29161],[140.65325,38.29141],[140.6534,38.29064],[140.65241,38.29021],[140.65004,38.28972],[140.64704,38.29003],[140.6456,38.28989],[140.64447,38.29074],[140.64273,38.29088],[140.64141,38.29162],[140.64001,38.29158],[140.63816,38.29179],[140.637,38.29233],[140.63575,38.2926],[140.63414,38.29233],[140.63146,38.29164],[140.62954,38.29143],[140.62693,38.29168],[140.62585,38.29329],[140.62495,38.29368],[140.6245,38.29338],[140.62463,38.29269],[140.62391,38.29137],[140.6237,38.29049],[140.62088,38.28903],[140.61689,38.2891],[140.61591,38.28858],[140.61536,38.28797],[140.61282,38.28702],[140.6117,38.28724],[140.61083,38.28817],[140.60968,38.28859],[140.60937,38.28908],[140.60939,38.29031],[140.61032,38.2918],[140.60964,38.292],[140.60759,38.29324],[140.60535,38.29307],[140.60381,38.29326],[140.60097,38.29471],[140.59913,38.29626],[140.59769,38.2966],[140.59638,38.29749],[140.59589,38.29856],[140.5949,38.29907],[140.59219,38.29906],[140.5915,38.29923],[140.58964,38.29868],[140.58857,38.29866],[140.58639,38.29791],[140.58536,38.29774],[140.58443,38.29881],[140.58469,38.30144],[140.58408,38.30239],[140.58412,38.30304],[140.58366,38.30417],[140.58377,38.30489],[140.58611,38.30654],[140.58781,38.30746],[140.59,38.30835],[140.5906,38.30937],[140.59168,38.31041],[140.59265,38.31078],[140.59429,38.31075],[140.59498,38.31119],[140.59651,38.31176],[140.59828,38.31175],[140.60012,38.31147],[140.60318,38.31204],[140.60621,38.31325],[140.60688,38.31376],[140.60779,38.31508],[140.60807,38.31634],[140.60754,38.317],[140.60537,38.31888],[140.60395,38.31985],[140.6027,38.32045],[140.60175,38.32113],[140.60076,38.32135],[140.59872,38.3212],[140.59501,38.32178],[140.59239,38.32202],[140.58968,38.32095],[140.5864,38.32061],[140.58389,38.32093],[140.58261,38.32068],[140.58124,38.32132],[140.58138,38.32172],[140.58377,38.32345],[140.5853,38.32548],[140.58631,38.32743],[140.58646,38.32804],[140.58789,38.32847],[140.58977,38.32777],[140.59086,38.32707],[140.59073,38.32917],[140.59013,38.33007],[140.59035,38.33099],[140.5919,38.33274],[140.59233,38.33352],[140.59157,38.33438],[140.59078,38.33457],[140.59055,38.33551],[140.58975,38.33628],[140.58988,38.33695],[140.58928,38.33746],[140.58835,38.33769],[140.58863,38.33841],[140.58831,38.33914],[140.59042,38.34054],[140.59089,38.34126],[140.59089,38.34248],[140.59143,38.34316],[140.59317,38.344],[140.59161,38.3459],[140.59086,38.34655],[140.59074,38.34817],[140.58935,38.34995],[140.5884,38.35179],[140.5883,38.35233],[140.58643,38.3535],[140.58582,38.35422],[140.58535,38.3553],[140.58358,38.35603],[140.58117,38.35957],[140.58123,38.36043],[140.58076,38.36152],[140.58,38.36235],[140.57851,38.363],[140.57833,38.36398],[140.57654,38.36485],[140.5748,38.36587],[140.5726,38.36577],[140.57118,38.36652],[140.56946,38.36768],[140.56926,38.36823],[140.56959,38.36888],[140.56956,38.37025],[140.56906,38.37089],[140.56882,38.37201],[140.56796,38.37257],[140.5669,38.37294],[140.56417,38.37344],[140.56325,38.37551],[140.56324,38.3772]]]]}},
  {"type":"Feature","properties":{"name":"泉区","code":"04105"},"geometry":{"type":"MultiPolygon","coordinates":[[[[140.89406,38.28786],[140.89485,38.28936],[140.8961,38.29052],[140.89785,38.2912],[140.89927,38.29251],[140.90021,38.29253],[140.90297,38.29182],[140.90382,38.29126],[140.90655,38.2932],[140.90831,38.2943],[140.90912,38.29504],[140.90926,38.29582],[140.90974,38.29604],[140.91159,38.29595],[140.91259,38.29712],[140.914,38.29814],[140.91672,38.29882],[140.91719,38.29977],[140.91779,38.29996],[140.91834,38.30098],[140.91863,38.30278],[140.91902,38.30349],[140.92007,38.30359],[140.92156,38.30306],[140.92231,38.30324],[140.92226,38.30385],[140.92345,38.30405],[140.92435,38.30498],[140.92552,38.30534],[140.92539,38.30579],[140.92658,38.30608],[140.92927,38.30649],[140.92918,38.30914],[140.92965,38.31049],[140.92966,38.3117],[140.93031,38.31226],[140.93025,38.31303],[140.93054,38.31467],[140.931,38.31613],[140.93065,38.31693],[140.93099,38.3175],[140.93101,38.31847],[140.93136,38.31993],[140.93171,38.32328],[140.93194,38.32415],[140.93176,38.32555],[140.93202,38.32605],[140.9324,38.32799],[140.93174,38.32862],[140.93079,38.32837],[140.92944,38.3288],[140.92849,38.3295],[140.92822,38.33029],[140.9275,38.33115],[140.92727,38.33188],[140.92726,38.33309],[140.92617,38.33368],[140.9254,38.33359],[140.9247,38.33223],[140.92367,38.33286],[140.92299,38.33297],[140.92222,38.33243],[140.92103,38.33328],[140.91983,38.33303],[140.91896,38.33342],[140.91845,38.33432],[140.91872,38.33478],[140.91748,38.33601],[140.91731,38.33652],[140.91633,38.3365],[140.91595,38.33584],[140.91308,38.33501],[140.91227,38.33558],[140.91145,38.33538],[140.91063,38.33417],[140.90891,38.33459],[140.90843,38.33422],[140.90775,38.33553],[140.90716,38.33559],[140.90661,38.33729],[140.90519,38.33661],[140.90339,38.33692],[140.90086,38.34087],[140.89713,38.34098],[140.89701,38.34135],[140.89515,38.3414],[140.89452,38.34204],[140.8935,38.34208],[140.89294,38.34388],[140.88538,38.34759],[140.88426,38.34724],[140.88321,38.34795],[140.88246,38.34917],[140.88369,38.3511],[140.88107,38.35207],[140.88011,38.35077],[140.8796,38.35106],[140.88048,38.35227],[140.87898,38.35279],[140.8796,38.35422],[140.87902,38.35471],[140.87898,38.3555],[140.87658,38.35662],[140.87609,38.35726],[140.87639,38.35765],[140.87519,38.35872],[140.87421,38.3593],[140.87365,38.35896],[140.87062,38.36033],[140.86971,38.35993],[140.86643,38.36035],[140.86654,38.36124],[140.86379,38.36165],[140.86343,38.36203],[140.8617,38.36213],[140.86133,38.36138],[140.86019,38.36069],[140.85899,38.36096],[140.85852,38.36152],[140.85611,38.36181],[140.85467,38.36166],[140.85417,38.36051],[140.85303,38.36052],[140.85328,38.35924],[140.85304,38.35873],[140.84962,38.35793],[140.84857,38.35853],[140.84661,38.35875],[140.84556,38.35762],[140.84516,38.35783],[140.84361,38.35577],[140.84295,38.35412],[140.84233,38.35041],[140.84179,38.34857],[140.84075,38.34689],[140.83844,38.34774],[140.83646,38.34707],[140.83596,38.34659],[140.83492,38.34662],[140.83412,38.347],[140.83373,38.34774],[140.83423,38.34896],[140.83403,38.34948],[140.83187,38.35149],[140.83241,38.3519],[140.83257,38.35273],[140.82986,38.35267],[140.83024,38.35315],[140.83289,38.35362],[140.83392,38.35449],[140.83144,38.3567],[140.83248,38.35764],[140.83332,38.35807],[140.83427,38.35891],[140.83508,38.36008],[140.83315,38.36095],[140.83191,38.36104],[140.83136,38.36163],[140.82913,38.36217],[140.8282,38.36278],[140.82443,38.36223],[140.82265,38.36263],[140.82275,38.36366],[140.82397,38.3647],[140.82393,38.36523],[140.82459,38.36613],[140.82621,38.3673],[140.82628,38.36802],[140.82681,38.36887],[140.82559,38.36947],[140.82545,38.3701],[140.82481,38.37103],[140.82539,38.37288],[140.8251,38.37417],[140.82537,38.37494],[140.82457,38.37561],[140.82389,38.37668],[140.82278,38.37739],[140.82185,38.37896],[140.8203,38.38005],[140.81692,38.38119],[140.81563,38.38217],[140.81498,38.38309],[140.81456,38.38315],[140.81384,38.38243],[140.81304,38.3824],[140.81311,38.38315],[140.8138,38.38481],[140.81257,38.38498],[140.81136,38.38594],[140.81114,38.3869],[140.81125,38.3883],[140.81015,38.38865],[140.81004,38.39016],[140.80828,38.39156],[140.80847,38.39212],[140.80706,38.39298],[140.80612,38.39305],[140.80541,38.39381],[140.80361,38.39408],[140.80287,38.39438],[140.80138,38.39441],[140.80086,38.39489],[140.79965,38.39389],[140.79891,38.394],[140.79848,38.39446],[140.79665,38.39455],[140.79514,38.39559],[140.79323,38.3959],[140.79265,38.39656],[140.78969,38.39776],[140.78905,38.39837],[140.78727,38.39894],[140.78632,38.3994],[140.7857,38.40026],[140.78394,38.40159],[140.78278,38.40168],[140.78164,38.40204],[140.78112,38.40186],[140.77934,38.40012],[140.77853,38.40083],[140.77739,38.40238],[140.77532,38.40376],[140.77482,38.4043],[140.7731,38.40443],[140.77253,38.40477],[140.77077,38.40524],[140.76893,38.4048],[140.76795,38.40569],[140.76624,38.40619],[140.76553,38.40699],[140.76511,38.40701],[140.76403,38.40631],[140.76185,38.40665],[140.76101,38.40785],[140.76047,38.40823],[140.7593,38.40852],[140.75723,38.41004],[140.75452,38.41143],[140.75327,38.41157],[140.7517,38.41152],[140.74972,38.41236],[140.74661,38.41246],[140.74354,38.41204],[140.74418,38.41352],[140.74451,38.41386],[140.74441,38.41559],[140.74175,38.41705],[140.74056,38.41844],[140.73906,38.41916],[140.7381,38.42054],[140.73799,38.42172],[140.73827,38.42275],[140.73704,38.42335],[140.73637,38.42412],[140.73488,38.42477],[140.73422,38.42446],[140.73226,38.4245],[140.73175,38.42475],[140.73139,38.42679],[140.73095,38.42731],[140.72922,38.42805],[140.72832,38.42887],[140.72669,38.4295],[140.72641,38.43079],[140.72675,38.43155],[140.72613,38.43249],[140.7256,38.43261],[140.72345,38.4325],[140.72238,38.43294],[140.7217,38.43392],[140.71964,38.43402],[140.71854,38.43355],[140.71624,38.43389],[140.7144,38.43294],[140.71387,38.43201],[140.71451,38.43054],[140.71387,38.42947],[140.71304,38.42868],[140.7116,38.42796],[140.71129,38.42483],[140.71093,38.42399],[140.71021,38.42353],[140.70853,38.42324],[140.70739,38.42251],[140.70697,38.42193],[140.70642,38.42032],[140.7056,38.41967],[140.70275,38.41701],[140.70034,38.41653],[140.69687,38.41564],[140.69372,38.41408],[140.69346,38.4132],[140.69393,38.41265],[140.69659,38.41019],[140.69719,38.40943],[140.69803,38.40744],[140.69856,38.40576],[140.69899,38.40355],[140.69969,38.4022],[140.69987,38.40138],[140.70011,38.3984],[140.69978,38.39635],[140.69856,38.39477],[140.69734,38.39222],[140.69664,38.39155],[140.69532,38.38971],[140.69407,38.39018],[140.69323,38.38996],[140.69269,38.3888],[140.69169,38.38805],[140.69166,38.38689],[140.69089,38.38554],[140.68991,38.38515],[140.68844,38.38378],[140.68777,38.38244],[140.6884,38.38177],[140.6894,38.37921],[140.69018,38.37879],[140.69059,38.3781],[140.69133,38.37801],[140.69194,38.37748],[140.69272,38.37745],[140.69305,38.37698],[140.69394,38.37655],[140.6968,38.3746],[140.69817,38.37447],[140.69949,38.37411],[140.69989,38.37363],[140.70196,38.37188],[140.70349,38.37116],[140.70399,38.3712],[140.70636,38.36922],[140.70686,38.36859],[140.70762,38.36851],[140.70855,38.36797],[140.70941,38.36785],[140.70987,38.36732],[140.71174,38.36668],[140.71241,38.36613],[140.71378,38.36573],[140.71472,38.36452],[140.71626,38.36365],[140.71754,38.3634],[140.71831,38.36282],[140.71971,38.36248],[140.72118,38.36247],[140.7231,38.36164],[140.72428,38.36164],[140.7244,38.36094],[140.72519,38.36057],[140.72655,38.36054],[140.7298,38.35997],[140.73052,38.35954],[140.73136,38.3586],[140.73209,38.35847],[140.73307,38.3587],[140.73284,38.35779],[140.7332,38.35688],[140.73305,38.35583],[140.73195,38.35519],[140.7307,38.3539],[140.73047,38.35287],[140.73104,38.35223],[140.73025,38.35152],[140.72891,38.35085],[140.72679,38.35015],[140.72582,38.35021],[140.72445,38.34959],[140.72377,38.34879],[140.72246,38.34779],[140.72181,38.3463],[140.72014,38.34537],[140.71978,38.34497],[140.71812,38.34458],[140.71837,38.34351],[140.71812,38.34306],[140.71868,38.34208],[140.71774,38.34124],[140.71796,38.34059],[140.71978,38.34022],[140.72191,38.3396],[140.72243,38.33894],[140.72376,38.33862],[140.72438,38.33699],[140.72528,38.33647],[140.72699,38.33717],[140.72833,38.33695],[140.72876,38.33611],[140.73039,38.33516],[140.73074,38.33453],[140.7317,38.33421],[140.7331,38.33413],[140.73466,38.33347],[140.73672,38.3331],[140.73759,38.33272],[140.7383,38.33147],[140.73946,38.3298],[140.74122,38.32962],[140.74255,38.32917],[140.74393,38.32947],[140.74642,38.32887],[140.74931,38.32699],[140.75017,38.32611],[140.75289,38.32463],[140.75403,38.32506],[140.75436,38.32422],[140.75527,38.32436],[140.75617,38.32395],[140.75738,38.32227],[140.75869,38.32269],[140.75927,38.32223],[140.76054,38.32322],[140.76108,38.32268],[140.76186,38.32262],[140.7626,38.32292],[140.7643,38.32246],[140.76527,38.32248],[140.76541,38.32302],[140.76692,38.32347],[140.76741,38.3232],[140.76832,38.32352],[140.76908,38.32335],[140.76989,38.32404],[140.77202,38.32341],[140.77208,38.32412],[140.77307,38.32411],[140.77462,38.32278],[140.77604,38.3228],[140.77657,38.3225],[140.77798,38.32232],[140.77866,38.32276],[140.77936,38.32209],[140.7809,38.32248],[140.78303,38.32209],[140.78464,38.32235],[140.78625,38.32238],[140.78712,38.32278],[140.78786,38.32232],[140.78912,38.32193],[140.78962,38.32135],[140.79,38.32008],[140.79016,38.31841],[140.79187,38.31716],[140.79223,38.31648],[140.79236,38.31463],[140.79307,38.31276],[140.79287,38.31216],[140.79212,38.3117],[140.79184,38.31115],[140.792,38.3094],[140.79311,38.3089],[140.79522,38.30844],[140.79836,38.30797],[140.8011,38.30739],[140.80084,38.3063],[140.80242,38.30622],[140.80264,38.30439],[140.80376,38.30446],[140.80468,38.30416],[140.80458,38.30377],[140.80596,38.30376],[140.80697,38.30286],[140.80868,38.30285],[140.80965,38.30262],[140.80948,38.30337],[140.80962,38.30507],[140.81115,38.30548],[140.81189,38.30523],[140.81329,38.30534],[140.81366,38.30443],[140.81526,38.30306],[140.8179,38.30244],[140.81883,38.30133],[140.82177,38.29959],[140.82461,38.29806],[140.82537,38.29789],[140.82636,38.29697],[140.82703,38.29673],[140.8291,38.29653],[140.8295,38.29784],[140.83013,38.29843],[140.82994,38.29999],[140.83088,38.30056],[140.83101,38.30175],[140.83179,38.30451],[140.83134,38.30579],[140.83205,38.30703],[140.83205,38.30797],[140.8324,38.30837],[140.83371,38.30793],[140.83525,38.30806],[140.83554,38.30776],[140.83756,38.30797],[140.8391,38.3077],[140.84022,38.30723],[140.84201,38.30782],[140.84322,38.30804],[140.84337,38.30871],[140.84502,38.30957],[140.84654,38.30985],[140.84685,38.31046],[140.84814,38.31065],[140.85003,38.30879],[140.8517,38.30869],[140.85295,38.30923],[140.8534,38.30966],[140.85415,38.30887],[140.85572,38.30874],[140.85639,38.3094],[140.85731,38.30903],[140.85667,38.30771],[140.85626,38.30611],[140.85659,38.30501],[140.8577,38.30377],[140.8583,38.30346],[140.86092,38.30309],[140.86284,38.30238],[140.86318,38.30115],[140.86375,38.30092],[140.86477,38.3013],[140.86554,38.30082],[140.86799,38.30047],[140.86939,38.30071],[140.87046,38.30163],[140.8716,38.30301],[140.87359,38.30372],[140.87452,38.30481],[140.87567,38.3051],[140.87761,38.30601],[140.87876,38.30688],[140.87917,38.30862],[140.87964,38.30942],[140.88034,38.30915],[140.87995,38.3082],[140.88072,38.30747],[140.88118,38.30626],[140.88108,38.30523],[140.88118,38.30355],[140.88166,38.30308],[140.88243,38.30293],[140.88341,38.30237],[140.88891,38.3005],[140.88947,38.29737],[140.88958,38.2958],[140.88986,38.29521],[140.89032,38.29326],[140.89068,38.29076],[140.89025,38.28988],[140.89179,38.28864],[140.89201,38.28731],[140.89297,38.28737],[140.89406,38.28786]]]]}}
]}
