{"type":"FeatureCollection", "features": [
  {"type":"Feature","properties":{"name":"北区","code":"15101"},"geometry":{"type":"MultiPolygon","coordinates":[[[[139.26044,37.892177],[139.262237,37.893744],[139.262599,37.894275],[139.263057,37.896199],[139.262829,37.897693],[139.262411,37.898161],[139.261107,37.898124],[139.261766,37.900149],[139.26272,37.899905],[139.263338,37.901324],[139.26647,37.900667],[139.266825,37.901541],[139.265351,37.901896],[139.265561,37.902948],[139.264714,37.903575],[139.263758,37.903598],[139.263183,37.904511],[139.263862,37.904722],[139.262016,37.908183],[139.260242,37.907806],[139.259809,37.909329],[139.258419,37.910217],[139.257847,37.910976],[139.256653,37.911171],[139.255278,37.911791],[139.255182,37.912233],[139.255662,37.91443],[139.255077,37.915253],[139.254166,37.915641],[139.253132,37.918288],[139.24765,37.916171],[139.24769,37.917477],[139.248226,37.926151],[139.248767,37.927598],[139.249673,37.93229],[139.249686,37.933305],[139.250588,37.93413],[139.251558,37.934519],[139.256149,37.935265],[139.256652,37.935452],[139.259287,37.937728],[139.25249,37.942611],[139.252079,37.942352],[139.250562,37.942673],[139.250537,37.943271],[139.249763,37.943997],[139.249408,37.945229],[139.248409,37.946485],[139.246743,37.945517],[139.245087,37.945973],[139.243452,37.945219],[139.243073,37.945252],[139.242385,37.94681],[139.241712,37.946564],[139.241942,37.945992],[139.240839,37.945292],[139.240517,37.945975],[139.239501,37.947113],[139.238993,37.947326],[139.234729,37.946342],[139.233751,37.947561],[139.232501,37.94729],[139.231671,37.948132],[139.230672,37.947623],[139.229798,37.946697],[139.227586,37.94577],[139.227079,37.946626],[139.22917,37.948039],[139.22947,37.948544],[139.230781,37.949346],[139.231359,37.949484],[139.234526,37.951938],[139.234663,37.952195],[139.233636,37.953321],[139.2338,37.954162],[139.235575,37.955594],[139.235274,37.95648],[139.234537,37.956484],[139.23523,37.957703],[139.234466,37.957773],[139.233118,37.959419],[139.232546,37.960751],[139.231449,37.962707],[139.231224,37.963404],[139.231548,37.963997],[139.233335,37.964688],[139.233071,37.965767],[139.231884,37.965388],[139.230354,37.970189],[139.227821,37.971121],[139.221706,37.967665],[139.220551,37.967952],[139.219343,37.969487],[139.222496,37.971401],[139.224592,37.972505],[139.228155,37.974755],[139.228355,37.975496],[139.221252,37.989405],[139.218885,37.99018],[139.217603,37.989639],[139.214705,37.993749],[139.219437,38.001033],[139.22638,38.011657],[139.229135,38.015821],[139.231558,38.019775],[139.231338,38.019862],[139.22936,38.01677],[139.225472,38.010559],[139.224612,38.00928],[139.214522,37.993757],[139.215134,37.993036],[139.204838,37.98849],[139.204654,37.987291],[139.204119,37.987074],[139.204506,37.986346],[139.204304,37.98505],[139.202736,37.983414],[139.200081,37.982068],[139.197999,37.981372],[139.195899,37.981053],[139.195034,37.981331],[139.194889,37.98057],[139.192383,37.979354],[139.190604,37.978811],[139.188916,37.978782],[139.187799,37.981087],[139.187615,37.981032],[139.18873,37.978793],[139.187368,37.977853],[139.186676,37.977849],[139.18542,37.977306],[139.183622,37.977209],[139.183041,37.976764],[139.18173,37.976232],[139.178729,37.975591],[139.176809,37.974876],[139.174328,37.974332],[139.172947,37.973906],[139.171771,37.973741],[139.171204,37.974864],[139.17025,37.974562],[139.170608,37.973373],[139.168641,37.97275],[139.166843,37.976436],[139.170038,37.978284],[139.169956,37.978374],[139.166721,37.97651],[139.168294,37.973371],[139.167144,37.972765],[139.165884,37.972384],[139.163314,37.971332],[139.161964,37.971216],[139.161091,37.970762],[139.160263,37.970683],[139.158011,37.970003],[139.156588,37.969384],[139.155699,37.969288],[139.154645,37.96872],[139.153035,37.96829],[139.151402,37.968045],[139.14901,37.967195],[139.145379,37.966282],[139.144635,37.965691],[139.142599,37.965076],[139.141282,37.964957],[139.136927,37.963636],[139.135942,37.963027],[139.132043,37.962144],[139.129706,37.960296],[139.129374,37.95976],[139.127589,37.958808],[139.13178,37.955413],[139.133356,37.953389],[139.135942,37.948689],[139.135056,37.94841],[139.134149,37.948451],[139.136482,37.945744],[139.13736,37.945071],[139.138632,37.943211],[139.143757,37.937008],[139.143378,37.933032],[139.144263,37.931769],[139.144965,37.930182],[139.14543,37.928349],[139.145715,37.926596],[139.147736,37.926756],[139.148058,37.923387],[139.146774,37.920998],[139.1471,37.917547],[139.147628,37.913844],[139.148565,37.907228],[139.149759,37.903913],[139.150209,37.902902],[139.152548,37.899011],[139.154044,37.897558],[139.156395,37.890717],[139.157255,37.889406],[139.158558,37.887748],[139.162861,37.882947],[139.165896,37.879749],[139.167754,37.876872],[139.17097,37.87381],[139.174454,37.870696],[139.175728,37.867852],[139.176021,37.865431],[139.178316,37.865433],[139.17818,37.864879],[139.178049,37.86408],[139.187669,37.86257],[139.187864,37.862247],[139.190236,37.862751],[139.190874,37.861941],[139.192053,37.862054],[139.193259,37.863499],[139.196067,37.862185],[139.196207,37.863065],[139.198204,37.8661],[139.200225,37.865473],[139.203323,37.865454],[139.205485,37.866912],[139.2075,37.866224],[139.208313,37.866233],[139.20965,37.866598],[139.209863,37.865942],[139.212142,37.864627],[139.215998,37.864393],[139.216127,37.865223],[139.218732,37.86505],[139.218687,37.864162],[139.222867,37.86389],[139.225135,37.86358],[139.226796,37.863623],[139.22738,37.863135],[139.227392,37.862136],[139.229939,37.863534],[139.233062,37.864526],[139.233836,37.865477],[139.233982,37.866241],[139.234739,37.867956],[139.235992,37.869838],[139.234812,37.871143],[139.234957,37.871716],[139.235839,37.87229],[139.236614,37.872336],[139.236817,37.873533],[139.237227,37.874378],[139.236177,37.874967],[139.237209,37.876349],[139.241503,37.881801],[139.242002,37.882534],[139.242603,37.884384],[139.243389,37.884224],[139.243047,37.883487],[139.241262,37.8786],[139.241363,37.877717],[139.241233,37.876082],[139.242546,37.875831],[139.242832,37.876068],[139.245225,37.875707],[139.245528,37.877324],[139.246794,37.88197],[139.245902,37.882124],[139.246296,37.88351],[139.247348,37.883491],[139.249096,37.889782],[139.251942,37.888621],[139.253099,37.887832],[139.252094,37.887183],[139.253258,37.885942],[139.253313,37.885345],[139.254729,37.883722],[139.255569,37.884036],[139.255447,37.883154],[139.257872,37.883286],[139.258789,37.883686],[139.260231,37.88362],[139.260903,37.884556],[139.260608,37.88562],[139.259432,37.887439],[139.259857,37.891411],[139.26044,37.892177]]]]}},
  {"type":"Feature","properties":{"name":"東区","code":"15102"},"geometry":{"type":"MultiPolygon","coordinates":[[[[139.132043,37.962144],[139.126807,37.961116],[139.124099,37.960222],[139.123287,37.962164],[139.121218,37.961558],[139.112624,37.959417],[139.109258,37.958503],[139.108809,37.95874],[139.105488,37.958095],[139.094408,37.95853],[139.092467,37.957902],[139.092374,37.956173],[139.093423,37.955733],[139.093226,37.955314],[139.092116,37.954777],[139.091181,37.954617],[139.089903,37.954039],[139.088716,37.954186],[139.08567,37.953549],[139.083372,37.953568],[139.081306,37.952987],[139.080254,37.951955],[139.078846,37.951658],[139.076227,37.951426],[139.073467,37.951583],[139.070388,37.952436],[139.069676,37.952969],[139.069458,37.952159],[139.071389,37.95195],[139.07169,37.950466],[139.074579,37.950189],[139.074956,37.948716],[139.074073,37.948726],[139.071879,37.948399],[139.072329,37.946222],[139.071755,37.945932],[139.069569,37.948504],[139.06918,37.94846],[139.068578,37.945068],[139.069518,37.945029],[139.069704,37.944018],[139.068233,37.943797],[139.066262,37.944386],[139.064723,37.940658],[139.067902,37.935723],[139.071247,37.930821],[139.071673,37.93051],[139.073484,37.930467],[139.073173,37.929366],[139.074408,37.925358],[139.075837,37.922673],[139.076464,37.92197],[139.076957,37.920238],[139.076634,37.920174],[139.076755,37.918218],[139.076662,37.917283],[139.077578,37.915816],[139.078159,37.915223],[139.078526,37.913151],[139.079537,37.913529],[139.081336,37.910525],[139.080928,37.91027],[139.08148,37.909506],[139.080628,37.909153],[139.080148,37.909925],[139.079517,37.909877],[139.07722,37.909145],[139.073245,37.907731],[139.073856,37.90627],[139.074841,37.904349],[139.075059,37.902511],[139.074383,37.901408],[139.075393,37.899756],[139.076509,37.899646],[139.078388,37.897867],[139.078975,37.897522],[139.081015,37.897185],[139.08231,37.897131],[139.086497,37.897864],[139.087258,37.89766],[139.088622,37.895957],[139.091646,37.894878],[139.092969,37.894118],[139.094115,37.893893],[139.097049,37.893037],[139.098474,37.891835],[139.098869,37.89],[139.100784,37.890495],[139.103191,37.891745],[139.103002,37.892042],[139.106322,37.892196],[139.105957,37.892564],[139.106845,37.893191],[139.11377,37.896968],[139.115328,37.897775],[139.117918,37.899392],[139.119786,37.900783],[139.120296,37.900997],[139.12328,37.903909],[139.127539,37.906913],[139.128082,37.907466],[139.129675,37.908303],[139.130086,37.909011],[139.135997,37.910392],[139.136116,37.910907],[139.139197,37.91162],[139.141973,37.91214],[139.144994,37.913181],[139.147628,37.913844],[139.1471,37.917547],[139.146774,37.920998],[139.148058,37.923387],[139.147736,37.926756],[139.145715,37.926596],[139.14543,37.928349],[139.144965,37.930182],[139.144263,37.931769],[139.143378,37.933032],[139.143757,37.937008],[139.138632,37.943211],[139.13736,37.945071],[139.136482,37.945744],[139.134149,37.948451],[139.135056,37.94841],[139.135942,37.948689],[139.133356,37.953389],[139.13178,37.955413],[139.127589,37.958808],[139.129374,37.95976],[139.129706,37.960296],[139.132043,37.962144]]]]}},
  {"type":"Feature","properties":{"name":"中央区","code":"15103"},"geometry":{"type":"MultiPolygon","coordinates":[[[[139.066262,37.944386],[139.063592,37.945176],[139.062776,37.945735],[139.061883,37.945512],[139.061131,37.944713],[139.058028,37.946488],[139.051849,37.943105],[139.053411,37.941308],[139.052371,37.94016],[139.050601,37.939454],[139.050385,37.938889],[139.04861,37.937826],[139.047319,37.937785],[139.046057,37.936481],[139.044701,37.935796],[139.043813,37.934985],[139.042301,37.934881],[139.041173,37.934244],[139.042057,37.933282],[139.039843,37.932029],[139.039065,37.932257],[139.038001,37.930927],[139.036856,37.930158],[139.030162,37.926627],[139.029485,37.925777],[139.02555,37.923558],[139.025695,37.923392],[139.02321,37.921968],[139.021568,37.922342],[139.021215,37.921032],[139.020431,37.92007],[139.017304,37.918578],[139.017128,37.918295],[139.013511,37.91682],[139.013191,37.916183],[139.00987,37.914316],[139.007963,37.913733],[139.007401,37.913891],[139.005505,37.912809],[139.006013,37.912265],[139.00423,37.911101],[139.000764,37.908267],[139.001887,37.908792],[139.002752,37.908771],[139.004238,37.909499],[139.005382,37.907976],[139.006127,37.90734],[139.00726,37.905725],[139.007346,37.905171],[139.008648,37.902993],[139.007443,37.902086],[139.007738,37.901788],[139.008915,37.902672],[139.009418,37.901914],[139.008084,37.900896],[139.008761,37.900414],[139.01001,37.900687],[139.010761,37.899643],[139.011893,37.897226],[139.01132,37.896022],[139.012077,37.894609],[139.012669,37.890335],[139.013121,37.887634],[139.013779,37.885983],[139.014392,37.884926],[139.016177,37.882659],[139.017908,37.880983],[139.019723,37.879577],[139.021512,37.877826],[139.022958,37.875488],[139.02506,37.875888],[139.026955,37.876536],[139.034889,37.878429],[139.03643,37.87841],[139.037482,37.878758],[139.038004,37.877957],[139.038698,37.876126],[139.038905,37.874831],[139.039476,37.873687],[139.040448,37.873118],[139.041903,37.873028],[139.044653,37.873209],[139.045296,37.873077],[139.050414,37.874009],[139.055667,37.875022],[139.055564,37.875348],[139.059922,37.876119],[139.060252,37.875851],[139.064175,37.876721],[139.064423,37.876886],[139.071557,37.878206],[139.073994,37.878761],[139.075016,37.879845],[139.076485,37.880028],[139.076814,37.879491],[139.081484,37.881136],[139.083593,37.882198],[139.086833,37.884103],[139.09027,37.88652],[139.09009,37.886808],[139.092925,37.888444],[139.094313,37.889099],[139.096122,37.889756],[139.097985,37.890084],[139.098869,37.89],[139.098474,37.891835],[139.097049,37.893037],[139.094115,37.893893],[139.092969,37.894118],[139.091646,37.894878],[139.088622,37.895957],[139.087258,37.89766],[139.086497,37.897864],[139.08231,37.897131],[139.081015,37.897185],[139.078975,37.897522],[139.078388,37.897867],[139.076509,37.899646],[139.075393,37.899756],[139.074383,37.901408],[139.075059,37.902511],[139.074841,37.904349],[139.073856,37.90627],[139.073245,37.907731],[139.07722,37.909145],[139.079517,37.909877],[139.080148,37.909925],[139.080628,37.909153],[139.08148,37.909506],[139.080928,37.91027],[139.081336,37.910525],[139.079537,37.913529],[139.078526,37.913151],[139.078159,37.915223],[139.077578,37.915816],[139.076662,37.917283],[139.076755,37.918218],[139.076634,37.920174],[139.076957,37.920238],[139.076464,37.92197],[139.075837,37.922673],[139.074408,37.925358],[139.073173,37.929366],[139.073484,37.930467],[139.071673,37.93051],[139.071247,37.930821],[139.067902,37.935723],[139.064723,37.940658],[139.066262,37.944386]]],[[[139.068392,37.961188],[139.068561,37.961138],[139.071036,37.96666],[139.071145,37.966634],[139.073619,37.972189],[139.076557,37.974968],[139.076351,37.975123],[139.073381,37.97232],[139.068392,37.961188]]]]}},
  {"type":"Feature","properties":{"name":"江南区","code":"15104"},"geometry":{"type":"MultiPolygon","coordinates":[[[[139.147628,37.913844],[139.144994,37.913181],[139.141973,37.91214],[139.139197,37.91162],[139.136116,37.910907],[139.135997,37.910392],[139.130086,37.909011],[139.129675,37.908303],[139.128082,37.907466],[139.127539,37.906913],[139.12328,37.903909],[139.120296,37.900997],[139.119786,37.900783],[139.117918,37.899392],[139.115328,37.897775],[139.11377,37.896968],[139.106845,37.893191],[139.105957,37.892564],[139.106322,37.892196],[139.103002,37.892042],[139.103191,37.891745],[139.100784,37.890495],[139.098869,37.89],[139.097985,37.890084],[139.096122,37.889756],[139.094313,37.889099],[139.092925,37.888444],[139.09009,37.886808],[139.09027,37.88652],[139.086833,37.884103],[139.083593,37.882198],[139.081484,37.881136],[139.076814,37.879491],[139.076485,37.880028],[139.075016,37.879845],[139.073994,37.878761],[139.071557,37.878206],[139.064423,37.876886],[139.064175,37.876721],[139.060252,37.875851],[139.059922,37.876119],[139.055564,37.875348],[139.055667,37.875022],[139.050414,37.874009],[139.045296,37.873077],[139.044653,37.873209],[139.041903,37.873028],[139.040448,37.873118],[139.039476,37.873687],[139.038905,37.874831],[139.038698,37.876126],[139.038004,37.877957],[139.037482,37.878758],[139.03643,37.87841],[139.034889,37.878429],[139.026955,37.876536],[139.02506,37.875888],[139.022958,37.875488],[139.024298,37.871848],[139.024672,37.870082],[139.024826,37.867425],[139.02427,37.865025],[139.023879,37.863863],[139.022465,37.860914],[139.021299,37.856629],[139.02058,37.854667],[139.021817,37.853383],[139.022975,37.852482],[139.023775,37.850025],[139.024175,37.847914],[139.024592,37.846403],[139.025486,37.844838],[139.027091,37.843216],[139.029225,37.841879],[139.031405,37.840856],[139.033647,37.839982],[139.039549,37.838151],[139.04175,37.837775],[139.042874,37.837784],[139.043999,37.838122],[139.047447,37.839522],[139.049932,37.839849],[139.052273,37.83977],[139.054332,37.839366],[139.055643,37.838967],[139.057479,37.838113],[139.058986,37.837168],[139.059966,37.836253],[139.061519,37.833906],[139.062007,37.832429],[139.063284,37.831882],[139.065589,37.831422],[139.066837,37.831439],[139.07027,37.832336],[139.071597,37.832529],[139.073974,37.83371],[139.074659,37.834217],[139.075494,37.835816],[139.079243,37.83855],[139.080337,37.83902],[139.082737,37.839567],[139.083466,37.83954],[139.084846,37.839041],[139.087597,37.837086],[139.088813,37.836345],[139.091198,37.835506],[139.09317,37.835226],[139.095046,37.835318],[139.098581,37.836687],[139.099477,37.837302],[139.101131,37.838952],[139.102805,37.840321],[139.104961,37.841253],[139.106308,37.841302],[139.108703,37.841187],[139.110612,37.8414],[139.112269,37.84177],[139.115998,37.84135],[139.116872,37.840849],[139.117588,37.83988],[139.117826,37.839007],[139.117677,37.837774],[139.118064,37.836123],[139.118635,37.835023],[139.119454,37.834108],[139.120442,37.833731],[139.12229,37.833397],[139.12325,37.833588],[139.125678,37.835624],[139.126634,37.836261],[139.128548,37.836609],[139.129679,37.836335],[139.130403,37.835668],[139.131535,37.83398],[139.131977,37.832706],[139.133513,37.831469],[139.134794,37.831402],[139.135957,37.831717],[139.138257,37.833414],[139.138863,37.833478],[139.139919,37.832914],[139.140743,37.831611],[139.140939,37.829463],[139.142263,37.827875],[139.142862,37.827698],[139.14674,37.827097],[139.148856,37.826505],[139.150124,37.82593],[139.152065,37.824067],[139.15407,37.822653],[139.15575,37.822986],[139.157744,37.824113],[139.158042,37.824665],[139.158383,37.826297],[139.15953,37.82736],[139.16202,37.828028],[139.162928,37.827868],[139.164454,37.827885],[139.165251,37.827338],[139.165587,37.826485],[139.165472,37.825737],[139.163432,37.82365],[139.16328,37.823256],[139.164278,37.821938],[139.165601,37.821732],[139.169455,37.820855],[139.172567,37.82079],[139.173823,37.821062],[139.174918,37.821656],[139.175967,37.822678],[139.177143,37.824852],[139.17778,37.827145],[139.177717,37.82827],[139.17712,37.829499],[139.175551,37.831066],[139.173927,37.832069],[139.170175,37.8335],[139.166719,37.834593],[139.165519,37.834879],[139.160149,37.835907],[139.158397,37.836174],[139.15396,37.840678],[139.152709,37.842152],[139.152084,37.843731],[139.151895,37.844878],[139.152155,37.846469],[139.153002,37.848216],[139.154456,37.850002],[139.155343,37.849542],[139.155943,37.848917],[139.154032,37.846947],[139.153889,37.846002],[139.154247,37.844733],[139.156459,37.845066],[139.15795,37.845671],[139.158515,37.846135],[139.159121,37.847233],[139.159401,37.849184],[139.159049,37.850499],[139.16015,37.851629],[139.161442,37.852031],[139.16533,37.853859],[139.165194,37.854361],[139.166986,37.856142],[139.168863,37.857415],[139.170628,37.858826],[139.170973,37.859327],[139.173906,37.861853],[139.176975,37.865367],[139.17818,37.864879],[139.178316,37.865433],[139.176021,37.865431],[139.175728,37.867852],[139.174454,37.870696],[139.17097,37.87381],[139.167754,37.876872],[139.165896,37.879749],[139.162861,37.882947],[139.158558,37.887748],[139.157255,37.889406],[139.156395,37.890717],[139.154044,37.897558],[139.152548,37.899011],[139.150209,37.902902],[139.149759,37.903913],[139.148565,37.907228],[139.147628,37.913844]]]]}},
  {"type":"Feature","properties":{"name":"秋葉区","code":"15105"},"geometry":{"type":"MultiPolygon","coordinates":[[[[139.062007,37.832429],[139.061613,37.829412],[139.061126,37.827035],[139.061048,37.8257],[139.061141,37.824009],[139.061495,37.821305],[139.061971,37.818499],[139.062381,37.817519],[139.064727,37.813134],[139.065227,37.811741],[139.065297,37.810877],[139.064232,37.806292],[139.064083,37.805237],[139.064191,37.802839],[139.063853,37.800789],[139.0625,37.794269],[139.061625,37.792866],[139.058818,37.789415],[139.058256,37.788194],[139.058005,37.786683],[139.05832,37.784452],[139.05914,37.782327],[139.059718,37.781409],[139.061083,37.780106],[139.064543,37.778366],[139.067639,37.777184],[139.069035,37.77646],[139.070475,37.775],[139.071135,37.774042],[139.071632,37.772417],[139.071494,37.770511],[139.071109,37.769578],[139.069992,37.768139],[139.068301,37.766466],[139.066513,37.76503],[139.064364,37.762607],[139.06372,37.761134],[139.063677,37.760364],[139.06469,37.75674],[139.065327,37.755099],[139.066608,37.7536],[139.067107,37.75246],[139.067434,37.749907],[139.067372,37.748502],[139.066296,37.745904],[139.064611,37.743826],[139.062517,37.739993],[139.061535,37.737507],[139.061404,37.736855],[139.061204,37.732883],[139.061703,37.731251],[139.061879,37.729929],[139.061683,37.728246],[139.062809,37.727607],[139.063443,37.725292],[139.06397,37.72499],[139.064295,37.726674],[139.064924,37.726749],[139.064582,37.725125],[139.064901,37.722167],[139.064615,37.72075],[139.065283,37.720492],[139.066197,37.721799],[139.065888,37.721981],[139.068093,37.725568],[139.067402,37.726173],[139.068103,37.726865],[139.067329,37.727569],[139.066448,37.728947],[139.065477,37.72971],[139.066549,37.729993],[139.067535,37.729509],[139.068657,37.730657],[139.071107,37.730017],[139.075881,37.727739],[139.077562,37.729958],[139.079974,37.728961],[139.081739,37.732076],[139.082856,37.732026],[139.082105,37.731144],[139.082239,37.730489],[139.081785,37.729475],[139.082088,37.728869],[139.081465,37.727944],[139.081582,37.727061],[139.082681,37.726678],[139.085207,37.727666],[139.086758,37.727865],[139.086477,37.729133],[139.087622,37.728992],[139.087611,37.729646],[139.086982,37.730279],[139.08802,37.731184],[139.087885,37.731534],[139.089638,37.732217],[139.091609,37.731666],[139.092859,37.732139],[139.093106,37.732576],[139.092865,37.73332],[139.091704,37.734735],[139.090901,37.73644],[139.091462,37.73695],[139.092224,37.736304],[139.093442,37.73585],[139.093762,37.734318],[139.093464,37.73324],[139.094844,37.733825],[139.094306,37.734226],[139.094507,37.735158],[139.09495,37.735563],[139.094166,37.736084],[139.095029,37.736895],[139.097053,37.734435],[139.099139,37.734004],[139.09984,37.733659],[139.099509,37.733159],[139.099868,37.732084],[139.09868,37.731131],[139.097865,37.730117],[139.098022,37.729621],[139.099868,37.729625],[139.101084,37.729179],[139.102745,37.729452],[139.103256,37.729352],[139.104629,37.7284],[139.10437,37.727463],[139.104589,37.726893],[139.105642,37.72658],[139.106333,37.726844],[139.107924,37.725801],[139.109759,37.72656],[139.111362,37.728219],[139.111048,37.728816],[139.111416,37.729801],[139.11104,37.730165],[139.109406,37.73037],[139.109052,37.730644],[139.110152,37.73223],[139.110598,37.733617],[139.111277,37.734355],[139.113935,37.73328],[139.115842,37.733448],[139.116498,37.734118],[139.118988,37.734076],[139.119381,37.734336],[139.120902,37.73293],[139.121762,37.732857],[139.123172,37.733464],[139.124449,37.734645],[139.124828,37.735266],[139.125884,37.735441],[139.126308,37.73593],[139.12783,37.735543],[139.130156,37.736977],[139.131004,37.737201],[139.131257,37.737989],[139.130818,37.738442],[139.130321,37.739635],[139.12977,37.739982],[139.130759,37.740785],[139.130825,37.742038],[139.133477,37.742647],[139.135811,37.742182],[139.136755,37.743039],[139.133917,37.744646],[139.133568,37.745482],[139.133761,37.746375],[139.133217,37.746831],[139.133351,37.747815],[139.133782,37.748273],[139.134711,37.748344],[139.135462,37.748996],[139.136257,37.749291],[139.136235,37.74981],[139.137572,37.750573],[139.137178,37.751646],[139.138589,37.751863],[139.140499,37.753301],[139.141544,37.753155],[139.142162,37.752711],[139.144059,37.752548],[139.145143,37.751994],[139.146533,37.752723],[139.146479,37.753078],[139.145558,37.753902],[139.145553,37.754635],[139.146851,37.754847],[139.147511,37.755826],[139.146642,37.757185],[139.145907,37.759953],[139.146646,37.760883],[139.147424,37.763156],[139.148465,37.764011],[139.150126,37.764378],[139.150602,37.764877],[139.151634,37.765233],[139.15279,37.765334],[139.153329,37.76655],[139.154976,37.76768],[139.155824,37.767431],[139.157176,37.766692],[139.157325,37.765371],[139.156875,37.764468],[139.156428,37.762858],[139.155275,37.763333],[139.15517,37.762634],[139.156506,37.761472],[139.158183,37.760808],[139.15877,37.762513],[139.158608,37.763125],[139.157186,37.762484],[139.157089,37.762886],[139.157796,37.763803],[139.158969,37.763817],[139.159197,37.765302],[139.157954,37.765619],[139.15779,37.765959],[139.159252,37.766592],[139.159825,37.765233],[139.163383,37.76612],[139.162524,37.768635],[139.165048,37.769451],[139.16554,37.768312],[139.170817,37.769664],[139.168957,37.774607],[139.173902,37.775771],[139.175831,37.776666],[139.180435,37.777466],[139.181289,37.774702],[139.184709,37.775318],[139.187837,37.77391],[139.190265,37.776267],[139.189091,37.778201],[139.188578,37.778808],[139.185954,37.780218],[139.183366,37.780732],[139.181605,37.780718],[139.179376,37.780444],[139.177004,37.779813],[139.176589,37.77989],[139.175112,37.781178],[139.174668,37.782266],[139.173985,37.785525],[139.173749,37.787089],[139.174227,37.791179],[139.174925,37.793387],[139.176018,37.795414],[139.177229,37.79691],[139.178991,37.798678],[139.180003,37.799498],[139.180455,37.800307],[139.180412,37.801404],[139.17959,37.803662],[139.179152,37.804318],[139.178413,37.804814],[139.175213,37.805903],[139.173413,37.806197],[139.16555,37.807161],[139.163924,37.807404],[139.161104,37.807392],[139.158376,37.806889],[139.157062,37.806964],[139.15538,37.80746],[139.154187,37.80825],[139.152933,37.809613],[139.151829,37.811598],[139.151082,37.813244],[139.150912,37.815072],[139.151541,37.816565],[139.152868,37.818172],[139.154785,37.819471],[139.156844,37.820042],[139.158812,37.820836],[139.160838,37.821971],[139.16135,37.822532],[139.16328,37.823256],[139.163432,37.82365],[139.165472,37.825737],[139.165587,37.826485],[139.165251,37.827338],[139.164454,37.827885],[139.162928,37.827868],[139.16202,37.828028],[139.15953,37.82736],[139.158383,37.826297],[139.158042,37.824665],[139.157744,37.824113],[139.15575,37.822986],[139.15407,37.822653],[139.152065,37.824067],[139.150124,37.82593],[139.148856,37.826505],[139.14674,37.827097],[139.142862,37.827698],[139.142263,37.827875],[139.140939,37.829463],[139.140743,37.831611],[139.139919,37.832914],[139.138863,37.833478],[139.138257,37.833414],[139.135957,37.831717],[139.134794,37.831402],[139.133513,37.831469],[139.131977,37.832706],[139.131535,37.83398],[139.130403,37.835668],[139.129679,37.836335],[139.128548,37.836609],[139.126634,37.836261],[139.125678,37.835624],[139.12325,37.833588],[139.12229,37.833397],[139.120442,37.833731],[139.119454,37.834108],[139.118635,37.835023],[139.118064,37.836123],[139.117677,37.837774],[139.117826,37.839007],[139.117588,37.83988],[139.116872,37.840849],[139.115998,37.84135],[139.112269,37.84177],[139.110612,37.8414],[139.108703,37.841187],[139.106308,37.841302],[139.104961,37.841253],[139.102805,37.840321],[139.101131,37.838952],[139.099477,37.837302],[139.098581,37.836687],[139.095046,37.835318],[139.09317,37.835226],[139.091198,37.835506],[139.088813,37.836345],[139.087597,37.837086],[139.084846,37.839041],[139.083466,37.83954],[139.082737,37.839567],[139.080337,37.83902],[139.079243,37.83855],[139.075494,37.835816],[139.074659,37.834217],[139.073974,37.83371],[139.071597,37.832529],[139.07027,37.832336],[139.066837,37.831439],[139.065589,37.831422],[139.063284,37.831882],[139.062007,37.832429]]]]}},
  {"type":"Feature","properties":{"name":"南区","code":"15106"},"geometry":{"type":"MultiPolygon","coordinates":[[[[139.02058,37.854667],[139.018483,37.854508],[139.018525,37.853581],[139.019479,37.850437],[139.020807,37.848116],[139.021417,37.846156],[139.02146,37.845118],[139.020757,37.844242],[139.019262,37.843699],[139.017328,37.84359],[139.014955,37.843853],[139.013725,37.843645],[139.01227,37.842912],[139.008946,37.840188],[139.008578,37.839418],[139.009441,37.837451],[139.0095,37.836236],[139.008512,37.834255],[139.007016,37.832333],[139.005455,37.831064],[139.003491,37.82854],[139.001724,37.82736],[139.00081,37.826318],[139.000432,37.824955],[139.000531,37.824253],[139.001093,37.823068],[139.001776,37.822251],[139.004148,37.820779],[139.005163,37.819882],[139.005568,37.818371],[139.006504,37.816409],[139.006324,37.815444],[139.005213,37.814591],[139.00451,37.814778],[139.002058,37.814763],[138.986894,37.811947],[138.985713,37.811971],[138.985446,37.811115],[138.98452,37.809458],[138.983844,37.808725],[138.979304,37.806073],[138.982786,37.802034],[138.982222,37.801729],[138.982925,37.800926],[138.981604,37.800216],[138.980046,37.801978],[138.979577,37.800707],[138.980285,37.800544],[138.979587,37.7987],[138.982164,37.798073],[138.982927,37.797191],[138.982483,37.79605],[138.981506,37.796283],[138.98121,37.795559],[138.979212,37.796074],[138.978892,37.795223],[138.980813,37.79458],[138.980573,37.793967],[138.981961,37.79363],[138.980768,37.791511],[138.979914,37.789293],[138.980573,37.789121],[138.980141,37.788],[138.981026,37.787794],[138.980641,37.786791],[138.981582,37.786557],[138.981965,37.785786],[138.981418,37.784372],[138.982159,37.78419],[138.982507,37.785074],[138.98454,37.784579],[138.984039,37.783249],[138.986042,37.782768],[138.985489,37.781315],[138.984282,37.781613],[138.984046,37.781001],[138.979857,37.783176],[138.979034,37.783388],[138.97856,37.782834],[138.982701,37.780679],[138.981847,37.779651],[138.990402,37.775188],[138.989998,37.772293],[138.99071,37.771922],[138.991963,37.771803],[138.992771,37.768063],[138.993714,37.767986],[138.993311,37.765611],[138.994841,37.758643],[138.992605,37.755921],[138.991985,37.755353],[138.991467,37.755676],[138.990777,37.756909],[138.989951,37.756486],[138.989614,37.756969],[138.9884,37.757331],[138.986696,37.75881],[138.986377,37.756313],[138.986989,37.75529],[138.98676,37.754616],[138.983744,37.753435],[138.983593,37.752616],[138.982254,37.752111],[138.982032,37.751296],[138.976938,37.749297],[138.973937,37.753391],[138.97298,37.756448],[138.972182,37.757329],[138.971788,37.756976],[138.972501,37.756474],[138.972512,37.755751],[138.972076,37.754965],[138.971419,37.753188],[138.971039,37.751629],[138.971238,37.750783],[138.970932,37.749596],[138.971012,37.746793],[138.973356,37.746384],[138.972751,37.744114],[138.97211,37.744224],[138.971632,37.742471],[138.972298,37.742368],[138.971834,37.740752],[138.971678,37.738774],[138.972016,37.737075],[138.973064,37.735632],[138.974473,37.735151],[138.975355,37.735356],[138.977962,37.735032],[138.978699,37.734796],[138.978528,37.733743],[138.978042,37.732706],[138.978936,37.731901],[138.978491,37.730159],[138.980195,37.730127],[138.980208,37.731795],[138.985557,37.73035],[138.985523,37.731581],[138.985935,37.73207],[138.987759,37.731571],[138.988816,37.732894],[138.989318,37.734055],[138.990082,37.734291],[138.990501,37.735283],[138.990904,37.735175],[138.989217,37.73119],[138.988401,37.731389],[138.987759,37.730937],[138.986913,37.728416],[138.987313,37.728309],[138.986056,37.725338],[138.986241,37.72468],[138.986971,37.724485],[138.985385,37.720741],[138.985389,37.719159],[138.985848,37.717208],[138.986084,37.717151],[138.985589,37.714902],[138.985166,37.713569],[138.986194,37.712913],[138.986916,37.712166],[138.986233,37.711544],[138.985667,37.710645],[138.985286,37.708616],[138.985307,37.706943],[138.986085,37.701712],[138.98581,37.700102],[138.985033,37.698822],[138.983134,37.697238],[138.979921,37.695358],[138.978659,37.694069],[138.977789,37.691826],[138.977831,37.690575],[138.978111,37.689218],[138.979669,37.685469],[138.979899,37.684245],[138.979006,37.683302],[138.976953,37.682048],[138.9743,37.681882],[138.973176,37.681884],[138.970691,37.681584],[138.966923,37.68074],[138.967976,37.680261],[138.968252,37.679471],[138.970359,37.679266],[138.972864,37.679154],[138.977287,37.679341],[138.981298,37.679262],[138.983918,37.678969],[138.991152,37.679081],[138.992748,37.679773],[138.991261,37.681467],[138.990472,37.682624],[138.989326,37.682447],[138.989116,37.684905],[138.990106,37.685377],[138.991381,37.691601],[138.991906,37.692552],[138.991252,37.692795],[138.992071,37.693937],[138.991855,37.694285],[138.992788,37.695666],[138.994634,37.697537],[138.996458,37.698948],[138.996635,37.698893],[139.000936,37.703728],[139.002178,37.704374],[139.003119,37.703795],[139.00647,37.703913],[139.008468,37.705883],[139.009703,37.706792],[139.010067,37.706597],[139.013531,37.710004],[139.014382,37.709635],[139.015018,37.710362],[139.016236,37.709719],[139.016919,37.710613],[139.024923,37.705834],[139.026042,37.703497],[139.024528,37.702442],[139.025133,37.700781],[139.023195,37.700302],[139.023808,37.698712],[139.024609,37.698896],[139.024963,37.698001],[139.025619,37.698141],[139.026037,37.696787],[139.025414,37.696634],[139.024992,37.694642],[139.026107,37.69431],[139.027387,37.694232],[139.032587,37.693466],[139.032881,37.695548],[139.032857,37.696575],[139.032497,37.700678],[139.032822,37.702019],[139.033233,37.702854],[139.034226,37.704164],[139.036295,37.706154],[139.038216,37.707559],[139.040007,37.708641],[139.042069,37.710299],[139.042954,37.711315],[139.044143,37.713172],[139.045165,37.715262],[139.045883,37.717011],[139.047243,37.719458],[139.048254,37.72024],[139.051982,37.722277],[139.055624,37.723892],[139.057135,37.724472],[139.059401,37.725801],[139.061357,37.727603],[139.061683,37.728246],[139.061879,37.729929],[139.061703,37.731251],[139.061204,37.732883],[139.061404,37.736855],[139.061535,37.737507],[139.062517,37.739993],[139.064611,37.743826],[139.066296,37.745904],[139.067372,37.748502],[139.067434,37.749907],[139.067107,37.75246],[139.066608,37.7536],[139.065327,37.755099],[139.06469,37.75674],[139.063677,37.760364],[139.06372,37.761134],[139.064364,37.762607],[139.066513,37.76503],[139.068301,37.766466],[139.069992,37.768139],[139.071109,37.769578],[139.071494,37.770511],[139.071632,37.772417],[139.071135,37.774042],[139.070475,37.775],[139.069035,37.77646],[139.067639,37.777184],[139.064543,37.778366],[139.061083,37.780106],[139.059718,37.781409],[139.05914,37.782327],[139.05832,37.784452],[139.058005,37.786683],[139.058256,37.788194],[139.058818,37.789415],[139.061625,37.792866],[139.0625,37.794269],[139.063853,37.800789],[139.064191,37.802839],[139.064083,37.805237],[139.064232,37.806292],[139.065297,37.810877],[139.065227,37.811741],[139.064727,37.813134],[139.062381,37.817519],[139.061971,37.818499],[139.061495,37.821305],[139.061141,37.824009],[139.061048,37.8257],[139.061126,37.827035],[139.061613,37.829412],[139.062007,37.832429],[139.061519,37.833906],[139.059966,37.836253],[139.058986,37.837168],[139.057479,37.838113],[139.055643,37.838967],[139.054332,37.839366],[139.052273,37.83977],[139.049932,37.839849],[139.047447,37.839522],[139.043999,37.838122],[139.042874,37.837784],[139.04175,37.837775],[139.039549,37.838151],[139.033647,37.839982],[139.031405,37.840856],[139.029225,37.841879],[139.027091,37.843216],[139.025486,37.844838],[139.024592,37.846403],[139.024175,37.847914],[139.023775,37.850025],[139.022975,37.852482],[139.021817,37.853383],[139.02058,37.854667]]]]}},
  {"type":"Feature","properties":{"name":"西区","code":"15107"},"geometry":{"type":"MultiPolygon","coordinates":[[[[139.000764,37.908267],[138.996893,37.906081],[138.996261,37.905978],[138.995085,37.905146],[138.99366,37.904872],[138.992764,37.904013],[138.991696,37.903862],[138.990783,37.90298],[138.989147,37.902444],[138.98834,37.901831],[138.987401,37.901526],[138.986384,37.900421],[138.982779,37.89868],[138.981622,37.898275],[138.980886,37.897626],[138.97943,37.897058],[138.977951,37.895866],[138.976602,37.895291],[138.974151,37.893971],[138.972509,37.89347],[138.971773,37.892794],[138.970906,37.892579],[138.968505,37.89145],[138.96785,37.890454],[138.966492,37.890092],[138.965941,37.889556],[138.964746,37.889306],[138.964116,37.888767],[138.962996,37.888414],[138.961498,37.887519],[138.960789,37.887432],[138.959109,37.88652],[138.958109,37.885682],[138.956995,37.885493],[138.955904,37.884139],[138.954771,37.883542],[138.952557,37.882643],[138.950653,37.882226],[138.949074,37.881086],[138.946112,37.879748],[138.945119,37.879167],[138.942503,37.878823],[138.940672,37.878459],[138.939675,37.877541],[138.938296,37.875917],[138.937332,37.875354],[138.933694,37.8738],[138.931247,37.873084],[138.929493,37.872456],[138.928695,37.871958],[138.926494,37.871249],[138.925441,37.870398],[138.923299,37.869631],[138.92262,37.869604],[138.922063,37.869041],[138.920222,37.868757],[138.920364,37.867915],[138.919742,37.867181],[138.918435,37.866234],[138.917921,37.866098],[138.917644,37.865203],[138.912283,37.862655],[138.909614,37.861299],[138.905274,37.859322],[138.899827,37.856712],[138.896944,37.855242],[138.894894,37.854361],[138.892294,37.853018],[138.890099,37.851286],[138.888272,37.850216],[138.8826,37.847052],[138.877134,37.843675],[138.874124,37.841871],[138.869573,37.839044],[138.865223,37.836131],[138.863032,37.834255],[138.859716,37.831849],[138.862658,37.829878],[138.866099,37.827918],[138.865545,37.826566],[138.86478,37.825807],[138.863244,37.823334],[138.862827,37.822177],[138.860624,37.82034],[138.860306,37.818319],[138.860204,37.816228],[138.858421,37.812126],[138.85681,37.809564],[138.856161,37.807717],[138.856693,37.807009],[138.858281,37.806748],[138.859505,37.806766],[138.859607,37.807199],[138.862552,37.808155],[138.863887,37.809095],[138.864178,37.809577],[138.867137,37.811594],[138.86828,37.811731],[138.86929,37.812199],[138.871338,37.812764],[138.871366,37.812351],[138.869628,37.811639],[138.868302,37.810801],[138.866646,37.810219],[138.864433,37.808865],[138.861084,37.807234],[138.861524,37.806934],[138.863174,37.806843],[138.863636,37.806064],[138.865587,37.806818],[138.865595,37.807132],[138.86883,37.808512],[138.868599,37.808796],[138.8699,37.809373],[138.871098,37.807678],[138.871771,37.807119],[138.873094,37.807605],[138.873676,37.806591],[138.878185,37.808141],[138.878975,37.80712],[138.880703,37.807842],[138.882429,37.808295],[138.883168,37.807955],[138.884739,37.808403],[138.884916,37.807777],[138.8864,37.808127],[138.88665,37.807518],[138.887944,37.807493],[138.888032,37.806489],[138.890665,37.805325],[138.893326,37.805777],[138.89317,37.806403],[138.893844,37.806514],[138.89401,37.805891],[138.896043,37.806257],[138.896412,37.805845],[138.899153,37.80473],[138.899677,37.804668],[138.89964,37.807481],[138.899505,37.807897],[138.901924,37.807947],[138.901914,37.808689],[138.902403,37.809021],[138.904915,37.808717],[138.905267,37.810078],[138.906142,37.81133],[138.907066,37.811302],[138.907289,37.81019],[138.907235,37.809305],[138.906803,37.807143],[138.906995,37.80657],[138.908924,37.803559],[138.912456,37.804319],[138.913277,37.803315],[138.914334,37.803584],[138.913369,37.804905],[138.912009,37.805988],[138.910968,37.80705],[138.90984,37.808489],[138.909819,37.809553],[138.910317,37.811713],[138.916535,37.811788],[138.916177,37.811197],[138.916232,37.810511],[138.925072,37.810706],[138.925822,37.809795],[138.937876,37.815953],[138.93739,37.816566],[138.938049,37.816901],[138.938566,37.816303],[138.940969,37.817524],[138.942593,37.817965],[138.9423,37.818621],[138.943027,37.818819],[138.943302,37.818168],[138.946434,37.818989],[138.947168,37.819831],[138.946877,37.820611],[138.947775,37.820796],[138.948015,37.820083],[138.95069,37.820369],[138.953753,37.821515],[138.954155,37.820271],[138.954886,37.819849],[138.956196,37.820118],[138.956309,37.819772],[138.958017,37.820137],[138.95787,37.820579],[138.960208,37.821061],[138.960028,37.821607],[138.958939,37.82139],[138.958606,37.822408],[138.957723,37.822683],[138.957526,37.823267],[138.955167,37.822796],[138.954832,37.823815],[138.956747,37.824189],[138.956889,37.82375],[138.959614,37.824312],[138.959335,37.825209],[138.960619,37.825076],[138.960634,37.826211],[138.961212,37.826219],[138.961252,37.828328],[138.961883,37.828319],[138.962109,37.829388],[138.962754,37.829382],[138.962704,37.831028],[138.965756,37.830992],[138.965256,37.826027],[138.966425,37.823369],[138.967225,37.822109],[138.968012,37.820222],[138.972823,37.811346],[138.973597,37.809721],[138.974529,37.805724],[138.975269,37.803647],[138.977181,37.804691],[138.977458,37.805047],[138.979304,37.806073],[138.983844,37.808725],[138.98452,37.809458],[138.985446,37.811115],[138.985713,37.811971],[138.986894,37.811947],[139.002058,37.814763],[139.00451,37.814778],[139.005213,37.814591],[139.006324,37.815444],[139.006504,37.816409],[139.005568,37.818371],[139.005163,37.819882],[139.004148,37.820779],[139.001776,37.822251],[139.001093,37.823068],[139.000531,37.824253],[139.000432,37.824955],[139.00081,37.826318],[139.001724,37.82736],[139.003491,37.82854],[139.005455,37.831064],[139.007016,37.832333],[139.008512,37.834255],[139.0095,37.836236],[139.009441,37.837451],[139.008578,37.839418],[139.008946,37.840188],[139.01227,37.842912],[139.013725,37.843645],[139.014955,37.843853],[139.017328,37.84359],[139.019262,37.843699],[139.020757,37.844242],[139.02146,37.845118],[139.021417,37.846156],[139.020807,37.848116],[139.019479,37.850437],[139.018525,37.853581],[139.018483,37.854508],[139.02058,37.854667],[139.021299,37.856629],[139.022465,37.860914],[139.023879,37.863863],[139.02427,37.865025],[139.024826,37.867425],[139.024672,37.870082],[139.024298,37.871848],[139.022958,37.875488],[139.021512,37.877826],[139.019723,37.879577],[139.017908,37.880983],[139.016177,37.882659],[139.014392,37.884926],[139.013779,37.885983],[139.013121,37.887634],[139.012669,37.890335],[139.012077,37.894609],[139.01132,37.896022],[139.011893,37.897226],[139.010761,37.899643],[139.01001,37.900687],[139.008761,37.900414],[139.008084,37.900896],[139.009418,37.901914],[139.008915,37.902672],[139.007738,37.901788],[139.007443,37.902086],[139.008648,37.902993],[139.007346,37.905171],[139.00726,37.905725],[139.006127,37.90734],[139.005382,37.907976],[139.004238,37.909499],[139.002752,37.908771],[139.001887,37.908792],[139.000764,37.908267]]]]}},
  {"type":"Feature","properties":{"name":"西蒲区","code":"15108"},"geometry":{"type":"MultiPolygon","coordinates":[[[[138.979304,37.806073],[138.977458,37.805047],[138.977181,37.804691],[138.975269,37.803647],[138.974529,37.805724],[138.973597,37.809721],[138.972823,37.811346],[138.968012,37.820222],[138.967225,37.822109],[138.966425,37.823369],[138.965256,37.826027],[138.965756,37.830992],[138.962704,37.831028],[138.962754,37.829382],[138.962109,37.829388],[138.961883,37.828319],[138.961252,37.828328],[138.961212,37.826219],[138.960634,37.826211],[138.960619,37.825076],[138.959335,37.825209],[138.959614,37.824312],[138.956889,37.82375],[138.956747,37.824189],[138.954832,37.823815],[138.955167,37.822796],[138.957526,37.823267],[138.957723,37.822683],[138.958606,37.822408],[138.958939,37.82139],[138.960028,37.821607],[138.960208,37.821061],[138.95787,37.820579],[138.958017,37.820137],[138.956309,37.819772],[138.956196,37.820118],[138.954886,37.819849],[138.954155,37.820271],[138.953753,37.821515],[138.95069,37.820369],[138.948015,37.820083],[138.947775,37.820796],[138.946877,37.820611],[138.947168,37.819831],[138.946434,37.818989],[138.943302,37.818168],[138.943027,37.818819],[138.9423,37.818621],[138.942593,37.817965],[138.940969,37.817524],[138.938566,37.816303],[138.938049,37.816901],[138.93739,37.816566],[138.937876,37.815953],[138.925822,37.809795],[138.925072,37.810706],[138.916232,37.810511],[138.916177,37.811197],[138.916535,37.811788],[138.910317,37.811713],[138.909819,37.809553],[138.90984,37.808489],[138.910968,37.80705],[138.912009,37.805988],[138.913369,37.804905],[138.914334,37.803584],[138.913277,37.803315],[138.912456,37.804319],[138.908924,37.803559],[138.906995,37.80657],[138.906803,37.807143],[138.907235,37.809305],[138.907289,37.81019],[138.907066,37.811302],[138.906142,37.81133],[138.905267,37.810078],[138.904915,37.808717],[138.902403,37.809021],[138.901914,37.808689],[138.901924,37.807947],[138.899505,37.807897],[138.89964,37.807481],[138.899677,37.804668],[138.899153,37.80473],[138.896412,37.805845],[138.896043,37.806257],[138.89401,37.805891],[138.893844,37.806514],[138.89317,37.806403],[138.893326,37.805777],[138.890665,37.805325],[138.888032,37.806489],[138.887944,37.807493],[138.88665,37.807518],[138.8864,37.808127],[138.884916,37.807777],[138.884739,37.808403],[138.883168,37.807955],[138.882429,37.808295],[138.880703,37.807842],[138.878975,37.80712],[138.878185,37.808141],[138.873676,37.806591],[138.873094,37.807605],[138.871771,37.807119],[138.871098,37.807678],[138.8699,37.809373],[138.868599,37.808796],[138.86883,37.808512],[138.865595,37.807132],[138.865587,37.806818],[138.863636,37.806064],[138.863174,37.806843],[138.861524,37.806934],[138.861084,37.807234],[138.864433,37.808865],[138.866646,37.810219],[138.868302,37.810801],[138.869628,37.811639],[138.871366,37.812351],[138.871338,37.812764],[138.86929,37.812199],[138.86828,37.811731],[138.867137,37.811594],[138.864178,37.809577],[138.863887,37.809095],[138.862552,37.808155],[138.859607,37.807199],[138.859505,37.806766],[138.858281,37.806748],[138.856693,37.807009],[138.856161,37.807717],[138.85681,37.809564],[138.858421,37.812126],[138.860204,37.816228],[138.860306,37.818319],[138.860624,37.82034],[138.862827,37.822177],[138.863244,37.823334],[138.86478,37.825807],[138.865545,37.826566],[138.866099,37.827918],[138.862658,37.829878],[138.859716,37.831849],[138.857877,37.830157],[138.855111,37.827786],[138.851423,37.824825],[138.8497,37.823119],[138.846708,37.820495],[138.845325,37.819155],[138.843602,37.818124],[138.841843,37.816649],[138.84146,37.815945],[138.840014,37.814223],[138.839603,37.813457],[138.83839,37.812416],[138.837156,37.811762],[138.835348,37.810501],[138.834618,37.809409],[138.833893,37.808728],[138.834334,37.808384],[138.833746,37.807861],[138.834029,37.807331],[138.832753,37.806256],[138.831909,37.804989],[138.830093,37.803317],[138.829257,37.802253],[138.828285,37.801515],[138.827271,37.800231],[138.823839,37.796605],[138.823052,37.796047],[138.822343,37.795107],[138.821357,37.79428],[138.820478,37.794488],[138.819669,37.794094],[138.819903,37.793277],[138.819187,37.793148],[138.818279,37.79165],[138.818159,37.790884],[138.818493,37.790006],[138.818081,37.789679],[138.818244,37.789015],[138.817769,37.788356],[138.816188,37.788075],[138.81545,37.786938],[138.816131,37.78647],[138.816174,37.78504],[138.815812,37.783615],[138.815287,37.782957],[138.815536,37.781797],[138.814671,37.780249],[138.813656,37.779725],[138.813337,37.77839],[138.81243,37.777039],[138.812326,37.775809],[138.811555,37.774767],[138.811079,37.773157],[138.810238,37.772124],[138.809919,37.769815],[138.808863,37.76762],[138.808055,37.766353],[138.806736,37.763926],[138.806594,37.763419],[138.805573,37.761786],[138.805083,37.760649],[138.804268,37.759748],[138.803509,37.758329],[138.80227,37.756721],[138.801588,37.756306],[138.801198,37.75539],[138.80141,37.754799],[138.801006,37.75427],[138.800744,37.75311],[138.800863,37.752164],[138.800304,37.751527],[138.799638,37.750217],[138.799765,37.748814],[138.799064,37.747581],[138.798199,37.747265],[138.798462,37.746601],[138.796917,37.745024],[138.796093,37.743268],[138.795864,37.74232],[138.79634,37.741461],[138.796239,37.740284],[138.79538,37.740355],[138.79521,37.739194],[138.793948,37.739027],[138.793782,37.738407],[138.794203,37.737358],[138.794744,37.736915],[138.795702,37.736688],[138.795127,37.734592],[138.793599,37.731886],[138.793472,37.731015],[138.792292,37.729693],[138.791364,37.729152],[138.790578,37.729006],[138.790784,37.728443],[138.790628,37.72721],[138.788857,37.725492],[138.788205,37.725301],[138.788892,37.724405],[138.788793,37.723043],[138.788212,37.721709],[138.787419,37.721078],[138.786519,37.721263],[138.786087,37.720915],[138.785882,37.719946],[138.786095,37.719406],[138.785088,37.717908],[138.785181,37.717176],[138.784791,37.716303],[138.784827,37.715166],[138.784267,37.714834],[138.784473,37.714259],[138.785386,37.7144],[138.78613,37.713764],[138.787044,37.711872],[138.787235,37.710296],[138.786839,37.709322],[138.786612,37.707812],[138.78555,37.70724],[138.786795,37.70639],[138.787751,37.70634],[138.788896,37.70584],[138.789694,37.705798],[138.790198,37.705181],[138.79128,37.705481],[138.791689,37.705994],[138.79275,37.70667],[138.793411,37.708038],[138.79465,37.70866],[138.79568,37.70896],[138.79717,37.710228],[138.798945,37.709769],[138.800983,37.709607],[138.802779,37.709081],[138.804385,37.708013],[138.805278,37.707629],[138.807363,37.707345],[138.808413,37.706811],[138.808644,37.707454],[138.809452,37.708213],[138.81023,37.709427],[138.811248,37.709978],[138.811343,37.710795],[138.812455,37.712068],[138.813044,37.713219],[138.813285,37.714362],[138.812896,37.714884],[138.813201,37.716035],[138.815553,37.71732],[138.816446,37.718409],[138.820352,37.717733],[138.820426,37.717366],[138.823083,37.716719],[138.824648,37.716503],[138.828649,37.715422],[138.831296,37.715005],[138.833028,37.714413],[138.835874,37.714409],[138.839497,37.714192],[138.84207,37.71468],[138.843456,37.712778],[138.844423,37.714655],[138.846817,37.713879],[138.84562,37.711564],[138.846702,37.710746],[138.851554,37.709066],[138.851816,37.709541],[138.853202,37.709149],[138.853192,37.708782],[138.856815,37.708261],[138.85692,37.708636],[138.858579,37.708444],[138.861142,37.707318],[138.863484,37.707493],[138.864324,37.707435],[138.865244,37.706728],[138.866329,37.708102],[138.867894,37.709675],[138.86928,37.710151],[138.870131,37.710693],[138.871951,37.711388],[138.875115,37.712036],[138.880126,37.71256],[138.882176,37.71298],[138.884335,37.713581],[138.884908,37.713252],[138.8851,37.712079],[138.88615,37.712188],[138.886311,37.71114],[138.887764,37.711475],[138.892779,37.714231],[138.893553,37.714121],[138.895882,37.714436],[138.89782,37.713849],[138.900179,37.714306],[138.902707,37.7152],[138.905438,37.716048],[138.90982,37.717598],[138.91197,37.718538],[138.912045,37.720198],[138.912245,37.721053],[138.913155,37.72255],[138.913161,37.72328],[138.913838,37.723449],[138.913781,37.726687],[138.914775,37.72852],[138.914978,37.7303],[138.919197,37.730106],[138.922973,37.729797],[138.924693,37.729947],[138.924727,37.729053],[138.925684,37.729152],[138.92542,37.730661],[138.926981,37.730821],[138.926637,37.731862],[138.930262,37.732124],[138.930757,37.732021],[138.931138,37.730805],[138.932855,37.730445],[138.932427,37.729208],[138.931635,37.728855],[138.93168,37.727937],[138.931203,37.726433],[138.930603,37.725522],[138.930077,37.722807],[138.930047,37.721945],[138.930689,37.721196],[138.93639,37.720767],[138.936663,37.72086],[138.940462,37.720126],[138.940588,37.720508],[138.941947,37.720248],[138.941785,37.719096],[138.942283,37.718991],[138.944558,37.716529],[138.945962,37.717397],[138.946814,37.716992],[138.946397,37.715812],[138.946757,37.707974],[138.947093,37.707841],[138.946382,37.706021],[138.946361,37.705118],[138.945893,37.704613],[138.946256,37.700727],[138.94921,37.700967],[138.948995,37.70264],[138.955838,37.703148],[138.955774,37.704784],[138.957251,37.704825],[138.958417,37.705331],[138.961856,37.705921],[138.96337,37.708969],[138.963538,37.709084],[138.965863,37.708667],[138.965705,37.708096],[138.963913,37.708421],[138.96411,37.707935],[138.966011,37.705335],[138.966032,37.705031],[138.965289,37.699531],[138.96536,37.698764],[138.96596,37.696423],[138.963748,37.696622],[138.962935,37.695276],[138.9616,37.692649],[138.960776,37.69165],[138.959814,37.691689],[138.959663,37.690682],[138.961834,37.690263],[138.961872,37.689938],[138.963529,37.690062],[138.963685,37.689344],[138.964827,37.689784],[138.966433,37.689696],[138.970138,37.689984],[138.971125,37.689915],[138.971185,37.689286],[138.973064,37.689438],[138.973148,37.688737],[138.972608,37.688527],[138.972946,37.687186],[138.972038,37.686106],[138.972643,37.685972],[138.972989,37.684201],[138.973895,37.684215],[138.9743,37.681882],[138.976953,37.682048],[138.979006,37.683302],[138.979899,37.684245],[138.979669,37.685469],[138.978111,37.689218],[138.977831,37.690575],[138.977789,37.691826],[138.978659,37.694069],[138.979921,37.695358],[138.983134,37.697238],[138.985033,37.698822],[138.98581,37.700102],[138.986085,37.701712],[138.985307,37.706943],[138.985286,37.708616],[138.985667,37.710645],[138.986233,37.711544],[138.986916,37.712166],[138.986194,37.712913],[138.985166,37.713569],[138.985589,37.714902],[138.986084,37.717151],[138.985848,37.717208],[138.985389,37.719159],[138.985385,37.720741],[138.986971,37.724485],[138.986241,37.72468],[138.986056,37.725338],[138.987313,37.728309],[138.986913,37.728416],[138.987759,37.730937],[138.988401,37.731389],[138.989217,37.73119],[138.990904,37.735175],[138.990501,37.735283],[138.990082,37.734291],[138.989318,37.734055],[138.988816,37.732894],[138.987759,37.731571],[138.985935,37.73207],[138.985523,37.731581],[138.985557,37.73035],[138.980208,37.731795],[138.980195,37.730127],[138.978491,37.730159],[138.978936,37.731901],[138.978042,37.732706],[138.978528,37.733743],[138.978699,37.734796],[138.977962,37.735032],[138.975355,37.735356],[138.974473,37.735151],[138.973064,37.735632],[138.972016,37.737075],[138.971678,37.738774],[138.971834,37.740752],[138.972298,37.742368],[138.971632,37.742471],[138.97211,37.744224],[138.972751,37.744114],[138.973356,37.746384],[138.971012,37.746793],[138.970932,37.749596],[138.971238,37.750783],[138.971039,37.751629],[138.971419,37.753188],[138.972076,37.754965],[138.972512,37.755751],[138.972501,37.756474],[138.971788,37.756976],[138.972182,37.757329],[138.97298,37.756448],[138.973937,37.753391],[138.976938,37.749297],[138.982032,37.751296],[138.982254,37.752111],[138.983593,37.752616],[138.983744,37.753435],[138.98676,37.754616],[138.986989,37.75529],[138.986377,37.756313],[138.986696,37.75881],[138.9884,37.757331],[138.989614,37.756969],[138.989951,37.756486],[138.990777,37.756909],[138.991467,37.755676],[138.991985,37.755353],[138.992605,37.755921],[138.994841,37.758643],[138.993311,37.765611],[138.993714,37.767986],[138.992771,37.768063],[138.991963,37.771803],[138.99071,37.771922],[138.989998,37.772293],[138.990402,37.775188],[138.981847,37.779651],[138.982701,37.780679],[138.97856,37.782834],[138.979034,37.783388],[138.979857,37.783176],[138.984046,37.781001],[138.984282,37.781613],[138.985489,37.781315],[138.986042,37.782768],[138.984039,37.783249],[138.98454,37.784579],[138.982507,37.785074],[138.982159,37.78419],[138.981418,37.784372],[138.981965,37.785786],[138.981582,37.786557],[138.980641,37.786791],[138.981026,37.787794],[138.980141,37.788],[138.980573,37.789121],[138.979914,37.789293],[138.980768,37.791511],[138.981961,37.79363],[138.980573,37.793967],[138.980813,37.79458],[138.978892,37.795223],[138.979212,37.796074],[138.98121,37.795559],[138.981506,37.796283],[138.982483,37.79605],[138.982927,37.797191],[138.982164,37.798073],[138.979587,37.7987],[138.980285,37.800544],[138.979577,37.800707],[138.980046,37.801978],[138.981604,37.800216],[138.982925,37.800926],[138.982222,37.801729],[138.982786,37.802034],[138.979304,37.806073]],[[138.96513,37.694676],[138.965535,37.694712],[138.965864,37.692607],[138.963557,37.692384],[138.963887,37.694211],[138.964764,37.695115],[138.96513,37.694676]]]]}}
]}
