{"type":"FeatureCollection", "features": [
  {"type":"Feature","properties":{"name":"北区","code":"33101"},"geometry":{"type":"MultiPolygon","coordinates":[[[[133.83027,34.62788],[133.83084,34.62723],[133.83166,34.62679],[133.83211,34.62576],[133.83361,34.62615],[133.83418,34.62524],[133.83456,34.62384],[133.83454,34.6231],[133.83501,34.62252],[133.83496,34.62148],[133.83604,34.61992],[133.8367,34.61982],[133.83784,34.6201],[133.83943,34.61866],[133.84009,34.61901],[133.84056,34.61994],[133.84233,34.62063],[133.84346,34.62135],[133.8436,34.6236],[133.84321,34.62479],[133.84488,34.6248],[133.84607,34.62537],[133.84673,34.62621],[133.84792,34.62727],[133.84788,34.62857],[133.85146,34.63089],[133.8519,34.63227],[133.85246,34.6326],[133.85247,34.63389],[133.85216,34.63445],[133.85419,34.63494],[133.85517,34.6354],[133.85673,34.63565],[133.85877,34.63658],[133.85985,34.63661],[133.86339,34.63524],[133.86711,34.63348],[133.868,34.63298],[133.86952,34.63274],[133.8708,34.63318],[133.87278,34.63427],[133.8735,34.63431],[133.87588,34.63371],[133.88028,34.63219],[133.8816,34.63075],[133.88353,34.62977],[133.88675,34.62969],[133.88705,34.62959],[133.88786,34.63117],[133.88875,34.63107],[133.89163,34.63124],[133.89191,34.63361],[133.89365,34.63404],[133.89475,34.63403],[133.8963,34.63519],[133.89756,34.6352],[133.89747,34.63639],[133.89886,34.63662],[133.89961,34.63695],[133.90051,34.63614],[133.90442,34.63603],[133.90657,34.63807],[133.90958,34.64106],[133.91042,34.64234],[133.91111,34.64306],[133.9119,34.64262],[133.91217,34.64131],[133.91209,34.64027],[133.91226,34.63929],[133.91318,34.63916],[133.91306,34.63813],[133.91394,34.63783],[133.91771,34.63782],[133.91728,34.63553],[133.91765,34.63486],[133.91611,34.63422],[133.91667,34.63329],[133.91583,34.63079],[133.91572,34.63005],[133.9171,34.62968],[133.92452,34.62826],[133.92509,34.62995],[133.92574,34.63044],[133.92654,34.63044],[133.92688,34.63501],[133.93236,34.63449],[133.93269,34.63469],[133.93303,34.63704],[133.93627,34.63521],[133.93778,34.63473],[133.93864,34.63594],[133.93668,34.63756],[133.93497,34.63941],[133.93299,34.64233],[133.93088,34.64633],[133.93055,34.64739],[133.93052,34.6492],[133.93167,34.6529],[133.9324,34.65641],[133.9332,34.65844],[133.93432,34.65968],[133.93664,34.66109],[133.93711,34.66155],[133.93767,34.6627],[133.93878,34.66331],[133.93901,34.66398],[133.93888,34.6651],[133.93813,34.66737],[133.93758,34.66841],[133.93693,34.66885],[133.93381,34.67042],[133.93267,34.67047],[133.93223,34.6726],[133.93207,34.67465],[133.93248,34.67781],[133.93338,34.68031],[133.93404,34.68179],[133.93536,34.68363],[133.93815,34.68658],[133.93922,34.68818],[133.93971,34.68923],[133.93941,34.69006],[133.94034,34.69118],[133.94268,34.69318],[133.94325,34.69384],[133.94561,34.69501],[133.94746,34.69531],[133.94847,34.69595],[133.94907,34.6977],[133.94977,34.69892],[133.95103,34.69969],[133.95188,34.70088],[133.95194,34.70149],[133.95165,34.70274],[133.95246,34.70385],[133.95327,34.70451],[133.95466,34.70521],[133.95591,34.70607],[133.95666,34.70589],[133.95693,34.70675],[133.95806,34.70749],[133.95915,34.70862],[133.95976,34.71023],[133.96043,34.71054],[133.96229,34.71078],[133.9643,34.71149],[133.96081,34.71144],[133.9591,34.71166],[133.9591,34.71198],[133.95819,34.71315],[133.96093,34.71321],[133.96381,34.71387],[133.96731,34.71398],[133.97205,34.71373],[133.97393,34.71396],[133.97532,34.71399],[133.97537,34.71318],[133.97745,34.71331],[133.97825,34.71351],[133.97973,34.71421],[133.98018,34.71339],[133.98146,34.71378],[133.98247,34.71439],[133.98319,34.71454],[133.98571,34.71277],[133.98594,34.7131],[133.98724,34.71304],[133.98889,34.71343],[133.99002,34.71432],[133.99014,34.71559],[133.9906,34.71611],[133.99148,34.71645],[133.99359,34.71654],[133.99319,34.71773],[133.99375,34.71918],[133.99359,34.71964],[133.99329,34.72046],[133.99241,34.72111],[133.99271,34.72256],[133.9933,34.72342],[133.99332,34.7241],[133.99396,34.72654],[133.99243,34.72688],[133.99136,34.72757],[133.99203,34.7288],[133.99082,34.73017],[133.99052,34.73084],[133.98877,34.73247],[133.98712,34.73279],[133.98653,34.73348],[133.98681,34.73566],[133.98608,34.73658],[133.98493,34.7369],[133.98336,34.73691],[133.98233,34.73763],[133.98396,34.73887],[133.98409,34.7395],[133.98227,34.7403],[133.98129,34.74053],[133.97961,34.74153],[133.97937,34.74258],[133.97993,34.74325],[133.98096,34.74359],[133.98372,34.74291],[133.98339,34.74419],[133.98273,34.74465],[133.97981,34.74429],[133.97882,34.74396],[133.97843,34.74495],[133.97663,34.74522],[133.97511,34.74559],[133.97392,34.74535],[133.97284,34.74481],[133.97251,34.7458],[133.97276,34.74721],[133.97142,34.74943],[133.9714,34.75049],[133.97172,34.75223],[133.97257,34.75387],[133.97343,34.75425],[133.97446,34.7542],[133.97622,34.75472],[133.97671,34.75508],[133.97998,34.75554],[133.98101,34.75505],[133.98125,34.75577],[133.98191,34.75667],[133.98354,34.758],[133.98369,34.75958],[133.98441,34.76014],[133.98541,34.76044],[133.98585,34.76133],[133.98589,34.76351],[133.98627,34.76417],[133.98605,34.76518],[133.98666,34.76666],[133.98643,34.76764],[133.98594,34.76781],[133.98332,34.76724],[133.98212,34.76638],[133.98142,34.7661],[133.98082,34.76657],[133.9793,34.76692],[133.97897,34.76775],[133.97822,34.76832],[133.97726,34.7686],[133.97662,34.76927],[133.97676,34.77105],[133.97803,34.77297],[133.97819,34.77354],[133.9778,34.7741],[133.97825,34.77458],[133.98025,34.77504],[133.98061,34.77575],[133.98041,34.7764],[133.98068,34.77864],[133.98008,34.77921],[133.98006,34.78048],[133.9793,34.78084],[133.97728,34.78052],[133.97628,34.78008],[133.97561,34.7803],[133.9747,34.78141],[133.97313,34.78251],[133.97155,34.78213],[133.97029,34.78422],[133.96956,34.78477],[133.96842,34.78439],[133.96744,34.78447],[133.96602,34.78501],[133.96502,34.78569],[133.9637,34.78593],[133.96269,34.78563],[133.9617,34.78601],[133.96191,34.78715],[133.9617,34.78807],[133.96253,34.78904],[133.96307,34.78904],[133.9649,34.78975],[133.96534,34.79083],[133.96585,34.79136],[133.96684,34.79183],[133.96696,34.79277],[133.96767,34.79332],[133.96755,34.79415],[133.96797,34.79511],[133.96948,34.79702],[133.97092,34.79703],[133.97069,34.79835],[133.97097,34.79866],[133.97269,34.79924],[133.97319,34.80012],[133.97334,34.80157],[133.97367,34.80257],[133.97467,34.80392],[133.97646,34.80454],[133.97877,34.80433],[133.98036,34.80511],[133.98064,34.80576],[133.98205,34.80556],[133.98359,34.80646],[133.98452,34.80638],[133.98555,34.807],[133.98655,34.80861],[133.98651,34.80958],[133.98561,34.81099],[133.98542,34.81174],[133.98564,34.81312],[133.98692,34.8137],[133.98728,34.81408],[133.98702,34.81467],[133.98692,34.81589],[133.98709,34.81655],[133.98677,34.8173],[133.98709,34.81826],[133.98583,34.81958],[133.98511,34.81995],[133.9852,34.82097],[133.98708,34.82186],[133.98753,34.8235],[133.99031,34.82518],[133.99046,34.82635],[133.9912,34.82708],[133.99102,34.8275],[133.98991,34.82782],[133.98952,34.82864],[133.9884,34.82974],[133.98834,34.8306],[133.98954,34.83106],[133.99003,34.83181],[133.99093,34.8324],[133.98841,34.83284],[133.98819,34.83467],[133.98767,34.83526],[133.98774,34.83576],[133.98851,34.83611],[133.98923,34.83716],[133.99011,34.83715],[133.99163,34.8394],[133.99167,34.83991],[133.99282,34.84129],[133.99259,34.84299],[133.9927,34.84388],[133.99264,34.84589],[133.99322,34.84701],[133.99323,34.84868],[133.99396,34.84925],[133.99399,34.85007],[133.9929,34.85089],[133.99221,34.85169],[133.99073,34.85214],[133.98838,34.85321],[133.98707,34.85442],[133.98671,34.85425],[133.9865,34.85305],[133.98537,34.85435],[133.98362,34.85463],[133.98193,34.85504],[133.98156,34.85469],[133.98133,34.8537],[133.9807,34.85278],[133.97984,34.85105],[133.98005,34.84972],[133.97903,34.84939],[133.97757,34.84713],[133.97791,34.84645],[133.97781,34.84547],[133.97747,34.84465],[133.97836,34.84333],[133.978,34.84311],[133.97629,34.84327],[133.97474,34.84427],[133.97607,34.84479],[133.9762,34.84528],[133.97484,34.84633],[133.97375,34.84637],[133.97246,34.84576],[133.97184,34.84639],[133.97205,34.84713],[133.97154,34.84798],[133.97067,34.84791],[133.96968,34.84859],[133.968,34.84857],[133.96596,34.84973],[133.96479,34.84979],[133.96324,34.85011],[133.96222,34.84974],[133.96171,34.85016],[133.96276,34.8509],[133.96455,34.8517],[133.96488,34.85244],[133.96677,34.85308],[133.96829,34.85315],[133.96889,34.8547],[133.9673,34.85601],[133.96692,34.85762],[133.9661,34.85802],[133.96557,34.85897],[133.96588,34.85963],[133.96464,34.86053],[133.9633,34.86355],[133.96256,34.86347],[133.96142,34.86378],[133.96139,34.8664],[133.96091,34.86722],[133.96111,34.86801],[133.95922,34.87003],[133.95846,34.87169],[133.9575,34.87197],[133.95637,34.87274],[133.95535,34.87273],[133.95315,34.87156],[133.95217,34.8721],[133.95144,34.87212],[133.95105,34.8717],[133.94987,34.87106],[133.94893,34.87113],[133.94686,34.87082],[133.94655,34.87033],[133.94551,34.86966],[133.94332,34.87001],[133.941,34.87128],[133.93974,34.87112],[133.93871,34.8712],[133.93746,34.87097],[133.9362,34.8715],[133.93487,34.87318],[133.93429,34.87334],[133.93343,34.87292],[133.93264,34.87328],[133.93251,34.87398],[133.93122,34.87416],[133.92951,34.87398],[133.92895,34.87321],[133.92787,34.87279],[133.92784,34.87466],[133.92804,34.87513],[133.92879,34.87545],[133.92978,34.87642],[133.93091,34.87662],[133.93172,34.87745],[133.93284,34.87812],[133.93359,34.87943],[133.93536,34.88125],[133.93709,34.88244],[133.9385,34.88394],[133.93824,34.88477],[133.93623,34.88437],[133.93528,34.8844],[133.93512,34.88534],[133.93422,34.88597],[133.93182,34.88688],[133.93056,34.88784],[133.92935,34.88944],[133.92911,34.89003],[133.92811,34.89091],[133.92744,34.89186],[133.92758,34.89249],[133.92641,34.89342],[133.92587,34.89307],[133.92418,34.89279],[133.92278,34.893],[133.92227,34.89401],[133.92121,34.89429],[133.92065,34.89489],[133.92095,34.89613],[133.92148,34.89692],[133.92098,34.89771],[133.92155,34.89898],[133.92205,34.89956],[133.9232,34.9003],[133.92294,34.90129],[133.92223,34.90083],[133.92049,34.90107],[133.91947,34.90162],[133.91837,34.90263],[133.91738,34.90245],[133.91665,34.90321],[133.91492,34.90328],[133.9138,34.90303],[133.91295,34.90322],[133.91229,34.90374],[133.91154,34.90478],[133.91214,34.906],[133.91149,34.90645],[133.91064,34.90628],[133.90923,34.90666],[133.90845,34.90622],[133.90794,34.90523],[133.90739,34.90512],[133.90534,34.9053],[133.90493,34.90406],[133.90418,34.90415],[133.90414,34.90312],[133.90316,34.90318],[133.90257,34.90149],[133.9015,34.9018],[133.90022,34.90307],[133.89974,34.904],[133.89977,34.90524],[133.89941,34.90581],[133.89866,34.9063],[133.89823,34.90749],[133.89549,34.90824],[133.89471,34.9088],[133.89417,34.90959],[133.89388,34.91131],[133.89446,34.91218],[133.8943,34.91355],[133.89477,34.9137],[133.8971,34.91358],[133.89826,34.91323],[133.90011,34.91403],[133.90104,34.91554],[133.90227,34.9161],[133.90343,34.91572],[133.90396,34.91586],[133.90445,34.91707],[133.90589,34.91772],[133.90627,34.91822],[133.90493,34.91951],[133.90393,34.92007],[133.90201,34.92067],[133.90098,34.92146],[133.90054,34.92258],[133.90101,34.92312],[133.90177,34.92336],[133.90249,34.92399],[133.9034,34.92548],[133.90511,34.92526],[133.90546,34.92494],[133.90711,34.92512],[133.90858,34.92658],[133.90856,34.92881],[133.90876,34.92952],[133.90976,34.93104],[133.90948,34.93183],[133.90961,34.93271],[133.90876,34.93372],[133.90756,34.93442],[133.90704,34.93497],[133.9071,34.93547],[133.90652,34.9363],[133.90634,34.93818],[133.90674,34.93924],[133.90734,34.94147],[133.90813,34.94177],[133.90996,34.94331],[133.91013,34.94384],[133.91012,34.94525],[133.91042,34.94594],[133.91194,34.94629],[133.91247,34.94657],[133.91153,34.9475],[133.91068,34.94788],[133.90956,34.94793],[133.90767,34.94879],[133.90549,34.94909],[133.90518,34.94852],[133.90518,34.94767],[133.90446,34.94717],[133.904,34.94614],[133.90313,34.94574],[133.90216,34.94643],[133.90165,34.94461],[133.90194,34.94432],[133.90139,34.94298],[133.89958,34.94277],[133.89847,34.94286],[133.8977,34.94351],[133.89778,34.94445],[133.89614,34.94487],[133.89558,34.94436],[133.89442,34.94472],[133.89249,34.94435],[133.89228,34.94488],[133.89037,34.94492],[133.88915,34.94398],[133.8881,34.94404],[133.88759,34.94522],[133.88736,34.94636],[133.88585,34.94723],[133.88494,34.9483],[133.88294,34.94834],[133.88182,34.94626],[133.881,34.94567],[133.88042,34.94471],[133.87923,34.94373],[133.87827,34.94323],[133.87691,34.94209],[133.87625,34.94128],[133.87591,34.94048],[133.87488,34.93982],[133.87305,34.93946],[133.87091,34.93921],[133.86944,34.93831],[133.86734,34.93752],[133.86766,34.93658],[133.86768,34.93567],[133.86913,34.93367],[133.86941,34.93253],[133.86852,34.93268],[133.86641,34.93432],[133.86555,34.93623],[133.86491,34.9369],[133.86389,34.93712],[133.86313,34.93857],[133.86276,34.94137],[133.86192,34.9419],[133.86117,34.94359],[133.86071,34.94371],[133.85741,34.94288],[133.85589,34.94349],[133.85513,34.94457],[133.85401,34.94465],[133.85318,34.94416],[133.85045,34.94319],[133.85067,34.94207],[133.85132,34.94134],[133.85172,34.94038],[133.85265,34.93959],[133.8528,34.93885],[133.85231,34.93743],[133.8521,34.93619],[133.85024,34.93438],[133.85101,34.93355],[133.85231,34.93148],[133.8526,34.93058],[133.85278,34.92906],[133.85236,34.92736],[133.85177,34.92657],[133.84964,34.92536],[133.84812,34.9241],[133.84768,34.92344],[133.84725,34.92213],[133.84748,34.92077],[133.84813,34.91928],[133.84954,34.91693],[133.85031,34.91598],[133.8517,34.91502],[133.85254,34.91472],[133.8551,34.91421],[133.85703,34.91342],[133.85873,34.91241],[133.85943,34.9118],[133.86052,34.91048],[133.86194,34.90817],[133.86281,34.90702],[133.86398,34.90618],[133.86732,34.90531],[133.8687,34.90543],[133.87188,34.90656],[133.87425,34.90701],[133.87594,34.9066],[133.87662,34.90624],[133.87709,34.90561],[133.8784,34.90311],[133.87674,34.90216],[133.87559,34.90221],[133.87268,34.90039],[133.87188,34.90016],[133.86896,34.90011],[133.86783,34.89997],[133.86702,34.90029],[133.86596,34.90006],[133.86526,34.8994],[133.86535,34.89859],[133.86584,34.89786],[133.86494,34.89645],[133.8632,34.89552],[133.86125,34.89495],[133.85998,34.89407],[133.8582,34.8942],[133.8566,34.89523],[133.85446,34.89352],[133.85448,34.89258],[133.85365,34.89227],[133.85158,34.89044],[133.85112,34.88898],[133.85157,34.8879],[133.85254,34.88723],[133.85187,34.88678],[133.85051,34.88736],[133.84954,34.88649],[133.84848,34.88593],[133.84843,34.88484],[133.84807,34.8837],[133.84923,34.88231],[133.84916,34.88095],[133.85022,34.87948],[133.84925,34.87897],[133.84812,34.8789],[133.84725,34.87813],[133.84677,34.87665],[133.84684,34.87545],[133.84542,34.87318],[133.84516,34.87238],[133.84452,34.8726],[133.84386,34.87135],[133.84324,34.86923],[133.84427,34.86824],[133.84468,34.86645],[133.84497,34.866],[133.84662,34.86467],[133.84699,34.86398],[133.84632,34.86276],[133.84604,34.86162],[133.84489,34.85984],[133.84554,34.8583],[133.84536,34.85704],[133.8465,34.85679],[133.84683,34.85635],[133.8468,34.85483],[133.84786,34.85413],[133.84799,34.85363],[133.84677,34.85207],[133.84582,34.85161],[133.8449,34.85072],[133.84376,34.84993],[133.84284,34.84823],[133.84297,34.84734],[133.84271,34.84642],[133.84371,34.84535],[133.84348,34.84467],[133.84203,34.84373],[133.84005,34.84286],[133.83742,34.84213],[133.83626,34.84217],[133.83492,34.84196],[133.83356,34.84118],[133.83358,34.84196],[133.83443,34.84301],[133.83339,34.84351],[133.83267,34.84327],[133.83169,34.8422],[133.83012,34.84226],[133.82837,34.8417],[133.82785,34.84107],[133.82621,34.84002],[133.82472,34.83952],[133.8241,34.83834],[133.82337,34.8376],[133.82267,34.83748],[133.82069,34.83636],[133.82015,34.83529],[133.81967,34.83509],[133.81841,34.83513],[133.81761,34.83453],[133.81709,34.83223],[133.81616,34.82933],[133.81701,34.82771],[133.81673,34.82643],[133.8174,34.82595],[133.81762,34.82394],[133.81884,34.82273],[133.81952,34.82158],[133.82011,34.82111],[133.81996,34.82007],[133.82052,34.81934],[133.81968,34.81929],[133.81816,34.81867],[133.81765,34.81694],[133.81846,34.81597],[133.81823,34.81539],[133.81871,34.81408],[133.81832,34.81328],[133.81865,34.81253],[133.82031,34.81074],[133.81902,34.80781],[133.81889,34.80663],[133.81751,34.80615],[133.81642,34.80546],[133.81486,34.80544],[133.81351,34.8061],[133.81253,34.80635],[133.81127,34.8071],[133.80895,34.80772],[133.80765,34.80828],[133.80711,34.80979],[133.80755,34.81154],[133.80681,34.81209],[133.80272,34.81316],[133.8016,34.8144],[133.79935,34.81472],[133.79878,34.81555],[133.7986,34.81701],[133.79919,34.81797],[133.79921,34.81874],[133.79968,34.81956],[133.79652,34.82014],[133.79553,34.81908],[133.79607,34.81881],[133.79627,34.81796],[133.79532,34.81727],[133.79506,34.81657],[133.79535,34.81552],[133.79506,34.81388],[133.79221,34.81438],[133.79075,34.81422],[133.78905,34.81356],[133.78887,34.81235],[133.7876,34.81112],[133.78686,34.81097],[133.78527,34.81157],[133.78384,34.81116],[133.78299,34.81044],[133.78333,34.80952],[133.78289,34.80917],[133.78099,34.80892],[133.78114,34.80811],[133.78067,34.80649],[133.77964,34.8045],[133.77842,34.80353],[133.778,34.80283],[133.77654,34.80239],[133.77511,34.80108],[133.77312,34.79973],[133.77325,34.79935],[133.77503,34.79925],[133.7747,34.79778],[133.77413,34.79712],[133.77436,34.79614],[133.77407,34.79539],[133.77453,34.7946],[133.77408,34.79374],[133.77423,34.79193],[133.77372,34.79073],[133.77357,34.78964],[133.77385,34.78832],[133.77353,34.78695],[133.77292,34.7864],[133.76773,34.78674],[133.76757,34.78807],[133.76629,34.78977],[133.76566,34.78895],[133.76282,34.78753],[133.7624,34.7865],[133.76026,34.78595],[133.75836,34.78571],[133.75764,34.78486],[133.75729,34.78363],[133.75615,34.78219],[133.75563,34.78193],[133.7551,34.78297],[133.75374,34.78411],[133.7528,34.78589],[133.7501,34.78654],[133.74832,34.78772],[133.74794,34.78765],[133.74809,34.78629],[133.74755,34.78562],[133.74763,34.78463],[133.74863,34.78341],[133.74917,34.78239],[133.74832,34.78048],[133.74735,34.77947],[133.74681,34.77865],[133.74641,34.77753],[133.74538,34.77682],[133.74379,34.77709],[133.74342,34.77622],[133.74368,34.77361],[133.74344,34.77308],[133.74216,34.77223],[133.74134,34.77075],[133.73973,34.76961],[133.73969,34.76875],[133.74001,34.76813],[133.74046,34.76758],[133.74036,34.76663],[133.73999,34.76602],[133.74009,34.76398],[133.74023,34.76342],[133.73977,34.76261],[133.73983,34.76152],[133.74077,34.76037],[133.74187,34.75967],[133.74257,34.75853],[133.74228,34.75785],[133.74239,34.75694],[133.74349,34.75609],[133.74444,34.75442],[133.74491,34.75398],[133.74596,34.75388],[133.74624,34.75332],[133.7465,34.75058],[133.74514,34.74973],[133.74565,34.74911],[133.74804,34.74883],[133.7494,34.74787],[133.75147,34.74838],[133.75285,34.74809],[133.75361,34.74815],[133.75412,34.74737],[133.75488,34.74755],[133.75533,34.74864],[133.75623,34.74942],[133.75705,34.74965],[133.7573,34.74917],[133.75916,34.74846],[133.76019,34.74874],[133.76206,34.74861],[133.76227,34.74812],[133.76187,34.74713],[133.7623,34.7453],[133.76362,34.74473],[133.76404,34.74413],[133.76547,34.74347],[133.76571,34.74247],[133.7664,34.74232],[133.76737,34.74165],[133.7682,34.74167],[133.76944,34.74264],[133.7702,34.74282],[133.77078,34.74221],[133.77261,34.74215],[133.77277,34.74143],[133.77369,34.74075],[133.77501,34.74027],[133.77609,34.74025],[133.77864,34.73946],[133.78139,34.73613],[133.78227,34.73614],[133.78301,34.73547],[133.78435,34.73504],[133.78492,34.7344],[133.78596,34.73416],[133.78726,34.73349],[133.7883,34.73244],[133.78851,34.73178],[133.79077,34.73132],[133.79169,34.73006],[133.79239,34.72879],[133.79328,34.728],[133.79321,34.72716],[133.79376,34.72614],[133.79462,34.72526],[133.79533,34.72514],[133.7955,34.72434],[133.7962,34.72391],[133.79617,34.72326],[133.79729,34.72244],[133.79703,34.7212],[133.79764,34.71898],[133.79833,34.71723],[133.79886,34.71632],[133.79794,34.71601],[133.79835,34.71438],[133.79798,34.71417],[133.79831,34.71304],[133.79818,34.71228],[133.79975,34.71103],[133.79974,34.71055],[133.79897,34.70951],[133.79834,34.70786],[133.79832,34.7059],[133.79449,34.70412],[133.78369,34.69921],[133.7828,34.69927],[133.78215,34.69869],[133.78413,34.69816],[133.78557,34.69747],[133.78698,34.69723],[133.78646,34.6965],[133.78713,34.69581],[133.78797,34.69598],[133.78946,34.69721],[133.79001,34.69737],[133.78974,34.69828],[133.791,34.699],[133.79167,34.69851],[133.79318,34.69615],[133.79463,34.69657],[133.79558,34.69493],[133.79766,34.69174],[133.79863,34.69045],[133.80058,34.69006],[133.80247,34.68927],[133.80426,34.6873],[133.80416,34.68466],[133.80347,34.68358],[133.80171,34.6816],[133.80188,34.68051],[133.80123,34.67913],[133.80004,34.67904],[133.79943,34.67873],[133.7972,34.67827],[133.79564,34.67688],[133.7958,34.67587],[133.7957,34.67332],[133.79539,34.6724],[133.79379,34.67283],[133.79581,34.67099],[133.79589,34.66944],[133.79654,34.66899],[133.79651,34.66844],[133.79717,34.66663],[133.79916,34.66477],[133.80022,34.66329],[133.80128,34.6626],[133.80389,34.6635],[133.80675,34.66533],[133.80867,34.66579],[133.81013,34.66574],[133.81111,34.66634],[133.81188,34.66641],[133.81316,34.66776],[133.81629,34.66789],[133.81793,34.66787],[133.82168,34.66874],[133.82282,34.66868],[133.82493,34.66935],[133.82609,34.66643],[133.82788,34.66553],[133.82903,34.66471],[133.82948,34.66512],[133.8307,34.66433],[133.83163,34.66416],[133.83275,34.6632],[133.83349,34.66296],[133.83353,34.66251],[133.83503,34.66181],[133.83535,34.66084],[133.83484,34.66063],[133.83518,34.65957],[133.83493,34.65928],[133.83568,34.65761],[133.83656,34.6578],[133.83767,34.65502],[133.83559,34.65452],[133.83664,34.65162],[133.83431,34.65103],[133.83402,34.65185],[133.83182,34.65124],[133.83178,34.65093],[133.8327,34.64867],[133.83339,34.6464],[133.83483,34.64213],[133.83662,34.63735],[133.83753,34.63541],[133.83895,34.6357],[133.83925,34.63495],[133.83914,34.63387],[133.83577,34.63413],[133.83539,34.63343],[133.83587,34.63225],[133.83582,34.63155],[133.83533,34.63018],[133.83354,34.62878],[133.83323,34.62804],[133.83092,34.62816],[133.83027,34.62788]]]]}},
  {"type":"Feature","properties":{"name":"中区","code":"33102"},"geometry":{"type":"MultiPolygon","coordinates":[[[[133.93864,34.63594],[133.94184,34.63348],[133.94536,34.63084],[133.94621,34.63002],[133.94878,34.62643],[133.95036,34.62464],[133.95274,34.62267],[133.95369,34.62173],[133.95795,34.617],[133.95976,34.61482],[133.96597,34.60791],[133.97089,34.6018],[133.97286,34.60326],[133.97389,34.60272],[133.97554,34.60269],[133.97524,34.60164],[133.97623,34.60085],[133.97738,34.60034],[133.97877,34.6001],[133.98162,34.60016],[133.9816,34.60066],[133.97996,34.60061],[133.97814,34.60286],[133.97896,34.60331],[133.9799,34.60216],[133.9809,34.60271],[133.97995,34.60387],[133.98077,34.60432],[133.98278,34.60185],[133.98459,34.60285],[133.98259,34.60533],[133.984,34.60612],[133.98269,34.60749],[133.98875,34.61036],[133.9887,34.61111],[133.99168,34.61254],[133.99279,34.61232],[133.99519,34.61342],[133.9958,34.61354],[133.99577,34.61429],[133.99153,34.61461],[133.99029,34.61597],[133.98879,34.61815],[133.98754,34.62087],[133.98619,34.62412],[133.98577,34.62615],[133.98594,34.62906],[133.98664,34.63913],[133.98656,34.6396],[133.98663,34.64269],[133.98641,34.64513],[133.9872,34.64689],[133.98782,34.64787],[133.98799,34.6495],[133.98845,34.65157],[133.98806,34.65251],[133.98822,34.65321],[133.98923,34.65512],[133.99068,34.65545],[133.99185,34.65657],[133.99254,34.65834],[133.99293,34.66009],[133.99252,34.66279],[133.99302,34.66394],[133.99099,34.66464],[133.98936,34.66469],[133.98917,34.66607],[133.98841,34.66659],[133.98755,34.66679],[133.9865,34.66773],[133.98478,34.66775],[133.98459,34.66811],[133.98546,34.66898],[133.9857,34.66968],[133.9869,34.66917],[133.98754,34.66974],[133.9885,34.6694],[133.99166,34.67025],[133.99248,34.67111],[133.99606,34.67096],[133.99763,34.67104],[133.99764,34.66998],[133.9984,34.66996],[133.99891,34.67072],[133.99894,34.67191],[134.0008,34.67202],[134.00074,34.67285],[134.00135,34.67341],[134.00276,34.67314],[134.00297,34.67336],[134.00535,34.67432],[134.00603,34.67489],[134.00669,34.67634],[134.00672,34.67785],[134.00569,34.67932],[134.00502,34.67976],[134.00415,34.68108],[134.00387,34.68214],[133.99856,34.68211],[133.99863,34.68289],[133.99796,34.683],[133.99778,34.68434],[133.99676,34.68444],[133.99628,34.684],[133.99521,34.68399],[133.99514,34.68344],[133.99268,34.68357],[133.99265,34.68318],[133.99157,34.68301],[133.98907,34.68302],[133.98897,34.68786],[133.98902,34.69018],[133.98872,34.69095],[133.9891,34.69187],[133.9891,34.69734],[133.98788,34.69737],[133.98799,34.69813],[133.98723,34.69944],[133.98709,34.70117],[133.98628,34.70246],[133.98627,34.70397],[133.98476,34.70439],[133.98452,34.70491],[133.98454,34.70662],[133.98595,34.70765],[133.98389,34.70767],[133.98441,34.70867],[133.98549,34.70979],[133.98624,34.71082],[133.98656,34.71202],[133.98594,34.7131],[133.98571,34.71277],[133.98319,34.71454],[133.98247,34.71439],[133.98146,34.71378],[133.98018,34.71339],[133.97973,34.71421],[133.97825,34.71351],[133.97745,34.71331],[133.97537,34.71318],[133.97532,34.71399],[133.97393,34.71396],[133.97205,34.71373],[133.96731,34.71398],[133.96381,34.71387],[133.96093,34.71321],[133.95819,34.71315],[133.9591,34.71198],[133.9591,34.71166],[133.96081,34.71144],[133.9643,34.71149],[133.96229,34.71078],[133.96043,34.71054],[133.95976,34.71023],[133.95915,34.70862],[133.95806,34.70749],[133.95693,34.70675],[133.95666,34.70589],[133.95591,34.70607],[133.95466,34.70521],[133.95327,34.70451],[133.95246,34.70385],[133.95165,34.70274],[133.95194,34.70149],[133.95188,34.70088],[133.95103,34.69969],[133.94977,34.69892],[133.94907,34.6977],[133.94847,34.69595],[133.94746,34.69531],[133.94561,34.69501],[133.94325,34.69384],[133.94268,34.69318],[133.94034,34.69118],[133.93941,34.69006],[133.93971,34.68923],[133.93922,34.68818],[133.93815,34.68658],[133.93536,34.68363],[133.93404,34.68179],[133.93338,34.68031],[133.93248,34.67781],[133.93207,34.67465],[133.93223,34.6726],[133.93267,34.67047],[133.93381,34.67042],[133.93693,34.66885],[133.93758,34.66841],[133.93813,34.66737],[133.93888,34.6651],[133.93901,34.66398],[133.93878,34.66331],[133.93767,34.6627],[133.93711,34.66155],[133.93664,34.66109],[133.93432,34.65968],[133.9332,34.65844],[133.9324,34.65641],[133.93167,34.6529],[133.93052,34.6492],[133.93055,34.64739],[133.93088,34.64633],[133.93299,34.64233],[133.93497,34.63941],[133.93668,34.63756],[133.93864,34.63594]]],[[[133.98393,34.60687],[133.98577,34.60466],[133.98686,34.6052],[133.9881,34.60709],[133.98714,34.60844],[133.98564,34.60816],[133.98405,34.60762],[133.98393,34.60687]]]]}},
  {"type":"Feature","properties":{"name":"東区","code":"33103"},"geometry":{"type":"MultiPolygon","coordinates":[[[[133.98594,34.7131],[133.98656,34.71202],[133.98624,34.71082],[133.98549,34.70979],[133.98441,34.70867],[133.98389,34.70767],[133.98595,34.70765],[133.98454,34.70662],[133.98452,34.70491],[133.98476,34.70439],[133.98627,34.70397],[133.98628,34.70246],[133.98709,34.70117],[133.98723,34.69944],[133.98799,34.69813],[133.98788,34.69737],[133.9891,34.69734],[133.9891,34.69187],[133.98872,34.69095],[133.98902,34.69018],[133.98897,34.68786],[133.98907,34.68302],[133.99157,34.68301],[133.99265,34.68318],[133.99268,34.68357],[133.99514,34.68344],[133.99521,34.68399],[133.99628,34.684],[133.99676,34.68444],[133.99778,34.68434],[133.99796,34.683],[133.99863,34.68289],[133.99856,34.68211],[134.00387,34.68214],[134.00415,34.68108],[134.00502,34.67976],[134.00569,34.67932],[134.00672,34.67785],[134.00669,34.67634],[134.00603,34.67489],[134.00535,34.67432],[134.00297,34.67336],[134.00276,34.67314],[134.00135,34.67341],[134.00074,34.67285],[134.0008,34.67202],[133.99894,34.67191],[133.99891,34.67072],[133.9984,34.66996],[133.99764,34.66998],[133.99763,34.67104],[133.99606,34.67096],[133.99248,34.67111],[133.99166,34.67025],[133.9885,34.6694],[133.98754,34.66974],[133.9869,34.66917],[133.9857,34.66968],[133.98546,34.66898],[133.98459,34.66811],[133.98478,34.66775],[133.9865,34.66773],[133.98755,34.66679],[133.98841,34.66659],[133.98917,34.66607],[133.98936,34.66469],[133.99099,34.66464],[133.99302,34.66394],[133.99252,34.66279],[133.99293,34.66009],[133.99254,34.65834],[133.99185,34.65657],[133.99068,34.65545],[133.98923,34.65512],[133.98822,34.65321],[133.98806,34.65251],[133.98845,34.65157],[133.98799,34.6495],[133.98782,34.64787],[133.9872,34.64689],[133.98641,34.64513],[133.98663,34.64269],[133.98656,34.6396],[133.98664,34.63913],[133.98594,34.62906],[133.98577,34.62615],[133.98619,34.62412],[133.98754,34.62087],[133.98879,34.61815],[133.99029,34.61597],[133.99153,34.61461],[133.99577,34.61429],[133.9958,34.61354],[133.99673,34.61352],[134.00287,34.61291],[134.01184,34.61127],[134.01898,34.60974],[134.02557,34.60688],[134.02698,34.60651],[134.02897,34.60639],[134.02925,34.60611],[134.02961,34.60426],[134.03001,34.60436],[134.0297,34.60591],[134.02938,34.60648],[134.03064,34.6066],[134.03161,34.60727],[134.03248,34.60911],[134.03692,34.60867],[134.04215,34.60833],[134.04237,34.60784],[134.04356,34.60687],[134.04521,34.60253],[134.04538,34.60168],[134.0452,34.60021],[134.04435,34.59965],[134.04456,34.59892],[134.04578,34.59894],[134.04743,34.59762],[134.04883,34.59871],[134.04854,34.59906],[134.05062,34.60072],[134.04938,34.60227],[134.0484,34.60305],[134.05105,34.60517],[134.05182,34.60528],[134.05364,34.60378],[134.05695,34.60634],[134.05783,34.60668],[134.05804,34.60777],[134.05992,34.60815],[134.06067,34.60776],[134.06207,34.60863],[134.06289,34.60856],[134.06401,34.60754],[134.06449,34.60602],[134.06447,34.605],[134.06402,34.60476],[134.06234,34.60496],[134.06157,34.60271],[134.06091,34.60227],[134.06001,34.60246],[134.05934,34.60334],[134.05792,34.60346],[134.05746,34.60293],[134.05725,34.60189],[134.05646,34.60193],[134.05321,34.59603],[134.05551,34.59592],[134.05474,34.59496],[134.05366,34.59517],[134.05392,34.59432],[134.05341,34.59337],[134.05293,34.59027],[134.05347,34.58946],[134.05337,34.58856],[134.05438,34.58643],[134.05595,34.58619],[134.05701,34.58633],[134.05875,34.58617],[134.05927,34.58597],[134.06009,34.58462],[134.06264,34.58466],[134.06467,34.58431],[134.06592,34.58447],[134.06812,34.58407],[134.06896,34.58379],[134.07076,34.58465],[134.07263,34.58505],[134.07361,34.58542],[134.07763,34.58636],[134.07975,34.58647],[134.0802,34.58577],[134.08211,34.58452],[134.08177,34.58397],[134.08449,34.58108],[134.08544,34.5809],[134.0858,34.5803],[134.08672,34.5807],[134.08785,34.58056],[134.0894,34.58149],[134.09135,34.5809],[134.09253,34.58104],[134.0944,34.58161],[134.09466,34.58219],[134.09563,34.58286],[134.09668,34.58282],[134.09817,34.58496],[134.09883,34.58526],[134.09953,34.5847],[134.09996,34.58487],[134.09982,34.58573],[134.10096,34.58724],[134.10161,34.58748],[134.10271,34.58887],[134.10352,34.58958],[134.10488,34.58968],[134.10598,34.58922],[134.1069,34.59007],[134.10766,34.59017],[134.10827,34.5891],[134.10964,34.58935],[134.11031,34.58936],[134.11074,34.58928],[134.11219,34.58847],[134.11231,34.58949],[134.11186,34.58989],[134.11195,34.5913],[134.11301,34.59181],[134.11364,34.59267],[134.11259,34.59413],[134.112,34.59459],[134.11168,34.5958],[134.1123,34.59706],[134.112,34.5987],[134.11262,34.59924],[134.11287,34.60079],[134.11222,34.60181],[134.11162,34.60314],[134.11215,34.60379],[134.11162,34.60442],[134.10965,34.60563],[134.10926,34.60758],[134.10833,34.60855],[134.10835,34.60898],[134.10935,34.60947],[134.10901,34.61031],[134.10892,34.61184],[134.10766,34.61353],[134.10903,34.61449],[134.10912,34.61542],[134.10851,34.61678],[134.10929,34.61679],[134.11044,34.61613],[134.11135,34.61619],[134.11201,34.61594],[134.1127,34.61694],[134.11245,34.61763],[134.1128,34.61816],[134.11264,34.61924],[134.11351,34.61976],[134.11504,34.61943],[134.11568,34.61974],[134.11688,34.61955],[134.11684,34.62013],[134.115,34.62065],[134.11461,34.62278],[134.11703,34.62235],[134.1171,34.6232],[134.11796,34.62371],[134.11787,34.6241],[134.11695,34.62495],[134.11658,34.6257],[134.11542,34.62652],[134.11634,34.62744],[134.11509,34.62829],[134.11408,34.6285],[134.1141,34.62908],[134.1131,34.62957],[134.11264,34.63021],[134.11029,34.63097],[134.1097,34.6316],[134.11091,34.63472],[134.10958,34.63488],[134.10863,34.6341],[134.10787,34.6338],[134.10732,34.63316],[134.1065,34.63289],[134.10531,34.63283],[134.10428,34.63322],[134.10436,34.63392],[134.10517,34.63528],[134.10465,34.63747],[134.10427,34.63759],[134.10361,34.6366],[134.10317,34.63677],[134.10331,34.63766],[134.10246,34.63793],[134.10238,34.63862],[134.10129,34.63951],[134.10048,34.63955],[134.09942,34.63853],[134.09892,34.63851],[134.09733,34.63791],[134.09679,34.63712],[134.0959,34.63743],[134.09436,34.63717],[134.09465,34.63639],[134.0946,34.63562],[134.09327,34.63455],[134.09166,34.63438],[134.09125,34.63374],[134.09025,34.63286],[134.08912,34.63355],[134.0885,34.63368],[134.08722,34.63318],[134.08631,34.63252],[134.08555,34.63277],[134.08436,34.63276],[134.08289,34.63335],[134.08209,34.63347],[134.08,34.63247],[134.07908,34.63282],[134.07758,34.63409],[134.07672,34.63428],[134.07558,34.63518],[134.07461,34.63496],[134.074,34.6352],[134.07307,34.63786],[134.07424,34.63907],[134.07464,34.63976],[134.07486,34.64081],[134.07472,34.64174],[134.075,34.64246],[134.07495,34.64347],[134.07546,34.64367],[134.07664,34.64469],[134.07574,34.6447],[134.07574,34.64583],[134.07603,34.64679],[134.08333,34.64919],[134.0827,34.64971],[134.08179,34.64974],[134.07843,34.65015],[134.07731,34.6501],[134.07446,34.64923],[134.07191,34.64884],[134.07153,34.64898],[134.06932,34.64875],[134.06684,34.6477],[134.06629,34.64855],[134.06438,34.6484],[134.06436,34.64984],[134.06193,34.65011],[134.06084,34.64989],[134.06,34.65001],[134.05821,34.65179],[134.05819,34.65339],[134.05876,34.65477],[134.05893,34.65598],[134.05926,34.65635],[134.06061,34.65683],[134.05997,34.6575],[134.06034,34.65947],[134.05947,34.65954],[134.05806,34.65869],[134.0554,34.6573],[134.05459,34.65677],[134.05408,34.65841],[134.05193,34.65921],[134.05339,34.66046],[134.05464,34.66204],[134.05604,34.66449],[134.05863,34.66834],[134.0602,34.67014],[134.06633,34.67354],[134.07254,34.67662],[134.0744,34.6779],[134.07665,34.6802],[134.07773,34.68198],[134.07871,34.68499],[134.07967,34.68889],[134.08095,34.69232],[134.08144,34.69316],[134.08325,34.69558],[134.08361,34.69645],[134.08416,34.69898],[134.08411,34.7014],[134.08347,34.70468],[134.08339,34.70612],[134.08375,34.70701],[134.08474,34.70819],[134.08694,34.71008],[134.09097,34.71275],[134.09299,34.71434],[134.0948,34.71655],[134.0977,34.71965],[134.10054,34.72297],[134.10155,34.72469],[134.1023,34.72668],[134.10395,34.73147],[134.10506,34.73488],[134.10566,34.73716],[134.10599,34.73896],[134.1062,34.74207],[134.10745,34.74171],[134.1111,34.74184],[134.11145,34.74208],[134.1115,34.74382],[134.11084,34.74445],[134.11073,34.74548],[134.11128,34.74597],[134.11293,34.74602],[134.1151,34.74748],[134.11628,34.74792],[134.11709,34.74794],[134.11973,34.74761],[134.12089,34.74865],[134.12095,34.74943],[134.12267,34.75034],[134.12295,34.75221],[134.12252,34.75291],[134.12154,34.75283],[134.11939,34.75314],[134.11875,34.75377],[134.1187,34.75584],[134.11946,34.75679],[134.11934,34.75721],[134.11465,34.75747],[134.11378,34.75777],[134.11305,34.75906],[134.11075,34.75963],[134.11002,34.76039],[134.10907,34.76084],[134.10804,34.76084],[134.10864,34.75939],[134.10814,34.75861],[134.10844,34.75742],[134.1084,34.75625],[134.10685,34.75648],[134.1046,34.75813],[134.10252,34.75932],[134.10087,34.76093],[134.09935,34.76127],[134.09797,34.76093],[134.09706,34.76144],[134.0962,34.76153],[134.09447,34.76116],[134.09301,34.76111],[134.09145,34.76138],[134.09017,34.76182],[134.09022,34.76264],[134.09215,34.76842],[134.09291,34.77014],[134.09151,34.77055],[134.09031,34.77062],[134.08979,34.77106],[134.08983,34.77193],[134.09056,34.77301],[134.09042,34.77363],[134.08969,34.77455],[134.08859,34.77536],[134.08786,34.77614],[134.08742,34.77835],[134.08792,34.77977],[134.08716,34.78131],[134.08705,34.78196],[134.08492,34.78177],[134.08235,34.783],[134.08104,34.78288],[134.07915,34.78121],[134.07781,34.78206],[134.07685,34.78225],[134.07579,34.78214],[134.07477,34.78159],[134.07391,34.78168],[134.0715,34.7829],[134.07079,34.78299],[134.06985,34.78235],[134.06945,34.78123],[134.06662,34.78005],[134.06552,34.78016],[134.06455,34.77984],[134.06235,34.77809],[134.06219,34.77756],[134.06092,34.77636],[134.05964,34.7741],[134.05937,34.77301],[134.06016,34.77199],[134.05925,34.77097],[134.05909,34.77033],[134.05927,34.76882],[134.05825,34.76781],[134.05626,34.76843],[134.05538,34.76858],[134.05477,34.76934],[134.05391,34.76989],[134.05245,34.77007],[134.05142,34.76895],[134.05022,34.76816],[134.04987,34.76733],[134.04888,34.76655],[134.04864,34.76474],[134.04792,34.76396],[134.04847,34.76329],[134.04998,34.76314],[134.05071,34.76356],[134.05122,34.76147],[134.04989,34.76007],[134.04874,34.75826],[134.04769,34.75772],[134.0469,34.75655],[134.04698,34.75596],[134.04808,34.75362],[134.04793,34.75337],[134.04617,34.75233],[134.04525,34.75095],[134.04531,34.74921],[134.04396,34.74873],[134.04288,34.74816],[134.04196,34.74727],[134.04002,34.74648],[134.03951,34.74507],[134.03883,34.74451],[134.03689,34.74451],[134.03547,34.74432],[134.03482,34.74402],[134.03384,34.74315],[134.034,34.74179],[134.03202,34.74072],[134.03146,34.73995],[134.03106,34.74003],[134.0287,34.73782],[134.0272,34.73758],[134.02587,34.73694],[134.02481,34.73567],[134.0238,34.73545],[134.02269,34.73426],[134.02183,34.73399],[134.02038,34.73386],[134.01913,34.73312],[134.01758,34.73273],[134.0172,34.73216],[134.01612,34.73211],[134.01539,34.73146],[134.01362,34.73066],[134.01189,34.73059],[134.01112,34.73041],[134.01072,34.72964],[134.0096,34.72924],[134.00913,34.72788],[134.00957,34.72748],[134.00972,34.72664],[134.00916,34.72623],[134.00781,34.72634],[134.00567,34.72682],[134.00309,34.72619],[134.00163,34.72669],[134.00049,34.72623],[133.99751,34.72367],[133.99743,34.7229],[133.99636,34.72218],[133.99563,34.72218],[133.99458,34.72271],[133.99394,34.72003],[133.99359,34.71964],[133.99375,34.71918],[133.99319,34.71773],[133.99359,34.71654],[133.99148,34.71645],[133.9906,34.71611],[133.99014,34.71559],[133.99002,34.71432],[133.98889,34.71343],[133.98724,34.71304],[133.98594,34.7131]]],[[[134.09655,34.56084],[134.09647,34.56019],[134.09712,34.55947],[134.09753,34.5599],[134.09852,34.56032],[134.09818,34.5609],[134.09885,34.56145],[134.09933,34.56099],[134.10022,34.56077],[134.10087,34.5609],[134.10176,34.56159],[134.10324,34.56026],[134.10459,34.56049],[134.10533,34.56024],[134.10652,34.56076],[134.10647,34.56157],[134.10701,34.56343],[134.10692,34.56419],[134.10608,34.56526],[134.10538,34.56755],[134.10472,34.56657],[134.10392,34.56646],[134.10296,34.56679],[134.10259,34.5661],[134.10113,34.56681],[134.10024,34.56694],[134.09892,34.56587],[134.09913,34.5647],[134.09834,34.56415],[134.09764,34.56432],[134.09668,34.5639],[134.09518,34.56216],[134.09655,34.56084]]],[[[134.09783,34.56643],[134.09566,34.56819],[134.09528,34.56789],[134.09464,34.56605],[134.09472,34.56511],[134.09576,34.56448],[134.09827,34.56499],[134.09783,34.56643]]],[[[134.10809,34.56266],[134.10835,34.56222],[134.10783,34.56109],[134.10908,34.56108],[134.10954,34.56046],[134.11052,34.56053],[134.11069,34.56151],[134.11035,34.56276],[134.10934,34.56361],[134.10818,34.5642],[134.10785,34.56319],[134.10809,34.56266]]]]}},
  {"type":"Feature","properties":{"name":"南区","code":"33104"},"geometry":{"type":"MultiPolygon","coordinates":[[[[133.83604,34.61992],[133.83484,34.61921],[133.83428,34.61766],[133.83537,34.61792],[133.83581,34.61742],[133.83529,34.61593],[133.83587,34.6146],[133.83538,34.61357],[133.83455,34.61344],[133.83475,34.61252],[133.83436,34.61154],[133.83488,34.61025],[133.83553,34.60778],[133.8358,34.60718],[133.83524,34.60642],[133.83977,34.60042],[133.83829,34.59922],[133.83847,34.59879],[133.84322,34.59078],[133.8436,34.59003],[133.84337,34.5857],[133.84309,34.58208],[133.84319,34.58133],[133.84289,34.57965],[133.84241,34.57879],[133.83972,34.576],[133.83568,34.57131],[133.83306,34.56847],[133.83149,34.56782],[133.82923,34.56855],[133.82864,34.56838],[133.82817,34.56776],[133.8271,34.56741],[133.82589,34.56679],[133.82604,34.56641],[133.829,34.56443],[133.8305,34.56282],[133.83172,34.56089],[133.8328,34.55823],[133.83288,34.55728],[133.83263,34.55545],[133.83317,34.55486],[133.83039,34.55331],[133.82744,34.55189],[133.82419,34.55095],[133.82343,34.55099],[133.82267,34.55144],[133.82156,34.55131],[133.81928,34.55067],[133.81623,34.54733],[133.81695,34.5469],[133.81741,34.54727],[133.81843,34.54645],[133.81894,34.54686],[133.81993,34.54631],[133.82078,34.5469],[133.82124,34.5459],[133.82154,34.54454],[133.8224,34.54411],[133.82353,34.54391],[133.8241,34.54338],[133.8244,34.54037],[133.82514,34.53891],[133.82585,34.53819],[133.82629,34.53715],[133.82721,34.53743],[133.8275,34.5364],[133.82804,34.53562],[133.82828,34.53453],[133.82952,34.53448],[133.82969,34.53344],[133.83046,34.53329],[133.83128,34.5337],[133.83218,34.53363],[133.83308,34.53386],[133.83456,34.53473],[133.83513,34.53535],[133.83724,34.53543],[133.83791,34.53573],[133.83841,34.53546],[133.83938,34.53386],[133.84088,34.53402],[133.84155,34.5338],[133.84193,34.53275],[133.8427,34.53192],[133.84293,34.53075],[133.84468,34.5298],[133.84482,34.52938],[133.84575,34.52904],[133.84724,34.52928],[133.8481,34.53074],[133.84915,34.53181],[133.84995,34.53188],[133.85111,34.53099],[133.85125,34.53018],[133.85195,34.52958],[133.84995,34.52697],[133.85067,34.5254],[133.85121,34.52296],[133.85116,34.52214],[133.85144,34.52125],[133.85399,34.5199],[133.85483,34.52051],[133.85637,34.52085],[133.85693,34.51983],[133.85783,34.51968],[133.85905,34.51884],[133.85992,34.51912],[133.86083,34.51868],[133.86191,34.51991],[133.86371,34.51995],[133.86543,34.51972],[133.86597,34.51938],[133.86649,34.51852],[133.86746,34.51926],[133.86928,34.51947],[133.87107,34.52067],[133.87235,34.52085],[133.87468,34.52198],[133.87524,34.52412],[133.87655,34.52392],[133.87781,34.52415],[133.87843,34.52469],[133.87946,34.5242],[133.88098,34.52461],[133.88228,34.52399],[133.88658,34.52479],[133.88672,34.52518],[133.88612,34.52747],[133.88622,34.53224],[133.8864,34.53268],[133.88793,34.53489],[133.8863,34.53556],[133.88716,34.53676],[133.88477,34.5379],[133.8933,34.54289],[133.89468,34.54131],[133.89715,34.54276],[133.90185,34.53727],[133.90222,34.53695],[133.91971,34.54494],[133.92118,34.54696],[133.92377,34.55105],[133.93125,34.56276],[133.93182,34.56313],[133.93875,34.57644],[133.94657,34.57297],[133.94779,34.57274],[133.94857,34.57203],[133.94893,34.57128],[133.95132,34.57042],[133.95274,34.57059],[133.95394,34.57039],[133.95618,34.57043],[133.95688,34.56875],[133.9569,34.56811],[133.95775,34.56787],[133.95808,34.56722],[133.96051,34.56635],[133.96172,34.56626],[133.96213,34.56476],[133.96283,34.5641],[133.96453,34.56203],[133.9647,34.56079],[133.96505,34.55982],[133.96467,34.55925],[133.96608,34.55858],[133.96827,34.55885],[133.96958,34.55848],[133.96976,34.55793],[133.97101,34.5576],[133.97273,34.55895],[133.97345,34.5592],[133.97487,34.55903],[133.97711,34.55981],[133.97883,34.56205],[133.97963,34.56244],[133.97991,34.5633],[133.98087,34.56391],[133.98252,34.56699],[133.98205,34.56776],[133.98126,34.56843],[133.98179,34.5694],[133.98254,34.57011],[133.98224,34.57214],[133.98314,34.57269],[133.98404,34.57376],[133.98531,34.57485],[133.98554,34.57575],[133.9855,34.57712],[133.9861,34.57753],[133.98719,34.57757],[133.9905,34.57582],[133.99142,34.57632],[133.99207,34.57633],[133.99336,34.57684],[133.9942,34.57692],[133.99562,34.57753],[133.99646,34.57725],[133.99734,34.57627],[133.99888,34.57687],[134.00104,34.57655],[134.00178,34.57677],[134.00356,34.57647],[134.00453,34.57697],[134.00537,34.57666],[134.00651,34.57542],[134.00784,34.57507],[134.01016,34.57496],[134.01166,34.57608],[134.01205,34.57666],[134.01306,34.57689],[134.01437,34.57771],[134.01598,34.57703],[134.01722,34.57777],[134.01792,34.57737],[134.019,34.57756],[134.01973,34.57727],[134.02063,34.57636],[134.02307,34.57527],[134.02366,34.57604],[134.02525,34.5763],[134.02689,34.57758],[134.02889,34.57844],[134.03018,34.5779],[134.03028,34.57733],[134.03218,34.57472],[134.03418,34.57377],[134.03568,34.57441],[134.03608,34.57395],[134.0369,34.57485],[134.03754,34.57474],[134.03884,34.5759],[134.04034,34.57636],[134.04114,34.57642],[134.04215,34.57577],[134.04305,34.57619],[134.04396,34.5759],[134.04489,34.57614],[134.04606,34.57571],[134.04717,34.57669],[134.04609,34.57802],[134.04521,34.57843],[134.04424,34.57798],[134.04347,34.57835],[134.04335,34.57904],[134.04239,34.57949],[134.04211,34.57999],[134.04044,34.58028],[134.04076,34.58066],[134.04014,34.58231],[134.04008,34.5833],[134.04116,34.58387],[134.04086,34.58453],[134.04105,34.58504],[134.04073,34.58637],[134.04072,34.58748],[134.03969,34.58819],[134.03917,34.58895],[134.0392,34.59023],[134.03721,34.59191],[134.03485,34.59046],[134.03256,34.59486],[134.03396,34.596],[134.03356,34.59698],[134.03269,34.59778],[134.02936,34.59817],[134.02926,34.5977],[134.02709,34.5988],[134.02606,34.59896],[134.02272,34.59892],[134.02158,34.59843],[134.02089,34.59845],[134.02042,34.59898],[134.01992,34.59839],[134.01678,34.59795],[134.01448,34.59773],[134.01384,34.59747],[134.01182,34.59801],[134.01068,34.59756],[134.01043,34.59666],[134.00992,34.59604],[134.00735,34.59519],[134.00672,34.59538],[134.0051,34.59483],[134.00454,34.5949],[134.00371,34.5941],[134.00325,34.59401],[134.00292,34.59302],[133.99869,34.59325],[133.99798,34.59351],[133.99802,34.59409],[133.99706,34.5948],[133.99643,34.59501],[133.99565,34.59483],[133.99163,34.59477],[133.99161,34.593],[133.9909,34.59343],[133.98973,34.5937],[133.98964,34.59472],[133.98704,34.5952],[133.98602,34.59502],[133.9848,34.59524],[133.98443,34.595],[133.98286,34.59491],[133.97854,34.59442],[133.9778,34.59427],[133.97618,34.59444],[133.97553,34.59408],[133.97454,34.59401],[133.97385,34.59447],[133.97284,34.59419],[133.96917,34.59288],[133.96797,34.59257],[133.96783,34.59189],[133.96428,34.59008],[133.96433,34.58954],[133.96305,34.58995],[133.96286,34.58916],[133.9621,34.58827],[133.96044,34.58758],[133.961,34.58616],[133.96193,34.58462],[133.96113,34.58384],[133.95956,34.58365],[133.95872,34.58406],[133.95636,34.58619],[133.95456,34.58754],[133.95427,34.58803],[133.95018,34.59154],[133.94996,34.59199],[133.94809,34.59364],[133.9492,34.59414],[133.9497,34.5946],[133.94605,34.59899],[133.94772,34.60011],[133.94897,34.59928],[133.95025,34.59996],[133.9494,34.60097],[133.94988,34.60138],[133.95233,34.60279],[133.95235,34.60247],[133.95582,34.59838],[133.95719,34.59697],[133.95873,34.59725],[133.96513,34.59863],[133.96834,34.59951],[133.96881,34.60025],[133.97089,34.6018],[133.96597,34.60791],[133.95976,34.61482],[133.95795,34.617],[133.95369,34.62173],[133.95274,34.62267],[133.95036,34.62464],[133.94878,34.62643],[133.94621,34.63002],[133.94536,34.63084],[133.94184,34.63348],[133.93864,34.63594],[133.93778,34.63473],[133.93627,34.63521],[133.93303,34.63704],[133.93269,34.63469],[133.93236,34.63449],[133.92688,34.63501],[133.92654,34.63044],[133.92574,34.63044],[133.92509,34.62995],[133.92452,34.62826],[133.9171,34.62968],[133.91572,34.63005],[133.91583,34.63079],[133.91667,34.63329],[133.91611,34.63422],[133.91765,34.63486],[133.91728,34.63553],[133.91771,34.63782],[133.91394,34.63783],[133.91306,34.63813],[133.91318,34.63916],[133.91226,34.63929],[133.91209,34.64027],[133.91217,34.64131],[133.9119,34.64262],[133.91111,34.64306],[133.91042,34.64234],[133.90958,34.64106],[133.90657,34.63807],[133.90442,34.63603],[133.90051,34.63614],[133.89961,34.63695],[133.89886,34.63662],[133.89747,34.63639],[133.89756,34.6352],[133.8963,34.63519],[133.89475,34.63403],[133.89365,34.63404],[133.89191,34.63361],[133.89163,34.63124],[133.88875,34.63107],[133.88786,34.63117],[133.88705,34.62959],[133.88675,34.62969],[133.88353,34.62977],[133.8816,34.63075],[133.88028,34.63219],[133.87588,34.63371],[133.8735,34.63431],[133.87278,34.63427],[133.8708,34.63318],[133.86952,34.63274],[133.868,34.63298],[133.86711,34.63348],[133.86339,34.63524],[133.85985,34.63661],[133.85877,34.63658],[133.85673,34.63565],[133.85517,34.6354],[133.85419,34.63494],[133.85216,34.63445],[133.85247,34.63389],[133.85246,34.6326],[133.8519,34.63227],[133.85146,34.63089],[133.84788,34.62857],[133.84792,34.62727],[133.84673,34.62621],[133.84607,34.62537],[133.84488,34.6248],[133.84321,34.62479],[133.8436,34.6236],[133.84346,34.62135],[133.84233,34.62063],[133.84056,34.61994],[133.84009,34.61901],[133.83943,34.61866],[133.83784,34.6201],[133.8367,34.61982],[133.83604,34.61992]]],[[[133.99057,34.60097],[133.99102,34.6018],[133.99073,34.60303],[133.98965,34.60399],[133.98938,34.60553],[133.98879,34.60572],[133.98805,34.6047],[133.98858,34.60369],[133.98839,34.60322],[133.98922,34.60233],[133.9892,34.6014],[133.98959,34.60101],[133.99057,34.60097]]]]}}
]}
