{"type":"FeatureCollection", "features": [
  {"type":"Feature","properties":{"name":"都島区","code":"27102"},"geometry":{"type":"MultiPolygon","coordinates":[[[[135.51481,34.72057],[135.51782,34.71964],[135.51911,34.71889],[135.51972,34.71828],[135.52078,34.71675],[135.52117,34.71579],[135.52158,34.71394],[135.52147,34.7123],[135.52075,34.71097],[135.51881,34.70893],[135.51775,34.70724],[135.51773,34.70636],[135.51809,34.70504],[135.51862,34.704],[135.51984,34.7023],[135.52165,34.70018],[135.52261,34.69836],[135.52295,34.69622],[135.52263,34.69467],[135.52203,34.69363],[135.52107,34.69258],[135.52008,34.69193],[135.5222,34.69105],[135.5234,34.69128],[135.5257,34.69193],[135.52764,34.69275],[135.52912,34.69352],[135.53126,34.69439],[135.53482,34.69547],[135.53421,34.6967],[135.53551,34.69685],[135.53644,34.70011],[135.53683,34.70204],[135.53653,34.70361],[135.53671,34.70386],[135.53678,34.70567],[135.53622,34.70639],[135.5364,34.70805],[135.53784,34.70832],[135.54085,34.71142],[135.53838,34.71459],[135.53417,34.71964],[135.53297,34.72091],[135.53116,34.72343],[135.52624,34.73261],[135.52586,34.73341],[135.52426,34.73318],[135.5222,34.73259],[135.52131,34.73219],[135.51972,34.7311],[135.51899,34.73041],[135.51818,34.72924],[135.51607,34.72328],[135.51481,34.72057]]]]}},
  {"type":"Feature","properties":{"name":"福島区","code":"27103"},"geometry":{"type":"MultiPolygon","coordinates":[[[[135.46188,34.69965],[135.46433,34.69675],[135.46308,34.69581],[135.46299,34.69515],[135.46326,34.69384],[135.46392,34.69234],[135.46368,34.69081],[135.46257,34.68908],[135.46245,34.68723],[135.46622,34.68654],[135.46777,34.68596],[135.469,34.68483],[135.47084,34.68203],[135.47206,34.68061],[135.47285,34.68077],[135.47866,34.68272],[135.47977,34.6832],[135.48119,34.68465],[135.48235,34.68653],[135.48577,34.69054],[135.48657,34.69137],[135.48913,34.69293],[135.491,34.69367],[135.49022,34.69568],[135.49025,34.6963],[135.48934,34.69887],[135.48988,34.70007],[135.49068,34.70257],[135.48828,34.70229],[135.48822,34.701],[135.48575,34.70106],[135.48565,34.7006],[135.4843,34.70047],[135.48404,34.69969],[135.48081,34.70098],[135.47922,34.70178],[135.4784,34.70242],[135.47444,34.70697],[135.47393,34.70668],[135.46402,34.70093],[135.46188,34.69965]]]]}},
  {"type":"Feature","properties":{"name":"此花区","code":"27104"},"geometry":{"type":"MultiPolygon","coordinates":[[[[135.46188,34.69965],[135.46092,34.69911],[135.45451,34.69586],[135.44865,34.69313],[135.43935,34.68921],[135.43522,34.68765],[135.42788,34.68508],[135.42321,34.68366],[135.42036,34.68285],[135.42226,34.67963],[135.421,34.67923],[135.41226,34.67676],[135.40887,34.6755],[135.40933,34.67466],[135.40875,34.67316],[135.40869,34.67233],[135.40825,34.67182],[135.4099,34.67075],[135.41031,34.67163],[135.41251,34.67211],[135.41667,34.67321],[135.41852,34.67061],[135.41717,34.66881],[135.41693,34.66388],[135.41739,34.66376],[135.42454,34.66575],[135.42588,34.66814],[135.42627,34.66782],[135.42387,34.66357],[135.42269,34.66308],[135.41784,34.66168],[135.41661,34.66154],[135.41634,34.66093],[135.41436,34.65206],[135.41454,34.65157],[135.41595,34.65227],[135.41659,34.65487],[135.41689,34.65489],[135.41752,34.65762],[135.41808,34.65952],[135.42046,34.6602],[135.41921,34.65336],[135.42085,34.65383],[135.42248,34.65679],[135.42354,34.65714],[135.42631,34.65574],[135.42924,34.65755],[135.43197,34.65907],[135.43309,34.65941],[135.43528,34.65981],[135.44055,34.66317],[135.44197,34.66461],[135.44643,34.67023],[135.44748,34.67137],[135.4494,34.67299],[135.45039,34.67359],[135.45194,34.67415],[135.46187,34.67746],[135.46708,34.67918],[135.47143,34.68055],[135.47206,34.68061],[135.47084,34.68203],[135.469,34.68483],[135.46777,34.68596],[135.46622,34.68654],[135.46245,34.68723],[135.46257,34.68908],[135.46368,34.69081],[135.46392,34.69234],[135.46326,34.69384],[135.46299,34.69515],[135.46308,34.69581],[135.46433,34.69675],[135.46188,34.69965]]],[[[135.37913,34.6598],[135.3729,34.65208],[135.37894,34.64319],[135.39202,34.64231],[135.3928,34.64184],[135.40452,34.65372],[135.39973,34.65694],[135.37944,34.66011],[135.37913,34.6598]]],[[[135.40955,34.66582],[135.40882,34.6659],[135.40939,34.66879],[135.40279,34.67308],[135.40258,34.67317],[135.40043,34.67245],[135.39759,34.67138],[135.39517,34.67059],[135.39301,34.66972],[135.39222,34.66955],[135.39102,34.66893],[135.38805,34.66784],[135.38685,34.66268],[135.38792,34.66275],[135.3905,34.66226],[135.3963,34.66136],[135.39655,34.6614],[135.402,34.66055],[135.40194,34.66028],[135.40978,34.65905],[135.41095,34.66565],[135.40955,34.66582]]],[[[135.34359,34.62112],[135.34567,34.61728],[135.34931,34.62004],[135.34905,34.62034],[135.36509,34.63249],[135.36502,34.63255],[135.35871,34.62778],[135.35721,34.62894],[135.35344,34.6324],[135.35595,34.635],[135.35584,34.63511],[135.35,34.62899],[135.34398,34.62273],[135.34357,34.62202],[135.34359,34.62112]]]]}},
  {"type":"Feature","properties":{"name":"西区","code":"27106"},"geometry":{"type":"MultiPolygon","coordinates":[[[[135.47206,34.68061],[135.47143,34.68055],[135.46708,34.67918],[135.46187,34.67746],[135.4625,34.67611],[135.46693,34.67263],[135.47196,34.6688],[135.47418,34.6669],[135.47432,34.66677],[135.4791,34.66767],[135.48054,34.66814],[135.48108,34.66873],[135.48195,34.66917],[135.48606,34.66992],[135.48684,34.67],[135.48851,34.66979],[135.49673,34.66901],[135.49691,34.6719],[135.49719,34.67404],[135.49746,34.67728],[135.49765,34.68462],[135.49719,34.69063],[135.49737,34.69079],[135.49747,34.69287],[135.49577,34.69269],[135.49434,34.69229],[135.49262,34.69079],[135.49157,34.69006],[135.48512,34.68656],[135.48302,34.68514],[135.48119,34.68465],[135.47977,34.6832],[135.47866,34.68272],[135.47285,34.68077],[135.47206,34.68061]]]]}},
  {"type":"Feature","properties":{"name":"港区","code":"27107"},"geometry":{"type":"MultiPolygon","coordinates":[[[[135.42631,34.65574],[135.42801,34.65489],[135.42872,34.65289],[135.42876,34.65232],[135.42555,34.65129],[135.42578,34.65028],[135.427,34.6502],[135.42813,34.65115],[135.42921,34.65154],[135.4296,34.65079],[135.43323,34.64924],[135.43759,34.65087],[135.44062,34.64945],[135.44027,34.64898],[135.43889,34.64955],[135.4355,34.64828],[135.43541,34.64805],[135.43988,34.64619],[135.44362,34.64759],[135.44411,34.64802],[135.44683,34.64678],[135.44654,34.6464],[135.44568,34.64675],[135.44213,34.64543],[135.44412,34.64446],[135.44771,34.64579],[135.44992,34.64668],[135.45041,34.64592],[135.4556,34.64773],[135.45626,34.64803],[135.45735,34.64949],[135.46128,34.65502],[135.46411,34.65878],[135.46517,34.6601],[135.46665,34.66168],[135.47021,34.66476],[135.47174,34.66589],[135.47292,34.66649],[135.47418,34.6669],[135.47196,34.6688],[135.46693,34.67263],[135.4625,34.67611],[135.46187,34.67746],[135.45194,34.67415],[135.45039,34.67359],[135.4494,34.67299],[135.44748,34.67137],[135.44643,34.67023],[135.44197,34.66461],[135.44055,34.66317],[135.43528,34.65981],[135.43309,34.65941],[135.43197,34.65907],[135.42924,34.65755],[135.42631,34.65574]]]]}},
  {"type":"Feature","properties":{"name":"大正区","code":"27108"},"geometry":{"type":"MultiPolygon","coordinates":[[[[135.47418,34.6669],[135.47292,34.66649],[135.47174,34.66589],[135.47021,34.66476],[135.46665,34.66168],[135.46517,34.6601],[135.46411,34.65878],[135.46128,34.65502],[135.45735,34.64949],[135.45626,34.64803],[135.4556,34.64773],[135.45041,34.64592],[135.45079,34.64533],[135.45124,34.64253],[135.4471,34.64126],[135.44824,34.63488],[135.45095,34.63521],[135.45267,34.63494],[135.4528,34.63289],[135.45299,34.63248],[135.45357,34.62922],[135.45036,34.63059],[135.44837,34.63101],[135.44815,34.63071],[135.44857,34.62847],[135.4485,34.62647],[135.45044,34.62572],[135.45413,34.62471],[135.45596,34.62461],[135.45774,34.62479],[135.46074,34.62529],[135.4675,34.62665],[135.46968,34.62716],[135.47126,34.62772],[135.47226,34.62824],[135.47368,34.62946],[135.47475,34.63048],[135.47576,34.63192],[135.4768,34.63383],[135.47778,34.63608],[135.47848,34.63813],[135.47893,34.64034],[135.47913,34.64371],[135.47909,34.64525],[135.47878,34.64818],[135.4788,34.64992],[135.48035,34.65365],[135.48108,34.65502],[135.48129,34.65543],[135.48192,34.65872],[135.48204,34.65995],[135.48194,34.66309],[135.48182,34.66397],[135.48107,34.66662],[135.48054,34.66814],[135.4791,34.66767],[135.47432,34.66677],[135.47418,34.6669]]]]}},
  {"type":"Feature","properties":{"name":"天王寺区","code":"27109"},"geometry":{"type":"MultiPolygon","coordinates":[[[[135.53355,34.67481],[135.53158,34.67479],[135.52863,34.67495],[135.5233,34.67589],[135.52151,34.67607],[135.5204,34.67533],[135.5198,34.66981],[135.51896,34.66587],[135.515,34.66634],[135.5115,34.6665],[135.5114,34.66464],[135.5109,34.66467],[135.51073,34.6625],[135.51033,34.65797],[135.5095,34.65359],[135.50842,34.6537],[135.50655,34.64801],[135.50836,34.6476],[135.51393,34.64616],[135.51834,34.64513],[135.52145,34.64596],[135.52373,34.64752],[135.52453,34.64846],[135.52546,34.64974],[135.52699,34.65405],[135.52746,34.65587],[135.5283,34.65818],[135.52988,34.66352],[135.53069,34.66547],[135.53211,34.66992],[135.53296,34.67157],[135.53335,34.67276],[135.53355,34.67481]]]]}},
  {"type":"Feature","properties":{"name":"浪速区","code":"27111"},"geometry":{"type":"MultiPolygon","coordinates":[[[[135.48054,34.66814],[135.48107,34.66662],[135.48182,34.66397],[135.48194,34.66309],[135.48204,34.65995],[135.48192,34.65872],[135.48129,34.65543],[135.48108,34.65502],[135.48365,34.65645],[135.48507,34.65703],[135.48493,34.65645],[135.48525,34.65211],[135.48696,34.65282],[135.48783,34.6537],[135.4893,34.65378],[135.49061,34.65365],[135.49185,34.65333],[135.49304,34.65272],[135.49403,34.65186],[135.49552,34.65128],[135.49973,34.65021],[135.49996,34.64963],[135.50655,34.64801],[135.50842,34.6537],[135.5095,34.65359],[135.51033,34.65797],[135.51073,34.6625],[135.50636,34.663],[135.50564,34.66319],[135.50327,34.66327],[135.50295,34.66363],[135.50103,34.66328],[135.49853,34.66689],[135.49836,34.66753],[135.49719,34.66897],[135.49673,34.66901],[135.48851,34.66979],[135.48684,34.67],[135.48606,34.66992],[135.48195,34.66917],[135.48108,34.66873],[135.48054,34.66814]]]]}},
  {"type":"Feature","properties":{"name":"西淀川区","code":"27113"},"geometry":{"type":"MultiPolygon","coordinates":[[[[135.47393,34.70668],[135.46874,34.7126],[135.46733,34.71429],[135.46448,34.71735],[135.46044,34.72209],[135.45957,34.72294],[135.45759,34.72444],[135.45678,34.72538],[135.45438,34.72708],[135.45206,34.72789],[135.45065,34.72824],[135.44788,34.72876],[135.44556,34.72908],[135.44562,34.72841],[135.44642,34.72581],[135.44758,34.72389],[135.44799,34.72274],[135.44811,34.72169],[135.44788,34.72078],[135.44695,34.71913],[135.44581,34.71809],[135.44444,34.71737],[135.44203,34.71649],[135.43698,34.71495],[135.43467,34.71406],[135.4311,34.71235],[135.42958,34.71135],[135.42786,34.7095],[135.42587,34.70678],[135.42457,34.7059],[135.4198,34.70455],[135.41635,34.70341],[135.41286,34.702],[135.41084,34.70072],[135.40956,34.69975],[135.40858,34.69878],[135.40729,34.6971],[135.40822,34.6966],[135.40876,34.69475],[135.4096,34.69313],[135.41027,34.69213],[135.41169,34.69087],[135.41365,34.68978],[135.41444,34.68958],[135.41771,34.68806],[135.41757,34.68773],[135.41809,34.6867],[135.42036,34.68285],[135.42321,34.68366],[135.42788,34.68508],[135.43522,34.68765],[135.43935,34.68921],[135.44865,34.69313],[135.45451,34.69586],[135.46092,34.69911],[135.46188,34.69965],[135.46402,34.70093],[135.47393,34.70668]]]]}},
  {"type":"Feature","properties":{"name":"東淀川区","code":"27114"},"geometry":{"type":"MultiPolygon","coordinates":[[[[135.52586,34.73341],[135.52872,34.73337],[135.53244,34.73274],[135.53696,34.73292],[135.54132,34.73349],[135.54506,34.73425],[135.5484,34.73527],[135.55031,34.73611],[135.55175,34.73692],[135.55305,34.73801],[135.55427,34.73934],[135.55468,34.74012],[135.55562,34.74355],[135.55644,34.74608],[135.55632,34.74669],[135.55637,34.74898],[135.55684,34.75077],[135.55814,34.75236],[135.55944,34.7534],[135.56053,34.75399],[135.55826,34.75629],[135.55825,34.7569],[135.5549,34.75691],[135.55076,34.75715],[135.55035,34.75864],[135.55003,34.7615],[135.55057,34.76108],[135.55103,34.76351],[135.5505,34.76431],[135.54907,34.76528],[135.54934,34.76553],[135.55085,34.76453],[135.55132,34.76539],[135.55116,34.76664],[135.55083,34.76722],[135.54987,34.76805],[135.54877,34.76845],[135.54779,34.76818],[135.54662,34.76817],[135.54542,34.7688],[135.54412,34.76846],[135.5423,34.76705],[135.54133,34.76559],[135.54048,34.7628],[135.5397,34.76161],[135.5391,34.76112],[135.53689,34.76078],[135.53346,34.76005],[135.53236,34.75942],[135.53131,34.75794],[135.52994,34.75576],[135.52899,34.75457],[135.52969,34.75325],[135.53133,34.75281],[135.53161,34.75234],[135.53047,34.75081],[135.52921,34.75037],[135.52889,34.74938],[135.5278,34.7486],[135.52561,34.74787],[135.5251,34.74785],[135.52225,34.74899],[135.52047,34.74885],[135.5195,34.74892],[135.51906,34.75023],[135.51712,34.74999],[135.51579,34.74968],[135.51413,34.74886],[135.51327,34.74827],[135.50954,34.74532],[135.50889,34.74488],[135.5078,34.74457],[135.50671,34.74473],[135.50444,34.73965],[135.50311,34.73692],[135.50249,34.735],[135.50251,34.73341],[135.50214,34.73226],[135.50205,34.73113],[135.50244,34.72862],[135.5032,34.72664],[135.5038,34.72339],[135.50393,34.71941],[135.50917,34.71975],[135.51468,34.72033],[135.51481,34.72057],[135.51607,34.72328],[135.51818,34.72924],[135.51899,34.73041],[135.51972,34.7311],[135.52131,34.73219],[135.5222,34.73259],[135.52426,34.73318],[135.52586,34.73341]],[[135.55365,34.75581],[135.55382,34.75601],[135.55551,34.75566],[135.55553,34.75533],[135.55416,34.75555],[135.55365,34.75581]]]]}},
  {"type":"Feature","properties":{"name":"東成区","code":"27115"},"geometry":{"type":"MultiPolygon","coordinates":[[[[135.53069,34.66547],[135.53831,34.6657],[135.54187,34.66567],[135.54532,34.66541],[135.54726,34.66512],[135.55632,34.66444],[135.55707,34.66427],[135.55742,34.66806],[135.5622,34.66791],[135.56199,34.66938],[135.56218,34.67175],[135.56253,34.6742],[135.56323,34.67639],[135.5634,34.67802],[135.55818,34.67871],[135.55637,34.67972],[135.55358,34.68069],[135.54384,34.68187],[135.54175,34.68218],[135.54042,34.68324],[135.54013,34.68211],[135.54038,34.6816],[135.53889,34.68171],[135.53425,34.68174],[135.53425,34.68035],[135.53444,34.67855],[135.53417,34.67684],[135.53355,34.67481],[135.53335,34.67276],[135.53296,34.67157],[135.53211,34.66992],[135.53069,34.66547]]]]}},
  {"type":"Feature","properties":{"name":"生野区","code":"27116"},"geometry":{"type":"MultiPolygon","coordinates":[[[[135.52453,34.64846],[135.52674,34.64657],[135.52948,34.64446],[135.53286,34.64192],[135.53347,34.64138],[135.53505,34.63922],[135.53562,34.64022],[135.53768,34.64129],[135.54469,34.64045],[135.54454,34.63874],[135.54488,34.63819],[135.54596,34.63837],[135.54701,34.63737],[135.54768,34.63697],[135.54773,34.63639],[135.54873,34.6359],[135.55002,34.6346],[135.55169,34.63342],[135.55277,34.63317],[135.55437,34.6333],[135.55402,34.63459],[135.55303,34.63472],[135.55264,34.6356],[135.55261,34.6367],[135.55304,34.63673],[135.553,34.63835],[135.55406,34.63843],[135.55386,34.64136],[135.55419,34.64138],[135.55407,34.64405],[135.55729,34.64418],[135.55731,34.64345],[135.56114,34.64355],[135.56076,34.6502],[135.56195,34.65012],[135.56196,34.65279],[135.5594,34.65288],[135.5594,34.65478],[135.55855,34.65479],[135.55856,34.65583],[135.56158,34.65574],[135.56331,34.65589],[135.56334,34.65662],[135.56391,34.65663],[135.56388,34.65827],[135.56182,34.65825],[135.56155,34.66058],[135.56111,34.66071],[135.56116,34.66258],[135.55898,34.66262],[135.55904,34.66321],[135.55704,34.66334],[135.55707,34.66427],[135.55632,34.66444],[135.54726,34.66512],[135.54532,34.66541],[135.54187,34.66567],[135.53831,34.6657],[135.53069,34.66547],[135.52988,34.66352],[135.5283,34.65818],[135.52746,34.65587],[135.52699,34.65405],[135.52546,34.64974],[135.52453,34.64846]]]]}},
  {"type":"Feature","properties":{"name":"旭区","code":"27117"},"geometry":{"type":"MultiPolygon","coordinates":[[[[135.54085,34.71142],[135.54223,34.71299],[135.5437,34.71415],[135.54685,34.71534],[135.55276,34.71521],[135.55445,34.71513],[135.56025,34.71504],[135.56335,34.71503],[135.56345,34.71735],[135.56611,34.71719],[135.56703,34.71738],[135.56763,34.71778],[135.56726,34.71856],[135.56604,34.72002],[135.56557,34.72154],[135.56554,34.72269],[135.56444,34.72407],[135.56364,34.72478],[135.56301,34.72499],[135.56071,34.72528],[135.55992,34.72617],[135.55915,34.72575],[135.55832,34.72576],[135.55512,34.72481],[135.5549,34.72633],[135.55475,34.73074],[135.55491,34.73107],[135.5534,34.7331],[135.55618,34.73471],[135.55728,34.7355],[135.56029,34.73683],[135.56094,34.73813],[135.561,34.74021],[135.55997,34.74195],[135.55644,34.74608],[135.55562,34.74355],[135.55468,34.74012],[135.55427,34.73934],[135.55305,34.73801],[135.55175,34.73692],[135.55031,34.73611],[135.5484,34.73527],[135.54506,34.73425],[135.54132,34.73349],[135.53696,34.73292],[135.53244,34.73274],[135.52872,34.73337],[135.52586,34.73341],[135.52624,34.73261],[135.53116,34.72343],[135.53297,34.72091],[135.53417,34.71964],[135.53838,34.71459],[135.54085,34.71142]]]]}},
  {"type":"Feature","properties":{"name":"城東区","code":"27118"},"geometry":{"type":"MultiPolygon","coordinates":[[[[135.53482,34.69547],[135.53577,34.69315],[135.5359,34.69093],[135.53513,34.68973],[135.53491,34.68844],[135.53464,34.68814],[135.53447,34.68672],[135.53425,34.68174],[135.53889,34.68171],[135.54038,34.6816],[135.54013,34.68211],[135.54042,34.68324],[135.54175,34.68218],[135.54384,34.68187],[135.55358,34.68069],[135.55637,34.67972],[135.55818,34.67871],[135.5634,34.67802],[135.56344,34.6797],[135.56385,34.6822],[135.56459,34.68313],[135.56426,34.68451],[135.5646,34.68524],[135.5647,34.68664],[135.56564,34.68775],[135.56494,34.6877],[135.56442,34.6872],[135.56367,34.68705],[135.55886,34.68769],[135.55898,34.68999],[135.55918,34.69101],[135.55973,34.69958],[135.55997,34.70607],[135.56024,34.71206],[135.56025,34.71504],[135.55445,34.71513],[135.55276,34.71521],[135.54685,34.71534],[135.5437,34.71415],[135.54223,34.71299],[135.54085,34.71142],[135.53784,34.70832],[135.5364,34.70805],[135.53622,34.70639],[135.53678,34.70567],[135.53671,34.70386],[135.53653,34.70361],[135.53683,34.70204],[135.53644,34.70011],[135.53551,34.69685],[135.53421,34.6967],[135.53482,34.69547]]]]}},
  {"type":"Feature","properties":{"name":"阿倍野区","code":"27119"},"geometry":{"type":"MultiPolygon","coordinates":[[[[135.50836,34.6476],[135.50737,34.64517],[135.50718,34.64444],[135.50672,34.64432],[135.50678,34.64353],[135.50634,34.64285],[135.5057,34.64105],[135.50414,34.63827],[135.50333,34.63638],[135.5021,34.63495],[135.50107,34.63269],[135.50069,34.63241],[135.49988,34.63016],[135.49942,34.6299],[135.49787,34.62813],[135.49719,34.62601],[135.49613,34.62547],[135.49582,34.62433],[135.49636,34.62372],[135.498,34.62447],[135.49973,34.62487],[135.50505,34.62331],[135.50759,34.62247],[135.50899,34.62231],[135.50857,34.61931],[135.50877,34.61903],[135.5087,34.61669],[135.51619,34.61613],[135.51802,34.61919],[135.52075,34.62453],[135.52112,34.62509],[135.5233,34.63005],[135.52398,34.63184],[135.52413,34.63373],[135.52421,34.63753],[135.52575,34.63717],[135.52592,34.63764],[135.52797,34.64176],[135.52837,34.64226],[135.52948,34.64446],[135.52674,34.64657],[135.52453,34.64846],[135.52373,34.64752],[135.52145,34.64596],[135.51834,34.64513],[135.51393,34.64616],[135.50836,34.6476]]]]}},
  {"type":"Feature","properties":{"name":"住吉区","code":"27120"},"geometry":{"type":"MultiPolygon","coordinates":[[[[135.49636,34.62372],[135.49471,34.62332],[135.49284,34.62345],[135.4913,34.61808],[135.49129,34.61734],[135.49016,34.61312],[135.48928,34.61033],[135.49099,34.60992],[135.49006,34.6064],[135.48877,34.60111],[135.48696,34.59601],[135.48966,34.59554],[135.4925,34.59493],[135.49394,34.59474],[135.49525,34.59431],[135.49669,34.59336],[135.49739,34.59266],[135.4986,34.58917],[135.49935,34.58802],[135.50009,34.58723],[135.50123,34.58648],[135.50278,34.58616],[135.50408,34.58623],[135.50588,34.5866],[135.50781,34.58769],[135.51162,34.5892],[135.51313,34.58999],[135.51416,34.59031],[135.51665,34.59151],[135.51885,34.59297],[135.52199,34.59434],[135.5225,34.59458],[135.52254,34.59713],[135.52285,34.59826],[135.52295,34.59946],[135.52273,34.60423],[135.52241,34.60556],[135.52278,34.60601],[135.5228,34.60704],[135.52305,34.6074],[135.52291,34.60853],[135.52367,34.60857],[135.52364,34.60947],[135.51399,34.60953],[135.5144,34.61325],[135.51619,34.61613],[135.5087,34.61669],[135.50877,34.61903],[135.50857,34.61931],[135.50899,34.62231],[135.50759,34.62247],[135.50505,34.62331],[135.49973,34.62487],[135.498,34.62447],[135.49636,34.62372]]]]}},
  {"type":"Feature","properties":{"name":"東住吉区","code":"27121"},"geometry":{"type":"MultiPolygon","coordinates":[[[[135.52948,34.64446],[135.52837,34.64226],[135.52797,34.64176],[135.52592,34.63764],[135.52575,34.63717],[135.52421,34.63753],[135.52413,34.63373],[135.52398,34.63184],[135.5233,34.63005],[135.52112,34.62509],[135.52075,34.62453],[135.51802,34.61919],[135.51619,34.61613],[135.5144,34.61325],[135.51399,34.60953],[135.52364,34.60947],[135.52367,34.60857],[135.52291,34.60853],[135.52305,34.6074],[135.5228,34.60704],[135.52278,34.60601],[135.52241,34.60556],[135.52273,34.60423],[135.52295,34.59946],[135.52285,34.59826],[135.52254,34.59713],[135.5225,34.59458],[135.52637,34.5964],[135.52721,34.59512],[135.5277,34.5947],[135.52969,34.59428],[135.53025,34.59091],[135.53052,34.59092],[135.53004,34.59406],[135.53109,34.59635],[135.53178,34.59647],[135.5315,34.59831],[135.53197,34.59868],[135.53469,34.59899],[135.53476,34.59919],[135.53835,34.59945],[135.53859,34.59934],[135.54346,34.59942],[135.54363,34.60066],[135.5436,34.60622],[135.54363,34.60942],[135.54087,34.60945],[135.54103,34.6145],[135.54079,34.6155],[135.5408,34.61923],[135.54074,34.62526],[135.54368,34.62527],[135.5437,34.63042],[135.54382,34.63247],[135.54773,34.63639],[135.54768,34.63697],[135.54701,34.63737],[135.54596,34.63837],[135.54488,34.63819],[135.54454,34.63874],[135.54469,34.64045],[135.53768,34.64129],[135.53562,34.64022],[135.53505,34.63922],[135.53347,34.64138],[135.53286,34.64192],[135.52948,34.64446]]]]}},
  {"type":"Feature","properties":{"name":"西成区","code":"27122"},"geometry":{"type":"MultiPolygon","coordinates":[[[[135.47368,34.62946],[135.4764,34.62703],[135.48094,34.62483],[135.48164,34.62439],[135.48231,34.62164],[135.48989,34.62295],[135.49096,34.62353],[135.49284,34.62345],[135.49471,34.62332],[135.49636,34.62372],[135.49582,34.62433],[135.49613,34.62547],[135.49719,34.62601],[135.49787,34.62813],[135.49942,34.6299],[135.49988,34.63016],[135.50069,34.63241],[135.50107,34.63269],[135.5021,34.63495],[135.50333,34.63638],[135.50414,34.63827],[135.5057,34.64105],[135.50634,34.64285],[135.50678,34.64353],[135.50672,34.64432],[135.50718,34.64444],[135.50737,34.64517],[135.50836,34.6476],[135.50655,34.64801],[135.49996,34.64963],[135.49973,34.65021],[135.49552,34.65128],[135.49403,34.65186],[135.49304,34.65272],[135.49185,34.65333],[135.49061,34.65365],[135.4893,34.65378],[135.48783,34.6537],[135.48696,34.65282],[135.48525,34.65211],[135.48493,34.65645],[135.48507,34.65703],[135.48365,34.65645],[135.48108,34.65502],[135.48035,34.65365],[135.4788,34.64992],[135.47878,34.64818],[135.47909,34.64525],[135.47913,34.64371],[135.47893,34.64034],[135.47848,34.63813],[135.47778,34.63608],[135.4768,34.63383],[135.47576,34.63192],[135.47475,34.63048],[135.47368,34.62946]]]]}},
  {"type":"Feature","properties":{"name":"淀川区","code":"27123"},"geometry":{"type":"MultiPolygon","coordinates":[[[[135.47444,34.70697],[135.48334,34.71232],[135.48699,34.71454],[135.49266,34.71788],[135.49508,34.71886],[135.49719,34.71915],[135.50072,34.7192],[135.50393,34.71941],[135.5038,34.72339],[135.5032,34.72664],[135.50244,34.72862],[135.50205,34.73113],[135.50214,34.73226],[135.50251,34.73341],[135.50249,34.735],[135.50311,34.73692],[135.50444,34.73965],[135.50671,34.74473],[135.50575,34.74501],[135.50153,34.74692],[135.49943,34.74794],[135.50017,34.74956],[135.49938,34.74975],[135.49719,34.75065],[135.49555,34.75103],[135.49519,34.75137],[135.49402,34.7507],[135.49232,34.75127],[135.49055,34.75134],[135.48863,34.75044],[135.48791,34.74981],[135.48692,34.74878],[135.48618,34.74906],[135.48543,34.74844],[135.48456,34.74731],[135.48469,34.74525],[135.48325,34.74152],[135.48268,34.74167],[135.48224,34.74052],[135.48264,34.74017],[135.48166,34.73873],[135.48105,34.73814],[135.47973,34.73741],[135.47833,34.73694],[135.47698,34.73666],[135.47547,34.73612],[135.47226,34.73357],[135.47015,34.73263],[135.46988,34.73097],[135.46696,34.7307],[135.4603,34.73314],[135.45714,34.73405],[135.45539,34.73431],[135.45178,34.73432],[135.44899,34.7341],[135.44811,34.73386],[135.44709,34.73305],[135.44609,34.73133],[135.44564,34.73003],[135.44556,34.72908],[135.44788,34.72876],[135.45065,34.72824],[135.45206,34.72789],[135.45438,34.72708],[135.45678,34.72538],[135.45759,34.72444],[135.45957,34.72294],[135.46044,34.72209],[135.46448,34.71735],[135.46733,34.71429],[135.46874,34.7126],[135.47393,34.70668],[135.47444,34.70697]]]]}},
  {"type":"Feature","properties":{"name":"鶴見区","code":"27124"},"geometry":{"type":"MultiPolygon","coordinates":[[[[135.56025,34.71504],[135.56024,34.71206],[135.55997,34.70607],[135.55973,34.69958],[135.55918,34.69101],[135.55898,34.68999],[135.55886,34.68769],[135.56367,34.68705],[135.56442,34.6872],[135.56494,34.6877],[135.56564,34.68775],[135.56947,34.68771],[135.57085,34.68806],[135.57357,34.6877],[135.5739,34.68826],[135.57644,34.68812],[135.578,34.68876],[135.57952,34.68966],[135.58057,34.69099],[135.58078,34.69193],[135.58296,34.69626],[135.58196,34.69681],[135.58388,34.69825],[135.58484,34.69862],[135.58612,34.69843],[135.587,34.69862],[135.58799,34.69954],[135.589,34.70014],[135.59023,34.70056],[135.59014,34.702],[135.59251,34.70238],[135.59499,34.7035],[135.59464,34.70388],[135.59146,34.70662],[135.59053,34.70725],[135.59302,34.70724],[135.59704,34.70693],[135.59751,34.70868],[135.59935,34.71469],[135.59846,34.71472],[135.59668,34.71419],[135.59471,34.71384],[135.59465,34.71365],[135.59162,34.71339],[135.58985,34.7137],[135.58882,34.71317],[135.5878,34.71215],[135.58741,34.71077],[135.58698,34.7109],[135.58571,34.71189],[135.58657,34.71343],[135.58706,34.71494],[135.58727,34.71653],[135.58724,34.71825],[135.58521,34.72169],[135.58426,34.72237],[135.58346,34.72253],[135.58263,34.72333],[135.58223,34.72334],[135.58191,34.72186],[135.58225,34.72111],[135.58329,34.72109],[135.58346,34.72017],[135.583,34.71995],[135.58275,34.7192],[135.58305,34.71838],[135.58287,34.71739],[135.58231,34.71703],[135.58095,34.71726],[135.57505,34.71741],[135.57646,34.71504],[135.57758,34.7129],[135.57682,34.71278],[135.57482,34.71295],[135.57429,34.70893],[135.57183,34.70878],[135.5699,34.7089],[135.56999,34.71026],[135.56948,34.71031],[135.56952,34.71116],[135.56893,34.7118],[135.56941,34.71252],[135.56868,34.71527],[135.56763,34.71778],[135.56703,34.71738],[135.56611,34.71719],[135.56345,34.71735],[135.56335,34.71503],[135.56025,34.71504]]]]}},
  {"type":"Feature","properties":{"name":"住之江区","code":"27125"},"geometry":{"type":"MultiPolygon","coordinates":[[[[135.4485,34.62647],[135.44845,34.6248],[135.44756,34.61788],[135.44479,34.61839],[135.44291,34.61812],[135.4413,34.62618],[135.43424,34.62335],[135.43359,34.6236],[135.43273,34.62321],[135.43309,34.62229],[135.43129,34.62181],[135.43167,34.61733],[135.43018,34.61766],[135.43019,34.61604],[135.43297,34.61501],[135.43296,34.61302],[135.42663,34.61304],[135.42612,34.61798],[135.42367,34.61916],[135.42343,34.61898],[135.42341,34.61077],[135.4375,34.61077],[135.43755,34.60817],[135.44654,34.60833],[135.45509,34.60605],[135.46275,34.60374],[135.46936,34.60185],[135.47132,34.60113],[135.47401,34.59982],[135.47816,34.5982],[135.48223,34.59693],[135.48696,34.59601],[135.48877,34.60111],[135.49006,34.6064],[135.49099,34.60992],[135.48928,34.61033],[135.49016,34.61312],[135.49129,34.61734],[135.4913,34.61808],[135.49284,34.62345],[135.49096,34.62353],[135.48989,34.62295],[135.48231,34.62164],[135.48164,34.62439],[135.48094,34.62483],[135.4764,34.62703],[135.47368,34.62946],[135.47226,34.62824],[135.47126,34.62772],[135.46968,34.62716],[135.4675,34.62665],[135.46074,34.62529],[135.45774,34.62479],[135.45596,34.62461],[135.45413,34.62471],[135.45044,34.62572],[135.4485,34.62647]]],[[[135.39667,34.62878],[135.3986,34.63136],[135.4045,34.63154],[135.41228,34.6372],[135.4148,34.63482],[135.40748,34.6295],[135.41025,34.62595],[135.41043,34.62587],[135.42057,34.62585],[135.42216,34.62191],[135.43179,34.62442],[135.43266,34.62422],[135.43324,34.62447],[135.43364,34.62511],[135.4407,34.62794],[135.44158,34.62874],[135.4417,34.62921],[135.4393,34.64121],[135.43834,34.64109],[135.43824,34.64154],[135.43499,34.64298],[135.43424,34.64318],[135.43254,34.64322],[135.43235,34.64402],[135.42421,34.64265],[135.41786,34.64442],[135.41735,34.64415],[135.41647,34.64482],[135.4053,34.64087],[135.40518,34.63985],[135.40437,34.63943],[135.40287,34.6394],[135.40181,34.63963],[135.39878,34.63856],[135.39851,34.63817],[135.3985,34.63134],[135.39667,34.62878]]],[[[135.38955,34.62843],[135.38946,34.62835],[135.39944,34.62066],[135.40022,34.61865],[135.40122,34.61821],[135.40064,34.61735],[135.40267,34.61211],[135.40283,34.61209],[135.41702,34.61209],[135.41752,34.61079],[135.41916,34.61088],[135.41916,34.61266],[135.42043,34.61292],[135.41843,34.61955],[135.41705,34.61946],[135.41483,34.61971],[135.41478,34.61942],[135.41233,34.6197],[135.40597,34.61972],[135.40488,34.6193],[135.40379,34.61972],[135.4022,34.62067],[135.3995,34.62072],[135.38971,34.62827],[135.38955,34.62843]]]]}},
  {"type":"Feature","properties":{"name":"平野区","code":"27126"},"geometry":{"type":"MultiPolygon","coordinates":[[[[135.54773,34.63639],[135.54382,34.63247],[135.5437,34.63042],[135.54368,34.62527],[135.54074,34.62526],[135.5408,34.61923],[135.54079,34.6155],[135.54103,34.6145],[135.54087,34.60945],[135.54363,34.60942],[135.5436,34.60622],[135.54363,34.60066],[135.54346,34.59942],[135.54362,34.59713],[135.54358,34.5952],[135.54488,34.59517],[135.54689,34.59536],[135.54797,34.59502],[135.54866,34.59506],[135.54955,34.59582],[135.54964,34.59477],[135.55184,34.5948],[135.55243,34.59497],[135.56197,34.59504],[135.56422,34.5945],[135.56448,34.59615],[135.56716,34.59554],[135.56724,34.59445],[135.56782,34.59286],[135.5679,34.59196],[135.56932,34.59053],[135.56932,34.58787],[135.56911,34.58707],[135.57106,34.58692],[135.57121,34.58857],[135.57098,34.58921],[135.57105,34.59041],[135.57092,34.59213],[135.5719,34.59221],[135.57187,34.59404],[135.57683,34.59307],[135.57707,34.59385],[135.57992,34.59409],[135.58002,34.59844],[135.57997,34.60088],[135.58133,34.6009],[135.58138,34.6027],[135.58366,34.60283],[135.58364,34.60368],[135.58497,34.60369],[135.58605,34.60397],[135.58601,34.60477],[135.58732,34.60474],[135.58726,34.60718],[135.58682,34.60794],[135.58693,34.60914],[135.58596,34.60904],[135.58447,34.60919],[135.5828,34.61102],[135.58262,34.61197],[135.57629,34.61195],[135.57623,34.61377],[135.57685,34.61382],[135.57686,34.61476],[135.575,34.61485],[135.57404,34.6153],[135.57392,34.61384],[135.57252,34.61376],[135.56924,34.61382],[135.56921,34.61485],[135.56801,34.61485],[135.56801,34.61572],[135.56696,34.61577],[135.56516,34.61661],[135.56377,34.61646],[135.56322,34.61682],[135.56196,34.61699],[135.56226,34.62286],[135.56343,34.62183],[135.5636,34.62125],[135.56591,34.62133],[135.56896,34.62013],[135.57298,34.61889],[135.57394,34.61845],[135.57518,34.61824],[135.57492,34.61925],[135.57494,34.62041],[135.57562,34.62041],[135.57548,34.6227],[135.57556,34.62434],[135.57597,34.62548],[135.57663,34.62652],[135.57595,34.62782],[135.57603,34.63054],[135.57482,34.63055],[135.57468,34.63218],[135.5746,34.63399],[135.57175,34.63391],[135.57174,34.63447],[135.56858,34.63436],[135.56841,34.63816],[135.56538,34.63807],[135.56524,34.64096],[135.56129,34.64084],[135.56114,34.64355],[135.55731,34.64345],[135.55729,34.64418],[135.55407,34.64405],[135.55419,34.64138],[135.55386,34.64136],[135.55406,34.63843],[135.553,34.63835],[135.55304,34.63673],[135.55261,34.6367],[135.55264,34.6356],[135.55303,34.63472],[135.55402,34.63459],[135.55437,34.6333],[135.55277,34.63317],[135.55169,34.63342],[135.55002,34.6346],[135.54873,34.6359],[135.54773,34.63639]]]]}},
  {"type":"Feature","properties":{"name":"北区","code":"27127"},"geometry":{"type":"MultiPolygon","coordinates":[[[[135.51481,34.72057],[135.51468,34.72033],[135.50917,34.71975],[135.50393,34.71941],[135.50072,34.7192],[135.49719,34.71915],[135.49508,34.71886],[135.49266,34.71788],[135.48699,34.71454],[135.48334,34.71232],[135.47444,34.70697],[135.4784,34.70242],[135.47922,34.70178],[135.48081,34.70098],[135.48404,34.69969],[135.4843,34.70047],[135.48565,34.7006],[135.48575,34.70106],[135.48822,34.701],[135.48828,34.70229],[135.49068,34.70257],[135.48988,34.70007],[135.48934,34.69887],[135.49025,34.6963],[135.49022,34.69568],[135.491,34.69367],[135.48913,34.69293],[135.48657,34.69137],[135.48577,34.69054],[135.48235,34.68653],[135.48119,34.68465],[135.48302,34.68514],[135.48512,34.68656],[135.49157,34.69006],[135.49262,34.69079],[135.49434,34.69229],[135.49577,34.69269],[135.49747,34.69287],[135.50062,34.69308],[135.50361,34.69272],[135.50585,34.69254],[135.50713,34.6922],[135.5105,34.69088],[135.51496,34.69117],[135.5171,34.69114],[135.51836,34.69128],[135.52008,34.69193],[135.52107,34.69258],[135.52203,34.69363],[135.52263,34.69467],[135.52295,34.69622],[135.52261,34.69836],[135.52165,34.70018],[135.51984,34.7023],[135.51862,34.704],[135.51809,34.70504],[135.51773,34.70636],[135.51775,34.70724],[135.51881,34.70893],[135.52075,34.71097],[135.52147,34.7123],[135.52158,34.71394],[135.52117,34.71579],[135.52078,34.71675],[135.51972,34.71828],[135.51911,34.71889],[135.51782,34.71964],[135.51481,34.72057]]]]}},
  {"type":"Feature","properties":{"name":"中央区","code":"27128"},"geometry":{"type":"MultiPolygon","coordinates":[[[[135.52008,34.69193],[135.51836,34.69128],[135.5171,34.69114],[135.51496,34.69117],[135.5105,34.69088],[135.50713,34.6922],[135.50585,34.69254],[135.50361,34.69272],[135.50062,34.69308],[135.49747,34.69287],[135.49737,34.69079],[135.49719,34.69063],[135.49765,34.68462],[135.49746,34.67728],[135.49719,34.67404],[135.49691,34.6719],[135.49673,34.66901],[135.49719,34.66897],[135.49836,34.66753],[135.49853,34.66689],[135.50103,34.66328],[135.50295,34.66363],[135.50327,34.66327],[135.50564,34.66319],[135.50636,34.663],[135.51073,34.6625],[135.5109,34.66467],[135.5114,34.66464],[135.5115,34.6665],[135.515,34.66634],[135.51896,34.66587],[135.5198,34.66981],[135.5204,34.67533],[135.52151,34.67607],[135.5233,34.67589],[135.52863,34.67495],[135.53158,34.67479],[135.53355,34.67481],[135.53417,34.67684],[135.53444,34.67855],[135.53425,34.68035],[135.53425,34.68174],[135.53447,34.68672],[135.53464,34.68814],[135.53491,34.68844],[135.53513,34.68973],[135.5359,34.69093],[135.53577,34.69315],[135.53482,34.69547],[135.53126,34.69439],[135.52912,34.69352],[135.52764,34.69275],[135.5257,34.69193],[135.5234,34.69128],[135.5222,34.69105],[135.52008,34.69193]]]]}},
  {"type":"Feature","properties":{"name":"堺区","code":"27141"},"geometry":{"type":"MultiPolygon","coordinates":[[[[135.48696,34.59601],[135.48223,34.59693],[135.47816,34.5982],[135.47401,34.59982],[135.47132,34.60113],[135.46936,34.60185],[135.46275,34.60374],[135.45509,34.60605],[135.44654,34.60833],[135.43755,34.60817],[135.4376,34.60613],[135.43697,34.60471],[135.44657,34.60186],[135.44664,34.60096],[135.44626,34.60059],[135.44568,34.59927],[135.4454,34.59818],[135.44468,34.5975],[135.44383,34.59766],[135.43332,34.60079],[135.43398,34.60225],[135.43139,34.60303],[135.43092,34.60286],[135.42725,34.60393],[135.42368,34.60503],[135.42354,34.60492],[135.42555,34.59334],[135.43681,34.58902],[135.4377,34.58866],[135.43813,34.58885],[135.44339,34.59047],[135.44392,34.58944],[135.44709,34.5901],[135.4475,34.5904],[135.45177,34.5919],[135.45906,34.59006],[135.45993,34.59071],[135.45972,34.59483],[135.4606,34.59486],[135.46069,34.5928],[135.46095,34.5921],[135.46263,34.59157],[135.4628,34.588],[135.46233,34.58738],[135.46061,34.58791],[135.45259,34.58997],[135.45238,34.58993],[135.44931,34.58712],[135.44939,34.58697],[135.46429,34.58316],[135.46342,34.58447],[135.46457,34.58503],[135.46616,34.58458],[135.4656,34.58389],[135.46582,34.58291],[135.46521,34.58206],[135.46449,34.58161],[135.46322,34.58157],[135.46255,34.58286],[135.45923,34.5836],[135.45892,34.58338],[135.45857,34.58345],[135.4573,34.58259],[135.45643,34.58252],[135.45338,34.58262],[135.45186,34.58313],[135.45055,34.5838],[135.45009,34.58341],[135.45097,34.58037],[135.45117,34.57911],[135.45175,34.57715],[135.4527,34.57656],[135.45669,34.57641],[135.45673,34.57579],[135.45761,34.57572],[135.45757,34.57404],[135.45668,34.57273],[135.45545,34.57364],[135.45551,34.57582],[135.45271,34.57589],[135.4514,34.57498],[135.45058,34.57242],[135.45081,34.57236],[135.44943,34.56805],[135.45333,34.56649],[135.45544,34.56571],[135.45473,34.5644],[135.45836,34.56279],[135.45812,34.56239],[135.45967,34.56168],[135.46016,34.56182],[135.46216,34.56167],[135.46184,34.56129],[135.46354,34.56038],[135.46173,34.5551],[135.46002,34.55489],[135.46003,34.55414],[135.46071,34.55376],[135.46026,34.55297],[135.46076,34.55274],[135.46236,34.55257],[135.46288,34.55015],[135.46368,34.54796],[135.46369,34.54567],[135.46426,34.5461],[135.46531,34.54633],[135.46514,34.54705],[135.46653,34.5475],[135.46732,34.54866],[135.467,34.54927],[135.4669,34.55042],[135.4661,34.55058],[135.46662,34.55161],[135.46771,34.55128],[135.46923,34.55172],[135.47213,34.55167],[135.47279,34.55137],[135.4735,34.55146],[135.47379,34.55243],[135.47452,34.55284],[135.47692,34.55616],[135.47814,34.55634],[135.47899,34.55615],[135.48001,34.55633],[135.48156,34.55631],[135.48122,34.55586],[135.48112,34.55429],[135.4813,34.55339],[135.48202,34.55211],[135.48431,34.5539],[135.4869,34.55575],[135.4882,34.55685],[135.48942,34.5586],[135.49072,34.56115],[135.49247,34.56492],[135.49361,34.5643],[135.49746,34.56121],[135.50011,34.55928],[135.50073,34.5599],[135.50107,34.56119],[135.50172,34.56122],[135.50167,34.56186],[135.5008,34.56271],[135.50094,34.56311],[135.49928,34.56465],[135.4987,34.56566],[135.49764,34.56709],[135.49837,34.56884],[135.49606,34.56963],[135.49535,34.57101],[135.49601,34.57252],[135.49724,34.57482],[135.49861,34.5771],[135.50085,34.58139],[135.50236,34.58375],[135.50278,34.58616],[135.50123,34.58648],[135.50009,34.58723],[135.49935,34.58802],[135.4986,34.58917],[135.49739,34.59266],[135.49669,34.59336],[135.49525,34.59431],[135.49394,34.59474],[135.4925,34.59493],[135.48966,34.59554],[135.48696,34.59601]]]]}},
  {"type":"Feature","properties":{"name":"中区","code":"27142"},"geometry":{"type":"MultiPolygon","coordinates":[[[[135.50815,34.54813],[135.50583,34.55014],[135.50464,34.54919],[135.50153,34.54698],[135.5012,34.5457],[135.5004,34.54547],[135.49783,34.54552],[135.49695,34.54563],[135.49687,34.54476],[135.49506,34.54362],[135.49298,34.54281],[135.49025,34.54197],[135.49008,34.54233],[135.48913,34.54235],[135.48864,34.54207],[135.48697,34.54188],[135.48635,34.54205],[135.48331,34.54111],[135.48405,34.53973],[135.48276,34.53917],[135.48212,34.5397],[135.48126,34.53954],[135.48021,34.53876],[135.48102,34.53738],[135.47998,34.53643],[135.48009,34.53517],[135.48384,34.5345],[135.4845,34.53446],[135.48361,34.53264],[135.48413,34.53157],[135.4829,34.53107],[135.48207,34.5304],[135.4796,34.52965],[135.47873,34.5298],[135.47805,34.5303],[135.47799,34.53087],[135.47586,34.53202],[135.47332,34.53214],[135.47338,34.53279],[135.47263,34.53313],[135.47153,34.53267],[135.47123,34.53203],[135.46985,34.5327],[135.46972,34.53349],[135.46922,34.53357],[135.46791,34.53322],[135.46944,34.52871],[135.4705,34.5258],[135.47017,34.52538],[135.47109,34.52282],[135.47212,34.52293],[135.47253,34.52204],[135.47454,34.52109],[135.47596,34.5202],[135.48076,34.51692],[135.4817,34.51728],[135.48283,34.51642],[135.48446,34.51495],[135.48578,34.51334],[135.48854,34.51414],[135.49015,34.51324],[135.49028,34.51203],[135.49156,34.51151],[135.49449,34.51066],[135.4946,34.51188],[135.49496,34.51185],[135.49765,34.5102],[135.4999,34.50847],[135.50286,34.50599],[135.50732,34.5063],[135.51114,34.50637],[135.51612,34.50603],[135.5167,34.50594],[135.51921,34.50483],[135.5202,34.50455],[135.52314,34.50416],[135.5265,34.50381],[135.52808,34.50345],[135.52911,34.50288],[135.52969,34.50226],[135.53027,34.50119],[135.53262,34.50173],[135.53336,34.50104],[135.53469,34.50106],[135.53558,34.50177],[135.53524,34.50269],[135.53574,34.50325],[135.53522,34.50362],[135.53537,34.50419],[135.53479,34.5049],[135.53465,34.50627],[135.53403,34.50638],[135.53342,34.50734],[135.53333,34.50803],[135.53432,34.50798],[135.53402,34.50853],[135.53338,34.51149],[135.53264,34.51376],[135.53264,34.51461],[135.53179,34.51608],[135.5309,34.5183],[135.52971,34.5206],[135.52805,34.52327],[135.52744,34.52484],[135.52646,34.52595],[135.5255,34.52732],[135.5239,34.52878],[135.52342,34.52973],[135.52049,34.53361],[135.51949,34.53538],[135.51727,34.53864],[135.51636,34.54016],[135.51562,34.54094],[135.51512,34.54101],[135.51301,34.54374],[135.51269,34.54444],[135.51203,34.54509],[135.51152,34.54604],[135.50988,34.5474],[135.5091,34.5472],[135.50815,34.54813]]]]}},
  {"type":"Feature","properties":{"name":"東区","code":"27143"},"geometry":{"type":"MultiPolygon","coordinates":[[[[135.53264,34.51461],[135.53331,34.51469],[135.53431,34.51321],[135.53454,34.51371],[135.53409,34.51423],[135.53408,34.51504],[135.53561,34.51431],[135.53727,34.51288],[135.53926,34.51177],[135.5407,34.51114],[135.54109,34.51206],[135.54212,34.51152],[135.54285,34.51001],[135.54337,34.51044],[135.54358,34.51144],[135.54401,34.51185],[135.54385,34.51363],[135.54398,34.51434],[135.54362,34.51592],[135.5447,34.51625],[135.54487,34.51674],[135.54638,34.51801],[135.54716,34.51829],[135.54793,34.51766],[135.54931,34.51781],[135.55313,34.51803],[135.55402,34.51757],[135.55502,34.51799],[135.55337,34.51944],[135.55328,34.52043],[135.55395,34.52196],[135.55436,34.52331],[135.55428,34.52433],[135.55486,34.52527],[135.55476,34.52613],[135.55524,34.52697],[135.55505,34.52796],[135.5545,34.52887],[135.55294,34.52865],[135.55286,34.52934],[135.55337,34.53032],[135.55303,34.53062],[135.55201,34.53037],[135.55149,34.53229],[135.55061,34.53264],[135.54928,34.5323],[135.5494,34.5314],[135.54744,34.53123],[135.54555,34.5306],[135.54509,34.52992],[135.54338,34.52986],[135.54333,34.53068],[135.54228,34.53063],[135.54222,34.53283],[135.54183,34.53901],[135.54164,34.53922],[135.54151,34.54331],[135.54108,34.54441],[135.5414,34.54559],[135.53981,34.54559],[135.53917,34.54537],[135.53831,34.54598],[135.53853,34.54663],[135.53992,34.54658],[135.53983,34.54771],[135.53955,34.54841],[135.53961,34.54955],[135.54112,34.54955],[135.54108,34.55014],[135.54201,34.55119],[135.542,34.55267],[135.54171,34.55324],[135.54103,34.55323],[135.54094,34.55543],[135.5411,34.55575],[135.54301,34.55473],[135.54676,34.55476],[135.54667,34.5587],[135.53737,34.55775],[135.53543,34.55776],[135.52826,34.55906],[135.5283,34.5568],[135.52861,34.55677],[135.52889,34.55557],[135.52878,34.55485],[135.52815,34.55475],[135.52806,34.55413],[135.52856,34.55312],[135.52677,34.55214],[135.52531,34.55204],[135.524,34.55216],[135.52341,34.55117],[135.5226,34.55134],[135.52197,34.55074],[135.52106,34.55074],[135.51936,34.55035],[135.51937,34.54959],[135.52031,34.54869],[135.51943,34.54792],[135.51916,34.54717],[135.51802,34.54692],[135.51508,34.54859],[135.51236,34.55026],[135.51217,34.54928],[135.51125,34.54944],[135.51017,34.5488],[135.50815,34.54813],[135.5091,34.5472],[135.50988,34.5474],[135.51152,34.54604],[135.51203,34.54509],[135.51269,34.54444],[135.51301,34.54374],[135.51512,34.54101],[135.51562,34.54094],[135.51636,34.54016],[135.51727,34.53864],[135.51949,34.53538],[135.52049,34.53361],[135.52342,34.52973],[135.5239,34.52878],[135.5255,34.52732],[135.52646,34.52595],[135.52744,34.52484],[135.52805,34.52327],[135.52971,34.5206],[135.5309,34.5183],[135.53179,34.51608],[135.53264,34.51461]]]]}},
  {"type":"Feature","properties":{"name":"西区","code":"27144"},"geometry":{"type":"MultiPolygon","coordinates":[[[[135.45333,34.56649],[135.45237,34.5648],[135.44861,34.56592],[135.44865,34.56612],[135.44647,34.5668],[135.44497,34.56701],[135.4453,34.56741],[135.44504,34.56879],[135.44463,34.56888],[135.44345,34.57592],[135.44311,34.57733],[135.44151,34.58295],[135.43439,34.58266],[135.43376,34.58668],[135.42619,34.58962],[135.42651,34.58786],[135.42624,34.58783],[135.42733,34.58115],[135.42757,34.58118],[135.42864,34.575],[135.42943,34.5707],[135.42082,34.56968],[135.41966,34.57541],[135.41576,34.59373],[135.41442,34.59443],[135.40959,34.59675],[135.40486,34.59895],[135.40276,34.59999],[135.40207,34.59967],[135.40584,34.58193],[135.4097,34.56386],[135.41039,34.5609],[135.40924,34.55822],[135.40946,34.55819],[135.41054,34.56075],[135.43049,34.56077],[135.43276,34.56007],[135.43286,34.56033],[135.43609,34.55949],[135.4371,34.55961],[135.43763,34.5589],[135.43963,34.55856],[135.44479,34.55722],[135.44424,34.55576],[135.44386,34.55415],[135.44408,34.55394],[135.4436,34.55262],[135.4442,34.55247],[135.44371,34.55113],[135.44266,34.55051],[135.44261,34.54937],[135.44215,34.54785],[135.4377,34.54106],[135.43917,34.54046],[135.43862,34.53954],[135.44169,34.53957],[135.44235,34.53944],[135.44383,34.53816],[135.44609,34.53688],[135.44507,34.53533],[135.44567,34.53511],[135.44656,34.53605],[135.44663,34.53412],[135.44804,34.53393],[135.44771,34.5328],[135.44646,34.53174],[135.44643,34.53082],[135.4503,34.53025],[135.45108,34.53048],[135.45128,34.52972],[135.4502,34.52923],[135.44823,34.52948],[135.44794,34.52845],[135.44614,34.52776],[135.44604,34.52594],[135.44758,34.52605],[135.44819,34.52592],[135.44881,34.52514],[135.45135,34.52525],[135.45323,34.52468],[135.45358,34.52507],[135.45439,34.52493],[135.45468,34.52406],[135.45576,34.52414],[135.45619,34.52252],[135.45696,34.5227],[135.45756,34.52195],[135.45831,34.52184],[135.45742,34.52093],[135.4595,34.51988],[135.45998,34.5188],[135.45948,34.51821],[135.45863,34.51848],[135.45715,34.51674],[135.45715,34.51612],[135.45601,34.51612],[135.45436,34.51653],[135.45465,34.51514],[135.45664,34.51538],[135.4574,34.51484],[135.45815,34.51332],[135.45826,34.51096],[135.45907,34.51098],[135.45954,34.51251],[135.4607,34.51211],[135.46177,34.5106],[135.46185,34.50975],[135.46095,34.50821],[135.46078,34.50761],[135.46229,34.50799],[135.46197,34.50666],[135.4633,34.50659],[135.46334,34.50419],[135.46278,34.50275],[135.46266,34.50198],[135.46196,34.50114],[135.46118,34.49896],[135.46103,34.49732],[135.46161,34.49693],[135.46184,34.49806],[135.46248,34.49852],[135.46286,34.49962],[135.46402,34.49874],[135.46415,34.50118],[135.46376,34.50253],[135.46391,34.50342],[135.46493,34.50413],[135.46601,34.50327],[135.46593,34.50286],[135.4649,34.50123],[135.46475,34.50019],[135.46503,34.49974],[135.46585,34.50011],[135.46674,34.50014],[135.46666,34.50098],[135.4674,34.50158],[135.4683,34.50152],[135.46912,34.50209],[135.47037,34.50254],[135.47111,34.5038],[135.47223,34.50258],[135.4731,34.5029],[135.47396,34.50256],[135.4752,34.50277],[135.47529,34.50377],[135.47599,34.50343],[135.47642,34.50237],[135.47802,34.50242],[135.47848,34.50336],[135.47981,34.50283],[135.48114,34.50311],[135.4826,34.50459],[135.48342,34.50611],[135.48423,34.50618],[135.48455,34.50737],[135.4854,34.50801],[135.48563,34.51018],[135.48596,34.51043],[135.48693,34.51],[135.48808,34.51044],[135.48578,34.51334],[135.48446,34.51495],[135.48283,34.51642],[135.4817,34.51728],[135.48076,34.51692],[135.47596,34.5202],[135.47454,34.52109],[135.47253,34.52204],[135.47212,34.52293],[135.47109,34.52282],[135.47017,34.52538],[135.4705,34.5258],[135.46944,34.52871],[135.46791,34.53322],[135.46922,34.53357],[135.46972,34.53349],[135.46985,34.5327],[135.47123,34.53203],[135.47153,34.53267],[135.47263,34.53313],[135.47338,34.53279],[135.47332,34.53214],[135.47586,34.53202],[135.47799,34.53087],[135.47805,34.5303],[135.47873,34.5298],[135.4796,34.52965],[135.48207,34.5304],[135.4829,34.53107],[135.48413,34.53157],[135.48361,34.53264],[135.4845,34.53446],[135.48384,34.5345],[135.48009,34.53517],[135.47998,34.53643],[135.48102,34.53738],[135.48021,34.53876],[135.48126,34.53954],[135.48212,34.5397],[135.48276,34.53917],[135.48405,34.53973],[135.48331,34.54111],[135.48635,34.54205],[135.48697,34.54188],[135.48864,34.54207],[135.48913,34.54235],[135.49008,34.54233],[135.4891,34.54461],[135.48791,34.5466],[135.48701,34.54765],[135.48539,34.54866],[135.48366,34.54925],[135.48202,34.55211],[135.4813,34.55339],[135.48112,34.55429],[135.48122,34.55586],[135.48156,34.55631],[135.48001,34.55633],[135.47899,34.55615],[135.47814,34.55634],[135.47692,34.55616],[135.47452,34.55284],[135.47379,34.55243],[135.4735,34.55146],[135.47279,34.55137],[135.47213,34.55167],[135.46923,34.55172],[135.46771,34.55128],[135.46662,34.55161],[135.4661,34.55058],[135.4669,34.55042],[135.467,34.54927],[135.46732,34.54866],[135.46653,34.5475],[135.46514,34.54705],[135.46531,34.54633],[135.46426,34.5461],[135.46369,34.54567],[135.46368,34.54796],[135.46288,34.55015],[135.46236,34.55257],[135.46076,34.55274],[135.46026,34.55297],[135.46071,34.55376],[135.46003,34.55414],[135.46002,34.55489],[135.46173,34.5551],[135.46354,34.56038],[135.46184,34.56129],[135.46216,34.56167],[135.46016,34.56182],[135.45967,34.56168],[135.45812,34.56239],[135.45836,34.56279],[135.45473,34.5644],[135.45544,34.56571],[135.45333,34.56649]]],[[[135.42625,34.54709],[135.43037,34.54529],[135.43636,34.54258],[135.44015,34.54833],[135.44065,34.54825],[135.44081,34.54926],[135.44096,34.55426],[135.44075,34.55449],[135.43679,34.55553],[135.43493,34.5527],[135.43066,34.55382],[135.42625,34.54709]]],[[[135.40526,34.54723],[135.40921,34.54573],[135.40874,34.54483],[135.4122,34.54353],[135.41588,34.54999],[135.40945,34.55443],[135.40927,34.55434],[135.40526,34.54723]]]]}},
  {"type":"Feature","properties":{"name":"南区","code":"27145"},"geometry":{"type":"MultiPolygon","coordinates":[[[[135.48578,34.51334],[135.48808,34.51044],[135.48693,34.51],[135.48596,34.51043],[135.48563,34.51018],[135.4854,34.50801],[135.48455,34.50737],[135.48423,34.50618],[135.48342,34.50611],[135.4826,34.50459],[135.48114,34.50311],[135.47981,34.50283],[135.47848,34.50336],[135.47802,34.50242],[135.47642,34.50237],[135.47599,34.50343],[135.47529,34.50377],[135.4752,34.50277],[135.47396,34.50256],[135.4731,34.5029],[135.47223,34.50258],[135.47111,34.5038],[135.47037,34.50254],[135.46912,34.50209],[135.4683,34.50152],[135.4674,34.50158],[135.46666,34.50098],[135.46674,34.50014],[135.46585,34.50011],[135.46503,34.49974],[135.46564,34.49859],[135.46589,34.4967],[135.46582,34.49602],[135.46653,34.49602],[135.46589,34.49178],[135.4662,34.49135],[135.46603,34.48954],[135.46624,34.48702],[135.466,34.48603],[135.4662,34.48301],[135.46805,34.48296],[135.46816,34.48326],[135.46999,34.48328],[135.47038,34.48119],[135.47177,34.481],[135.47203,34.47984],[135.47132,34.47972],[135.47135,34.47764],[135.47191,34.47633],[135.47366,34.47419],[135.47566,34.47329],[135.47764,34.4713],[135.4782,34.4709],[135.47748,34.47004],[135.47657,34.46963],[135.47587,34.46969],[135.47578,34.469],[135.47726,34.46648],[135.47743,34.46597],[135.47851,34.4649],[135.47972,34.46449],[135.48034,34.46398],[135.4814,34.46364],[135.4844,34.46104],[135.48605,34.46131],[135.48714,34.4611],[135.48818,34.46035],[135.48963,34.46035],[135.49046,34.45959],[135.49109,34.45851],[135.49293,34.45738],[135.49452,34.45592],[135.49516,34.45426],[135.49696,34.45217],[135.49726,34.45157],[135.49738,34.44944],[135.49779,34.44685],[135.49843,34.44569],[135.49811,34.44464],[135.49843,34.4432],[135.49925,34.44152],[135.49909,34.44005],[135.49834,34.43913],[135.49819,34.43775],[135.4994,34.43636],[135.49974,34.43567],[135.4997,34.43482],[135.50078,34.43368],[135.50291,34.43385],[135.5036,34.43336],[135.50504,34.43354],[135.50632,34.43398],[135.50893,34.43278],[135.50991,34.43257],[135.51129,34.43143],[135.51388,34.43124],[135.51479,34.43087],[135.51584,34.4311],[135.51827,34.43018],[135.51959,34.43117],[135.51887,34.4319],[135.51839,34.43304],[135.51887,34.43426],[135.51891,34.4353],[135.5197,34.43615],[135.51982,34.437],[135.52158,34.43853],[135.52196,34.43929],[135.52204,34.44015],[135.52395,34.44151],[135.52498,34.44166],[135.52622,34.44219],[135.52673,34.44313],[135.52745,34.44349],[135.52845,34.44468],[135.52943,34.44554],[135.53044,34.44613],[135.5309,34.44669],[135.53233,34.4473],[135.53364,34.44861],[135.53385,34.44943],[135.53437,34.44995],[135.53475,34.45105],[135.53555,34.45108],[135.53549,34.45173],[135.53631,34.4531],[135.53888,34.45511],[135.53925,34.45574],[135.54004,34.45613],[135.54033,34.45684],[135.54117,34.4578],[135.54124,34.45881],[135.54206,34.45914],[135.5437,34.46018],[135.54539,34.46233],[135.54433,34.46326],[135.54365,34.46425],[135.5423,34.46509],[135.54206,34.4665],[135.54136,34.46676],[135.54096,34.4677],[135.5386,34.46926],[135.5384,34.47043],[135.53781,34.4711],[135.53706,34.47348],[135.53642,34.47443],[135.5362,34.47543],[135.5366,34.47615],[135.53633,34.47699],[135.53665,34.47768],[135.53628,34.47868],[135.53527,34.47985],[135.53531,34.48053],[135.53583,34.48128],[135.53593,34.48192],[135.5356,34.48337],[135.53592,34.48402],[135.5357,34.48473],[135.53601,34.48516],[135.5357,34.48606],[135.53392,34.48711],[135.53357,34.48772],[135.53424,34.48946],[135.53386,34.49104],[135.53442,34.49173],[135.53497,34.49292],[135.53695,34.4939],[135.5374,34.49475],[135.53852,34.49525],[135.53959,34.49704],[135.54004,34.49861],[135.53971,34.50109],[135.53875,34.50265],[135.53825,34.50286],[135.53591,34.505],[135.53531,34.5064],[135.53432,34.50798],[135.53333,34.50803],[135.53342,34.50734],[135.53403,34.50638],[135.53465,34.50627],[135.53479,34.5049],[135.53537,34.50419],[135.53522,34.50362],[135.53574,34.50325],[135.53524,34.50269],[135.53558,34.50177],[135.53469,34.50106],[135.53336,34.50104],[135.53262,34.50173],[135.53027,34.50119],[135.52969,34.50226],[135.52911,34.50288],[135.52808,34.50345],[135.5265,34.50381],[135.52314,34.50416],[135.5202,34.50455],[135.51921,34.50483],[135.5167,34.50594],[135.51612,34.50603],[135.51114,34.50637],[135.50732,34.5063],[135.50286,34.50599],[135.4999,34.50847],[135.49765,34.5102],[135.49496,34.51185],[135.4946,34.51188],[135.49449,34.51066],[135.49156,34.51151],[135.49028,34.51203],[135.49015,34.51324],[135.48854,34.51414],[135.48578,34.51334]]]]}},
  {"type":"Feature","properties":{"name":"北区","code":"27146"},"geometry":{"type":"MultiPolygon","coordinates":[[[[135.50278,34.58616],[135.50236,34.58375],[135.50085,34.58139],[135.49861,34.5771],[135.49724,34.57482],[135.49601,34.57252],[135.49535,34.57101],[135.49606,34.56963],[135.49837,34.56884],[135.49764,34.56709],[135.4987,34.56566],[135.49928,34.56465],[135.50094,34.56311],[135.5008,34.56271],[135.50167,34.56186],[135.50172,34.56122],[135.50107,34.56119],[135.50073,34.5599],[135.50011,34.55928],[135.49746,34.56121],[135.49361,34.5643],[135.49247,34.56492],[135.49072,34.56115],[135.48942,34.5586],[135.4882,34.55685],[135.4869,34.55575],[135.48431,34.5539],[135.48202,34.55211],[135.48366,34.54925],[135.48539,34.54866],[135.48701,34.54765],[135.48791,34.5466],[135.4891,34.54461],[135.49008,34.54233],[135.49025,34.54197],[135.49298,34.54281],[135.49506,34.54362],[135.49687,34.54476],[135.49695,34.54563],[135.49783,34.54552],[135.5004,34.54547],[135.5012,34.5457],[135.50153,34.54698],[135.50464,34.54919],[135.50583,34.55014],[135.50815,34.54813],[135.51017,34.5488],[135.51125,34.54944],[135.51217,34.54928],[135.51236,34.55026],[135.51508,34.54859],[135.51802,34.54692],[135.51916,34.54717],[135.51943,34.54792],[135.52031,34.54869],[135.51937,34.54959],[135.51936,34.55035],[135.52106,34.55074],[135.52197,34.55074],[135.5226,34.55134],[135.52341,34.55117],[135.524,34.55216],[135.52531,34.55204],[135.52677,34.55214],[135.52856,34.55312],[135.52806,34.55413],[135.52815,34.55475],[135.52878,34.55485],[135.52889,34.55557],[135.52861,34.55677],[135.5283,34.5568],[135.52826,34.55906],[135.53543,34.55776],[135.53737,34.55775],[135.54667,34.5587],[135.54659,34.55965],[135.5491,34.55986],[135.54957,34.56047],[135.54905,34.56138],[135.54852,34.56155],[135.54793,34.56239],[135.5483,34.56431],[135.54898,34.56477],[135.54881,34.5653],[135.54804,34.56591],[135.54474,34.56556],[135.54242,34.56569],[135.54092,34.5656],[135.53726,34.56559],[135.53694,34.56585],[135.53681,34.56755],[135.53583,34.56759],[135.53581,34.56902],[135.53526,34.56954],[135.53568,34.57002],[135.53557,34.57161],[135.53405,34.57175],[135.5335,34.57157],[135.53219,34.57241],[135.53165,34.57376],[135.53176,34.57664],[135.52856,34.57667],[135.52354,34.57659],[135.52242,34.57666],[135.52232,34.58005],[135.52231,34.58559],[135.5228,34.5857],[135.52279,34.58711],[135.52122,34.58743],[135.52101,34.58984],[135.52264,34.58988],[135.52257,34.59182],[135.52264,34.5932],[135.52199,34.59434],[135.51885,34.59297],[135.51665,34.59151],[135.51416,34.59031],[135.51313,34.58999],[135.51162,34.5892],[135.50781,34.58769],[135.50588,34.5866],[135.50408,34.58623],[135.50278,34.58616]]]]}},
  {"type":"Feature","properties":{"name":"美原区","code":"27147"},"geometry":{"type":"MultiPolygon","coordinates":[[[[135.55505,34.52796],[135.55597,34.52801],[135.55667,34.52884],[135.55742,34.52909],[135.5581,34.5286],[135.55857,34.52942],[135.55938,34.52911],[135.55893,34.52843],[135.55841,34.52675],[135.56077,34.52661],[135.56138,34.52689],[135.56192,34.52576],[135.56286,34.52522],[135.56282,34.52423],[135.56345,34.52404],[135.56302,34.52239],[135.56389,34.52046],[135.56283,34.51996],[135.56344,34.51838],[135.56352,34.5174],[135.56406,34.51692],[135.56582,34.51601],[135.56654,34.51354],[135.56763,34.51329],[135.56991,34.51219],[135.57135,34.512],[135.57251,34.51146],[135.57396,34.5118],[135.57513,34.51093],[135.5765,34.51074],[135.5783,34.5109],[135.57859,34.51141],[135.57992,34.51124],[135.58125,34.51038],[135.58214,34.51067],[135.58212,34.51202],[135.58247,34.51313],[135.58242,34.51403],[135.58199,34.51586],[135.58077,34.51736],[135.58145,34.51822],[135.58222,34.51878],[135.58327,34.5191],[135.58416,34.51899],[135.58547,34.51913],[135.58558,34.521],[135.58515,34.5218],[135.58445,34.5224],[135.58417,34.52356],[135.58466,34.52398],[135.58483,34.52599],[135.58567,34.52651],[135.58506,34.52689],[135.58511,34.52749],[135.58648,34.52927],[135.58661,34.5307],[135.58757,34.53107],[135.5872,34.5318],[135.58546,34.53222],[135.58374,34.53371],[135.58228,34.53353],[135.58153,34.53389],[135.58246,34.53483],[135.58198,34.5351],[135.58124,34.53617],[135.58079,34.53742],[135.58166,34.53743],[135.58179,34.53799],[135.5788,34.54038],[135.57823,34.54105],[135.57816,34.54165],[135.57706,34.54242],[135.57532,34.54287],[135.5747,34.54318],[135.57434,34.54411],[135.5755,34.54425],[135.57576,34.54544],[135.57322,34.54696],[135.57246,34.54627],[135.5721,34.54711],[135.57259,34.54844],[135.57003,34.54868],[135.5692,34.54893],[135.5674,34.54871],[135.56727,34.55243],[135.56745,34.55297],[135.5682,34.55337],[135.56844,34.55419],[135.56885,34.55724],[135.5682,34.55878],[135.5672,34.56001],[135.56613,34.55991],[135.56232,34.55986],[135.56106,34.56003],[135.56094,34.55935],[135.56122,34.55747],[135.56099,34.55663],[135.56172,34.5553],[135.56155,34.55442],[135.56063,34.55485],[135.5587,34.55486],[135.55853,34.55385],[135.55712,34.5538],[135.55655,34.55454],[135.55566,34.55414],[135.55548,34.55482],[135.55385,34.55455],[135.55319,34.5539],[135.55213,34.55466],[135.55158,34.55545],[135.55179,34.55604],[135.5512,34.55676],[135.54812,34.55757],[135.54802,34.55844],[135.5491,34.55986],[135.54659,34.55965],[135.54667,34.5587],[135.54676,34.55476],[135.54301,34.55473],[135.5411,34.55575],[135.54094,34.55543],[135.54103,34.55323],[135.54171,34.55324],[135.542,34.55267],[135.54201,34.55119],[135.54108,34.55014],[135.54112,34.54955],[135.53961,34.54955],[135.53955,34.54841],[135.53983,34.54771],[135.53992,34.54658],[135.53853,34.54663],[135.53831,34.54598],[135.53917,34.54537],[135.53981,34.54559],[135.5414,34.54559],[135.54108,34.54441],[135.54151,34.54331],[135.54164,34.53922],[135.54183,34.53901],[135.54222,34.53283],[135.54228,34.53063],[135.54333,34.53068],[135.54338,34.52986],[135.54509,34.52992],[135.54555,34.5306],[135.54744,34.53123],[135.5494,34.5314],[135.54928,34.5323],[135.55061,34.53264],[135.55149,34.53229],[135.55201,34.53037],[135.55303,34.53062],[135.55337,34.53032],[135.55286,34.52934],[135.55294,34.52865],[135.5545,34.52887],[135.55505,34.52796]],[[135.57782,34.53425],[135.57799,34.53466],[135.57938,34.53528],[135.57998,34.53674],[135.57985,34.53745],[135.57929,34.53816],[135.58015,34.53825],[135.5805,34.53488],[135.5793,34.53417],[135.57782,34.53425]]]]}}
]}
