{"type":"FeatureCollection", "features": [
  {"type":"Feature","properties":{"name":"西区","code":"11101"},"geometry":{"type":"MultiPolygon","coordinates":[[[[139.57647,35.87146],[139.57526,35.87376],[139.57358,35.87598],[139.57196,35.87784],[139.56888,35.88072],[139.57118,35.88186],[139.57273,35.88035],[139.57536,35.8817],[139.57665,35.88004],[139.57876,35.88117],[139.58145,35.882],[139.58222,35.88033],[139.58258,35.88043],[139.5831,35.87935],[139.58378,35.87956],[139.58342,35.88032],[139.59204,35.88048],[139.59301,35.88068],[139.5978,35.88061],[139.59923,35.88018],[139.60073,35.87997],[139.60086,35.87926],[139.6014,35.87852],[139.60193,35.87854],[139.60192,35.8794],[139.6027,35.88453],[139.60368,35.88755],[139.60353,35.88862],[139.60313,35.88927],[139.60246,35.88967],[139.60061,35.88934],[139.59956,35.88934],[139.59863,35.8897],[139.59731,35.89102],[139.59713,35.89213],[139.59803,35.89327],[139.59678,35.89419],[139.59564,35.89525],[139.59714,35.89553],[139.59776,35.89542],[139.59811,35.89606],[139.59763,35.89671],[139.59764,35.89741],[139.59696,35.89809],[139.59545,35.89852],[139.59598,35.89917],[139.59712,35.89993],[139.59775,35.90067],[139.59858,35.90086],[139.5982,35.90173],[139.59827,35.90284],[139.59798,35.90328],[139.59901,35.90472],[139.59872,35.90563],[139.59803,35.90664],[139.59801,35.90778],[139.59889,35.90903],[139.59944,35.91171],[139.59915,35.91245],[139.59724,35.91501],[139.59546,35.9181],[139.59499,35.91969],[139.59489,35.92104],[139.59519,35.92222],[139.59608,35.92367],[139.59792,35.92591],[139.59846,35.9267],[139.59886,35.92787],[139.59925,35.93044],[139.59908,35.93172],[139.59752,35.93466],[139.59775,35.93652],[139.59727,35.93663],[139.59584,35.93721],[139.59431,35.93896],[139.59254,35.93995],[139.5907,35.94119],[139.59003,35.9429],[139.58814,35.94524],[139.5864,35.94578],[139.58546,35.9457],[139.58396,35.94512],[139.58012,35.94316],[139.57935,35.94327],[139.57752,35.94311],[139.57593,35.9433],[139.57494,35.94412],[139.57308,35.94345],[139.56812,35.94104],[139.56763,35.94092],[139.56586,35.93975],[139.56489,35.93883],[139.56512,35.93538],[139.56458,35.93453],[139.56362,35.93393],[139.56204,35.93345],[139.56137,35.93281],[139.56091,35.93192],[139.56078,35.93099],[139.5613,35.92979],[139.56054,35.92962],[139.56087,35.9286],[139.5604,35.92819],[139.56088,35.92712],[139.56161,35.92699],[139.56221,35.9263],[139.56178,35.92569],[139.56085,35.92594],[139.56101,35.92658],[139.56031,35.92776],[139.55948,35.92852],[139.5606,35.92874],[139.55998,35.92972],[139.55932,35.92958],[139.55836,35.9308],[139.55787,35.93177],[139.55874,35.93202],[139.55869,35.9326],[139.55743,35.93415],[139.55667,35.93538],[139.55534,35.93545],[139.55391,35.93445],[139.55291,35.93436],[139.55327,35.93535],[139.55274,35.93565],[139.55182,35.93548],[139.55137,35.93422],[139.55142,35.93301],[139.55095,35.93312],[139.55081,35.93435],[139.54804,35.9341],[139.54776,35.9342],[139.54883,35.93294],[139.55046,35.93133],[139.55062,35.92962],[139.55156,35.92931],[139.55074,35.92864],[139.55018,35.92713],[139.55002,35.92614],[139.5488,35.92732],[139.54767,35.92642],[139.54694,35.92667],[139.54639,35.92591],[139.54724,35.92425],[139.54651,35.92337],[139.54619,35.92191],[139.54689,35.92174],[139.54756,35.92115],[139.54804,35.91987],[139.54909,35.91912],[139.54958,35.91811],[139.55028,35.91762],[139.55006,35.91656],[139.54925,35.91443],[139.54919,35.91384],[139.54854,35.91264],[139.5489,35.91137],[139.54997,35.91051],[139.55083,35.91074],[139.55189,35.91015],[139.5521,35.90952],[139.55177,35.90736],[139.55223,35.90683],[139.55411,35.90639],[139.55424,35.90508],[139.55491,35.90368],[139.55432,35.90211],[139.55442,35.90135],[139.55363,35.90061],[139.55285,35.89886],[139.55101,35.89753],[139.55103,35.896],[139.55154,35.89532],[139.55332,35.89372],[139.55714,35.89164],[139.558,35.89086],[139.55839,35.89005],[139.55804,35.88855],[139.55683,35.88742],[139.55591,35.88734],[139.55415,35.88822],[139.55252,35.88863],[139.55045,35.8883],[139.5499,35.88797],[139.54947,35.88723],[139.54952,35.88649],[139.55019,35.885],[139.55145,35.88334],[139.55599,35.88169],[139.55957,35.88055],[139.56034,35.87967],[139.56036,35.87865],[139.55948,35.87741],[139.55788,35.87578],[139.55786,35.87483],[139.55891,35.8741],[139.56163,35.87304],[139.56284,35.87227],[139.56395,35.87191],[139.56796,35.87198],[139.56947,35.87224],[139.57142,35.87225],[139.57403,35.87189],[139.57647,35.87146]]],[[[139.54776,35.9342],[139.54354,35.93777],[139.5426,35.93677],[139.54107,35.93551],[139.54061,35.93482],[139.54137,35.93428],[139.54256,35.93419],[139.54306,35.93388],[139.54343,35.93282],[139.54441,35.93242],[139.5449,35.9329],[139.54697,35.93409],[139.54776,35.9342]]]]}},
  {"type":"Feature","properties":{"name":"北区","code":"11102"},"geometry":{"type":"MultiPolygon","coordinates":[[[[139.59724,35.91501],[139.59777,35.91518],[139.59971,35.91456],[139.60107,35.91454],[139.60268,35.91499],[139.60328,35.91453],[139.60501,35.91464],[139.60562,35.91502],[139.60557,35.91596],[139.61179,35.91631],[139.61176,35.91952],[139.61484,35.91987],[139.61496,35.92104],[139.6185,35.922],[139.62036,35.91669],[139.62433,35.91818],[139.62481,35.91905],[139.62551,35.9192],[139.62688,35.92165],[139.62824,35.92247],[139.63054,35.9234],[139.63471,35.92439],[139.63748,35.92554],[139.63751,35.92345],[139.63804,35.92239],[139.63883,35.92245],[139.64163,35.92425],[139.64299,35.92512],[139.64308,35.9263],[139.64215,35.9271],[139.64229,35.92832],[139.64196,35.9294],[139.64207,35.93102],[139.64236,35.93179],[139.64233,35.93268],[139.64271,35.93433],[139.64251,35.93558],[139.64216,35.93635],[139.64222,35.93751],[139.64255,35.93817],[139.64244,35.93925],[139.63801,35.94156],[139.63734,35.94068],[139.63391,35.94445],[139.63093,35.94821],[139.63056,35.94876],[139.6296,35.94884],[139.62765,35.94969],[139.62697,35.95019],[139.6257,35.95241],[139.62177,35.95964],[139.62098,35.96077],[139.62011,35.96141],[139.62038,35.9618],[139.61943,35.96346],[139.61865,35.96437],[139.61798,35.96472],[139.61362,35.96602],[139.61312,35.96545],[139.61111,35.96428],[139.60162,35.96009],[139.60007,35.95948],[139.5995,35.96084],[139.59721,35.96131],[139.59486,35.96148],[139.59235,35.96192],[139.59207,35.96142],[139.59087,35.96109],[139.5905,35.96156],[139.58946,35.96124],[139.58896,35.96183],[139.58832,35.96155],[139.58804,35.96089],[139.58822,35.9603],[139.58929,35.95932],[139.59068,35.95727],[139.59142,35.95694],[139.59208,35.95715],[139.59242,35.95665],[139.59157,35.95519],[139.59388,35.95143],[139.59442,35.95069],[139.59672,35.94818],[139.59778,35.94551],[139.59896,35.94412],[139.59942,35.94129],[139.59736,35.93838],[139.59727,35.93663],[139.59775,35.93652],[139.59752,35.93466],[139.59908,35.93172],[139.59925,35.93044],[139.59886,35.92787],[139.59846,35.9267],[139.59792,35.92591],[139.59608,35.92367],[139.59519,35.92222],[139.59489,35.92104],[139.59499,35.91969],[139.59546,35.9181],[139.59724,35.91501]]]]}},
  {"type":"Feature","properties":{"name":"大宮区","code":"11103"},"geometry":{"type":"MultiPolygon","coordinates":[[[[139.60368,35.88755],[139.60416,35.88784],[139.60427,35.88861],[139.60544,35.88961],[139.60625,35.88987],[139.60647,35.89245],[139.60698,35.89379],[139.60742,35.89601],[139.6107,35.89528],[139.61161,35.89523],[139.61213,35.894],[139.61299,35.89426],[139.61714,35.89419],[139.61783,35.89409],[139.61992,35.89425],[139.62007,35.8937],[139.62141,35.89392],[139.62205,35.89291],[139.62261,35.89312],[139.62129,35.89637],[139.6214,35.89717],[139.62076,35.89898],[139.61967,35.90123],[139.6217,35.90222],[139.62232,35.90225],[139.62277,35.90123],[139.62507,35.90161],[139.62561,35.90067],[139.62575,35.89986],[139.62653,35.89914],[139.62822,35.89633],[139.62891,35.89642],[139.62842,35.89789],[139.62886,35.898],[139.63118,35.89621],[139.63278,35.89436],[139.63357,35.89439],[139.63465,35.89291],[139.63427,35.89204],[139.63592,35.88919],[139.6369,35.88955],[139.63743,35.88872],[139.64019,35.88986],[139.64049,35.89011],[139.64182,35.89026],[139.64242,35.89095],[139.64195,35.89209],[139.64336,35.89249],[139.64415,35.89304],[139.64408,35.89186],[139.64252,35.89136],[139.64408,35.88992],[139.64447,35.88871],[139.64506,35.88886],[139.64496,35.88985],[139.64548,35.89003],[139.64726,35.88983],[139.64713,35.89131],[139.64657,35.89129],[139.64666,35.89285],[139.64607,35.89555],[139.64511,35.89671],[139.64616,35.89713],[139.6452,35.89884],[139.64289,35.89814],[139.64281,35.89867],[139.6441,35.89951],[139.64429,35.90074],[139.64515,35.90089],[139.64548,35.90168],[139.64831,35.90148],[139.64962,35.90158],[139.64892,35.90358],[139.64858,35.9059],[139.64859,35.90827],[139.64733,35.91081],[139.64928,35.91086],[139.64919,35.91127],[139.64782,35.91225],[139.64741,35.9132],[139.64662,35.91426],[139.64657,35.91494],[139.64574,35.91584],[139.64481,35.91631],[139.64465,35.9177],[139.64356,35.91709],[139.64403,35.91906],[139.64407,35.91981],[139.64378,35.92135],[139.64338,35.92245],[139.64276,35.92334],[139.64163,35.92425],[139.63883,35.92245],[139.63804,35.92239],[139.63751,35.92345],[139.63748,35.92554],[139.63471,35.92439],[139.63054,35.9234],[139.62824,35.92247],[139.62688,35.92165],[139.62551,35.9192],[139.62481,35.91905],[139.62433,35.91818],[139.62036,35.91669],[139.6185,35.922],[139.61496,35.92104],[139.61484,35.91987],[139.61176,35.91952],[139.61179,35.91631],[139.60557,35.91596],[139.60562,35.91502],[139.60501,35.91464],[139.60328,35.91453],[139.60268,35.91499],[139.60107,35.91454],[139.59971,35.91456],[139.59777,35.91518],[139.59724,35.91501],[139.59915,35.91245],[139.59944,35.91171],[139.59889,35.90903],[139.59801,35.90778],[139.59803,35.90664],[139.59872,35.90563],[139.59901,35.90472],[139.59798,35.90328],[139.59827,35.90284],[139.5982,35.90173],[139.59858,35.90086],[139.59775,35.90067],[139.59712,35.89993],[139.59598,35.89917],[139.59545,35.89852],[139.59696,35.89809],[139.59764,35.89741],[139.59763,35.89671],[139.59811,35.89606],[139.59776,35.89542],[139.59714,35.89553],[139.59564,35.89525],[139.59678,35.89419],[139.59803,35.89327],[139.59713,35.89213],[139.59731,35.89102],[139.59863,35.8897],[139.59956,35.88934],[139.60061,35.88934],[139.60246,35.88967],[139.60313,35.88927],[139.60353,35.88862],[139.60368,35.88755]]]]}},
  {"type":"Feature","properties":{"name":"見沼区","code":"11104"},"geometry":{"type":"MultiPolygon","coordinates":[[[[139.64163,35.92425],[139.64276,35.92334],[139.64338,35.92245],[139.64378,35.92135],[139.64407,35.91981],[139.64403,35.91906],[139.64356,35.91709],[139.64465,35.9177],[139.64481,35.91631],[139.64574,35.91584],[139.64657,35.91494],[139.64662,35.91426],[139.64741,35.9132],[139.64782,35.91225],[139.64919,35.91127],[139.64928,35.91086],[139.64733,35.91081],[139.64859,35.90827],[139.64858,35.9059],[139.64892,35.90358],[139.64962,35.90158],[139.64831,35.90148],[139.6488,35.89989],[139.64849,35.89978],[139.64917,35.8985],[139.64979,35.89863],[139.65048,35.89743],[139.65006,35.89725],[139.65071,35.89641],[139.65211,35.89416],[139.65522,35.89401],[139.6609,35.89383],[139.66074,35.89733],[139.66212,35.89757],[139.66375,35.89822],[139.66589,35.89835],[139.66649,35.89916],[139.66546,35.89924],[139.66657,35.90036],[139.66816,35.89917],[139.66856,35.89808],[139.66976,35.89828],[139.66966,35.89689],[139.67862,35.89636],[139.67775,35.89416],[139.6785,35.89387],[139.68329,35.89331],[139.68621,35.89332],[139.68623,35.89472],[139.68876,35.89544],[139.68897,35.89561],[139.69427,35.89498],[139.69412,35.89388],[139.7003,35.89256],[139.70065,35.89291],[139.70063,35.89432],[139.70114,35.89729],[139.70087,35.89889],[139.69999,35.90021],[139.69916,35.9011],[139.69849,35.90221],[139.69758,35.90296],[139.69397,35.90637],[139.69363,35.90693],[139.69449,35.90772],[139.69357,35.90842],[139.69355,35.9093],[139.69321,35.91079],[139.69267,35.91178],[139.69316,35.91235],[139.69553,35.91403],[139.6925,35.91693],[139.69538,35.91846],[139.69681,35.91682],[139.69823,35.9154],[139.69911,35.91595],[139.70042,35.91571],[139.69853,35.91666],[139.69834,35.91742],[139.69781,35.91789],[139.69739,35.91891],[139.69681,35.91961],[139.69729,35.92092],[139.69731,35.92214],[139.69652,35.92254],[139.6962,35.9233],[139.69558,35.92348],[139.6954,35.9252],[139.69403,35.92623],[139.69294,35.92646],[139.69268,35.9278],[139.69166,35.92941],[139.6908,35.93038],[139.6892,35.93064],[139.68796,35.93194],[139.68693,35.9321],[139.68608,35.9327],[139.6846,35.93304],[139.6828,35.93507],[139.68346,35.93656],[139.68338,35.93793],[139.68235,35.93888],[139.68194,35.93989],[139.68246,35.94044],[139.6824,35.94141],[139.68192,35.94218],[139.68245,35.94277],[139.6813,35.94369],[139.68132,35.94415],[139.68216,35.94505],[139.6813,35.94704],[139.68208,35.94815],[139.68209,35.9495],[139.6814,35.95046],[139.68018,35.95067],[139.67761,35.95216],[139.67697,35.95219],[139.6767,35.95272],[139.67794,35.95358],[139.67753,35.95397],[139.6766,35.95417],[139.67668,35.95487],[139.67612,35.9556],[139.67591,35.95705],[139.67281,35.96019],[139.67319,35.96069],[139.67156,35.96183],[139.66991,35.96107],[139.6695,35.96152],[139.66952,35.96231],[139.67091,35.96253],[139.67026,35.96328],[139.66953,35.96358],[139.66891,35.96278],[139.66849,35.96355],[139.66778,35.96331],[139.66591,35.96332],[139.66599,35.96381],[139.6673,35.96403],[139.66739,35.96436],[139.66584,35.96489],[139.66305,35.96517],[139.66207,35.96514],[139.66078,35.96441],[139.65967,35.96444],[139.65837,35.96364],[139.65788,35.96394],[139.65654,35.9639],[139.65547,35.96343],[139.65436,35.96331],[139.65434,35.96226],[139.65352,35.96188],[139.65296,35.96215],[139.65308,35.96325],[139.65079,35.96328],[139.64963,35.96373],[139.64888,35.96222],[139.64982,35.96168],[139.64983,35.9607],[139.64912,35.95906],[139.64912,35.95826],[139.64793,35.95499],[139.64756,35.95442],[139.64686,35.95452],[139.64622,35.95413],[139.64561,35.95332],[139.6456,35.95223],[139.64529,35.95136],[139.64346,35.95092],[139.64144,35.95165],[139.64162,35.95331],[139.63935,35.9539],[139.63872,35.95376],[139.63769,35.95487],[139.63699,35.95518],[139.63636,35.9547],[139.63578,35.95471],[139.63423,35.95359],[139.63231,35.95375],[139.63095,35.95361],[139.62786,35.95308],[139.6257,35.95241],[139.62697,35.95019],[139.62765,35.94969],[139.6296,35.94884],[139.63056,35.94876],[139.63093,35.94821],[139.63391,35.94445],[139.63734,35.94068],[139.63801,35.94156],[139.64244,35.93925],[139.64255,35.93817],[139.64222,35.93751],[139.64216,35.93635],[139.64251,35.93558],[139.64271,35.93433],[139.64233,35.93268],[139.64236,35.93179],[139.64207,35.93102],[139.64196,35.9294],[139.64229,35.92832],[139.64215,35.9271],[139.64308,35.9263],[139.64299,35.92512],[139.64163,35.92425]]]]}},
  {"type":"Feature","properties":{"name":"中央区","code":"11105"},"geometry":{"type":"MultiPolygon","coordinates":[[[[139.60427,35.88861],[139.6051,35.88811],[139.60622,35.88834],[139.60742,35.88746],[139.60752,35.88704],[139.60868,35.88631],[139.60986,35.88492],[139.60939,35.88333],[139.60891,35.88323],[139.60914,35.88215],[139.60523,35.88188],[139.60457,35.88149],[139.60478,35.88014],[139.60432,35.87808],[139.60561,35.87838],[139.60632,35.87758],[139.60813,35.87736],[139.6092,35.87759],[139.61145,35.87754],[139.61255,35.87712],[139.61358,35.87732],[139.61575,35.87449],[139.61603,35.87324],[139.61711,35.87106],[139.61883,35.86914],[139.62122,35.86863],[139.62129,35.86929],[139.62051,35.8702],[139.62103,35.87069],[139.62105,35.87192],[139.6213,35.87253],[139.6235,35.87173],[139.62449,35.87166],[139.62506,35.87024],[139.62409,35.8698],[139.62436,35.86832],[139.62493,35.86848],[139.62589,35.86616],[139.62714,35.8665],[139.62748,35.86546],[139.6297,35.86613],[139.62982,35.8658],[139.63134,35.86529],[139.63189,35.86285],[139.63436,35.86349],[139.63629,35.86038],[139.63674,35.86051],[139.63725,35.85938],[139.63779,35.85955],[139.63859,35.85838],[139.63843,35.85728],[139.63912,35.85435],[139.6398,35.85487],[139.63985,35.85648],[139.63943,35.85671],[139.63986,35.85807],[139.6402,35.85811],[139.64051,35.85851],[139.64031,35.86265],[139.64057,35.86267],[139.64007,35.86552],[139.64176,35.86561],[139.6417,35.86598],[139.64268,35.86632],[139.64374,35.86708],[139.64569,35.86797],[139.64556,35.86893],[139.64492,35.86888],[139.64491,35.86812],[139.64404,35.86755],[139.64259,35.8677],[139.6425,35.86848],[139.64183,35.86872],[139.64177,35.86923],[139.63996,35.86929],[139.63956,35.86998],[139.63944,35.87093],[139.63808,35.87092],[139.63812,35.87455],[139.63727,35.88107],[139.63705,35.88154],[139.64103,35.88296],[139.64054,35.88376],[139.63853,35.88329],[139.63794,35.88438],[139.63634,35.88692],[139.63362,35.88676],[139.63253,35.88822],[139.63334,35.88896],[139.63322,35.88964],[139.635,35.88831],[139.6359,35.88707],[139.63682,35.88725],[139.63592,35.88919],[139.63427,35.89204],[139.63465,35.89291],[139.63357,35.89439],[139.63278,35.89436],[139.63118,35.89621],[139.62886,35.898],[139.62842,35.89789],[139.62891,35.89642],[139.62822,35.89633],[139.62653,35.89914],[139.62575,35.89986],[139.62561,35.90067],[139.62507,35.90161],[139.62277,35.90123],[139.62232,35.90225],[139.6217,35.90222],[139.61967,35.90123],[139.62076,35.89898],[139.6214,35.89717],[139.62129,35.89637],[139.62261,35.89312],[139.62205,35.89291],[139.62141,35.89392],[139.62007,35.8937],[139.61992,35.89425],[139.61783,35.89409],[139.61714,35.89419],[139.61299,35.89426],[139.61213,35.894],[139.61161,35.89523],[139.6107,35.89528],[139.60742,35.89601],[139.60698,35.89379],[139.60647,35.89245],[139.60625,35.88987],[139.60544,35.88961],[139.60427,35.88861]]]]}},
  {"type":"Feature","properties":{"name":"桜区","code":"11106"},"geometry":{"type":"MultiPolygon","coordinates":[[[[139.57647,35.87146],[139.57749,35.86911],[139.57803,35.86654],[139.57858,35.86448],[139.57913,35.86351],[139.57977,35.86298],[139.58142,35.86217],[139.58311,35.86151],[139.58514,35.8605],[139.58673,35.85943],[139.58808,35.85808],[139.58881,35.85708],[139.59024,35.85393],[139.59076,35.85314],[139.59167,35.85225],[139.59522,35.84998],[139.59732,35.84839],[139.5989,35.8464],[139.60013,35.84504],[139.60073,35.84469],[139.602,35.8444],[139.60454,35.84426],[139.60519,35.84409],[139.60628,35.84321],[139.60654,35.84261],[139.60643,35.84158],[139.60542,35.83967],[139.6054,35.83914],[139.60636,35.83655],[139.60693,35.83586],[139.6074,35.83476],[139.60829,35.83324],[139.6095,35.83199],[139.61017,35.83181],[139.61277,35.83475],[139.61422,35.83515],[139.61529,35.83525],[139.61657,35.83399],[139.62108,35.83624],[139.62391,35.83686],[139.62548,35.83772],[139.62649,35.83844],[139.62752,35.83864],[139.62925,35.83932],[139.6294,35.83885],[139.63069,35.839],[139.63195,35.83866],[139.63245,35.8395],[139.63171,35.84002],[139.63592,35.84101],[139.63532,35.84237],[139.63524,35.84322],[139.63581,35.84404],[139.63472,35.8457],[139.63377,35.84764],[139.63326,35.84946],[139.63317,35.85138],[139.63433,35.85261],[139.63648,35.85326],[139.63701,35.85426],[139.63766,35.85423],[139.63755,35.85555],[139.63629,35.86038],[139.63436,35.86349],[139.63189,35.86285],[139.63134,35.86529],[139.62982,35.8658],[139.6297,35.86613],[139.62748,35.86546],[139.62714,35.8665],[139.62589,35.86616],[139.62493,35.86848],[139.62436,35.86832],[139.62409,35.8698],[139.62506,35.87024],[139.62449,35.87166],[139.6235,35.87173],[139.6213,35.87253],[139.62105,35.87192],[139.62103,35.87069],[139.62051,35.8702],[139.62129,35.86929],[139.62122,35.86863],[139.61883,35.86914],[139.61711,35.87106],[139.61603,35.87324],[139.61575,35.87449],[139.61358,35.87732],[139.61255,35.87712],[139.61145,35.87754],[139.6092,35.87759],[139.60813,35.87736],[139.60632,35.87758],[139.60561,35.87838],[139.60432,35.87808],[139.60478,35.88014],[139.60457,35.88149],[139.60523,35.88188],[139.60914,35.88215],[139.60891,35.88323],[139.60939,35.88333],[139.60986,35.88492],[139.60868,35.88631],[139.60752,35.88704],[139.60742,35.88746],[139.60622,35.88834],[139.6051,35.88811],[139.60427,35.88861],[139.60416,35.88784],[139.60368,35.88755],[139.6027,35.88453],[139.60192,35.8794],[139.60193,35.87854],[139.6014,35.87852],[139.60086,35.87926],[139.60073,35.87997],[139.59923,35.88018],[139.5978,35.88061],[139.59301,35.88068],[139.59204,35.88048],[139.58342,35.88032],[139.58378,35.87956],[139.5831,35.87935],[139.58258,35.88043],[139.58222,35.88033],[139.58145,35.882],[139.57876,35.88117],[139.57665,35.88004],[139.57536,35.8817],[139.57273,35.88035],[139.57118,35.88186],[139.56888,35.88072],[139.57196,35.87784],[139.57358,35.87598],[139.57526,35.87376],[139.57647,35.87146]]]]}},
  {"type":"Feature","properties":{"name":"浦和区","code":"11107"},"geometry":{"type":"MultiPolygon","coordinates":[[[[139.63592,35.88919],[139.63682,35.88725],[139.6359,35.88707],[139.635,35.88831],[139.63322,35.88964],[139.63334,35.88896],[139.63253,35.88822],[139.63362,35.88676],[139.63634,35.88692],[139.63794,35.88438],[139.63853,35.88329],[139.64054,35.88376],[139.64103,35.88296],[139.63705,35.88154],[139.63727,35.88107],[139.63812,35.87455],[139.63808,35.87092],[139.63944,35.87093],[139.63956,35.86998],[139.63996,35.86929],[139.64177,35.86923],[139.64183,35.86872],[139.6425,35.86848],[139.64259,35.8677],[139.64404,35.86755],[139.64491,35.86812],[139.64492,35.86888],[139.64556,35.86893],[139.64569,35.86797],[139.64374,35.86708],[139.64268,35.86632],[139.6417,35.86598],[139.64176,35.86561],[139.64007,35.86552],[139.64057,35.86267],[139.64031,35.86265],[139.64051,35.85851],[139.6402,35.85811],[139.64344,35.85838],[139.64355,35.85741],[139.64444,35.85746],[139.64453,35.85653],[139.64541,35.85661],[139.64528,35.85491],[139.64637,35.85532],[139.64756,35.85605],[139.64815,35.85536],[139.648,35.85458],[139.64984,35.8544],[139.64998,35.85409],[139.64935,35.85027],[139.65535,35.85022],[139.65674,35.84897],[139.6579,35.84643],[139.65899,35.84704],[139.66287,35.84688],[139.66298,35.84866],[139.66456,35.84879],[139.66446,35.84976],[139.66402,35.85036],[139.66506,35.85044],[139.66589,35.85111],[139.66697,35.85256],[139.66687,35.85348],[139.66741,35.8539],[139.66697,35.85462],[139.66636,35.85723],[139.66491,35.85811],[139.66763,35.85981],[139.66634,35.86132],[139.66549,35.8625],[139.6643,35.86747],[139.66444,35.86918],[139.66546,35.87041],[139.66624,35.87055],[139.66756,35.87191],[139.66785,35.8727],[139.66708,35.87368],[139.66762,35.87467],[139.66763,35.87536],[139.66708,35.877],[139.66705,35.87796],[139.66673,35.87886],[139.66817,35.879],[139.66757,35.87997],[139.6672,35.88118],[139.6687,35.88169],[139.66877,35.88241],[139.6684,35.88343],[139.66751,35.88428],[139.66656,35.88664],[139.66605,35.88578],[139.66464,35.88717],[139.66405,35.88883],[139.66368,35.88941],[139.66277,35.8897],[139.66254,35.8904],[139.663,35.89065],[139.66333,35.8916],[139.66433,35.89327],[139.66525,35.89388],[139.66526,35.89469],[139.66348,35.89392],[139.66194,35.89369],[139.6609,35.89383],[139.65522,35.89401],[139.65211,35.89416],[139.65071,35.89641],[139.65006,35.89725],[139.65048,35.89743],[139.64979,35.89863],[139.64917,35.8985],[139.64849,35.89978],[139.6488,35.89989],[139.64831,35.90148],[139.64548,35.90168],[139.64515,35.90089],[139.64429,35.90074],[139.6441,35.89951],[139.64281,35.89867],[139.64289,35.89814],[139.6452,35.89884],[139.64616,35.89713],[139.64511,35.89671],[139.64607,35.89555],[139.64666,35.89285],[139.64657,35.89129],[139.64713,35.89131],[139.64726,35.88983],[139.64548,35.89003],[139.64496,35.88985],[139.64506,35.88886],[139.64447,35.88871],[139.64408,35.88992],[139.64252,35.89136],[139.64408,35.89186],[139.64415,35.89304],[139.64336,35.89249],[139.64195,35.89209],[139.64242,35.89095],[139.64182,35.89026],[139.64049,35.89011],[139.64019,35.88986],[139.63743,35.88872],[139.6369,35.88955],[139.63592,35.88919]]]]}},
  {"type":"Feature","properties":{"name":"南区","code":"11108"},"geometry":{"type":"MultiPolygon","coordinates":[[[[139.63629,35.86038],[139.63755,35.85555],[139.63766,35.85423],[139.63701,35.85426],[139.63648,35.85326],[139.63433,35.85261],[139.63317,35.85138],[139.63326,35.84946],[139.63377,35.84764],[139.63472,35.8457],[139.63581,35.84404],[139.63524,35.84322],[139.63532,35.84237],[139.63592,35.84101],[139.63171,35.84002],[139.63245,35.8395],[139.63195,35.83866],[139.63069,35.839],[139.6294,35.83885],[139.62925,35.83932],[139.62752,35.83864],[139.62649,35.83844],[139.62548,35.83772],[139.62391,35.83686],[139.62108,35.83624],[139.61657,35.83399],[139.61706,35.83207],[139.61708,35.83019],[139.6187,35.82909],[139.62016,35.83053],[139.62178,35.83236],[139.62435,35.83465],[139.62562,35.83392],[139.62802,35.83144],[139.6301,35.82997],[139.63083,35.82931],[139.63249,35.82946],[139.63321,35.82927],[139.63363,35.83063],[139.63456,35.83059],[139.63785,35.83146],[139.63972,35.83187],[139.6413,35.83194],[139.64117,35.83061],[139.64247,35.83081],[139.643,35.83009],[139.64546,35.82956],[139.64632,35.82977],[139.64551,35.831],[139.64512,35.83192],[139.64679,35.8321],[139.65,35.83281],[139.64972,35.83356],[139.65226,35.83402],[139.65203,35.83532],[139.65375,35.83525],[139.65465,35.83403],[139.65714,35.83106],[139.65813,35.82963],[139.65949,35.8303],[139.66022,35.82931],[139.66021,35.82862],[139.66269,35.82866],[139.66329,35.82901],[139.66802,35.83284],[139.66833,35.83377],[139.66808,35.83519],[139.66877,35.83566],[139.67138,35.8349],[139.6771,35.83269],[139.67617,35.83655],[139.67562,35.83912],[139.67701,35.8394],[139.67849,35.84],[139.67892,35.84042],[139.67738,35.84197],[139.67664,35.84129],[139.67537,35.84251],[139.67751,35.84387],[139.67716,35.84478],[139.67723,35.84536],[139.67611,35.84565],[139.67663,35.84667],[139.67642,35.84765],[139.67767,35.8471],[139.67808,35.84746],[139.6757,35.84897],[139.67626,35.84947],[139.67523,35.8505],[139.67531,35.85104],[139.67591,35.85145],[139.67671,35.85122],[139.6772,35.85154],[139.67796,35.85096],[139.67902,35.85048],[139.68002,35.85035],[139.68096,35.84976],[139.68242,35.84949],[139.68338,35.84908],[139.6839,35.84938],[139.68694,35.848],[139.68791,35.84808],[139.68805,35.84748],[139.68984,35.8475],[139.69072,35.84768],[139.69139,35.84838],[139.69571,35.84858],[139.69569,35.85094],[139.69653,35.85156],[139.69544,35.85208],[139.69659,35.85303],[139.6967,35.85342],[139.69773,35.85402],[139.69666,35.85467],[139.695,35.85364],[139.6939,35.85401],[139.69485,35.85448],[139.69735,35.85633],[139.69757,35.85719],[139.69806,35.8574],[139.69709,35.85893],[139.69594,35.85965],[139.69498,35.86053],[139.69533,35.86123],[139.69476,35.86157],[139.69462,35.8634],[139.69394,35.86406],[139.69336,35.86359],[139.69209,35.86426],[139.69094,35.86406],[139.68952,35.86321],[139.68903,35.86372],[139.6877,35.86404],[139.68841,35.86631],[139.68774,35.86649],[139.68769,35.86528],[139.68708,35.86458],[139.68457,35.86407],[139.68436,35.8647],[139.68331,35.86485],[139.68212,35.86612],[139.6813,35.86635],[139.6785,35.86678],[139.67655,35.86662],[139.67478,35.86589],[139.67424,35.8646],[139.67565,35.86301],[139.67666,35.86159],[139.67496,35.86001],[139.67379,35.86053],[139.67172,35.86256],[139.67078,35.86362],[139.66634,35.86132],[139.66763,35.85981],[139.66491,35.85811],[139.66636,35.85723],[139.66697,35.85462],[139.66741,35.8539],[139.66687,35.85348],[139.66697,35.85256],[139.66589,35.85111],[139.66506,35.85044],[139.66402,35.85036],[139.66446,35.84976],[139.66456,35.84879],[139.66298,35.84866],[139.66287,35.84688],[139.65899,35.84704],[139.6579,35.84643],[139.65674,35.84897],[139.65535,35.85022],[139.64935,35.85027],[139.64998,35.85409],[139.64984,35.8544],[139.648,35.85458],[139.64815,35.85536],[139.64756,35.85605],[139.64637,35.85532],[139.64528,35.85491],[139.64541,35.85661],[139.64453,35.85653],[139.64444,35.85746],[139.64355,35.85741],[139.64344,35.85838],[139.6402,35.85811],[139.63986,35.85807],[139.63943,35.85671],[139.63985,35.85648],[139.6398,35.85487],[139.63912,35.85435],[139.63843,35.85728],[139.63859,35.85838],[139.63779,35.85955],[139.63725,35.85938],[139.63674,35.86051],[139.63629,35.86038]]]]}},
  {"type":"Feature","properties":{"name":"緑区","code":"11109"},"geometry":{"type":"MultiPolygon","coordinates":[[[[139.6609,35.89383],[139.66194,35.89369],[139.66348,35.89392],[139.66526,35.89469],[139.66525,35.89388],[139.66433,35.89327],[139.66333,35.8916],[139.663,35.89065],[139.66254,35.8904],[139.66277,35.8897],[139.66368,35.88941],[139.66405,35.88883],[139.66464,35.88717],[139.66605,35.88578],[139.66656,35.88664],[139.66751,35.88428],[139.6684,35.88343],[139.66877,35.88241],[139.6687,35.88169],[139.6672,35.88118],[139.66757,35.87997],[139.66817,35.879],[139.66673,35.87886],[139.66705,35.87796],[139.66708,35.877],[139.66763,35.87536],[139.66762,35.87467],[139.66708,35.87368],[139.66785,35.8727],[139.66756,35.87191],[139.66624,35.87055],[139.66546,35.87041],[139.66444,35.86918],[139.6643,35.86747],[139.66549,35.8625],[139.66634,35.86132],[139.67078,35.86362],[139.67172,35.86256],[139.67379,35.86053],[139.67496,35.86001],[139.67666,35.86159],[139.67565,35.86301],[139.67424,35.8646],[139.67478,35.86589],[139.67655,35.86662],[139.6785,35.86678],[139.6813,35.86635],[139.68212,35.86612],[139.68331,35.86485],[139.68436,35.8647],[139.68457,35.86407],[139.68708,35.86458],[139.68769,35.86528],[139.68774,35.86649],[139.68841,35.86631],[139.6877,35.86404],[139.68903,35.86372],[139.68952,35.86321],[139.69094,35.86406],[139.69209,35.86426],[139.69336,35.86359],[139.69394,35.86406],[139.69462,35.8634],[139.69476,35.86157],[139.69533,35.86123],[139.69498,35.86053],[139.69594,35.85965],[139.69709,35.85893],[139.69806,35.8574],[139.69943,35.85829],[139.69977,35.85894],[139.69912,35.86015],[139.70044,35.86066],[139.70039,35.86114],[139.70257,35.86194],[139.70334,35.8618],[139.70411,35.86232],[139.70478,35.86177],[139.70423,35.86127],[139.70489,35.86088],[139.70671,35.85884],[139.7082,35.85971],[139.70851,35.85955],[139.709,35.8572],[139.70978,35.85719],[139.71003,35.85803],[139.71143,35.85787],[139.71334,35.85879],[139.71374,35.86031],[139.71162,35.86038],[139.71154,35.8617],[139.71474,35.86204],[139.71786,35.86229],[139.71855,35.8629],[139.71827,35.86382],[139.71729,35.86556],[139.71723,35.86669],[139.71748,35.86756],[139.7197,35.86859],[139.7202,35.86936],[139.72021,35.87032],[139.71971,35.87091],[139.71504,35.87525],[139.71354,35.87671],[139.71901,35.87906],[139.7201,35.87835],[139.72246,35.8763],[139.72395,35.87696],[139.72478,35.87695],[139.72515,35.87629],[139.7279,35.87826],[139.72863,35.87733],[139.72908,35.87616],[139.73061,35.87564],[139.7326,35.87662],[139.73321,35.87726],[139.73364,35.87689],[139.73321,35.87539],[139.73362,35.87483],[139.73358,35.87414],[139.73425,35.87266],[139.73431,35.87194],[139.73544,35.87153],[139.73734,35.8705],[139.7378,35.87059],[139.73861,35.86992],[139.73932,35.87011],[139.73987,35.87091],[139.74138,35.87183],[139.73916,35.87164],[139.73899,35.87248],[139.73954,35.87283],[139.73957,35.87392],[139.73897,35.87448],[139.73857,35.87574],[139.73962,35.87531],[139.74081,35.87565],[139.74081,35.8763],[139.74003,35.87746],[139.73938,35.87804],[139.73963,35.879],[139.73749,35.88118],[139.7393,35.88233],[139.73997,35.88194],[139.74168,35.88312],[139.74286,35.88166],[139.74451,35.88276],[139.74094,35.88666],[139.74138,35.88707],[139.74336,35.88594],[139.74269,35.88727],[139.74139,35.88817],[139.7408,35.88794],[139.74026,35.88835],[139.73907,35.88858],[139.73722,35.89038],[139.73699,35.8921],[139.73634,35.89291],[139.73597,35.89391],[139.73516,35.89466],[139.73326,35.8953],[139.73254,35.89592],[139.73169,35.89815],[139.73102,35.89896],[139.72741,35.9017],[139.72574,35.90235],[139.72373,35.90356],[139.7225,35.90516],[139.72134,35.90576],[139.72092,35.90635],[139.72126,35.90716],[139.72075,35.90784],[139.71883,35.90729],[139.71841,35.90759],[139.71767,35.90888],[139.71619,35.90824],[139.71534,35.90851],[139.71466,35.90923],[139.71266,35.90948],[139.71059,35.90949],[139.71009,35.90976],[139.71174,35.91137],[139.71155,35.91163],[139.70962,35.91115],[139.70863,35.91173],[139.70654,35.91161],[139.70597,35.91236],[139.70464,35.9136],[139.70376,35.9142],[139.70343,35.91503],[139.70177,35.91617],[139.70042,35.91571],[139.69911,35.91595],[139.69823,35.9154],[139.69681,35.91682],[139.69538,35.91846],[139.6925,35.91693],[139.69553,35.91403],[139.69316,35.91235],[139.69267,35.91178],[139.69321,35.91079],[139.69355,35.9093],[139.69357,35.90842],[139.69449,35.90772],[139.69363,35.90693],[139.69397,35.90637],[139.69758,35.90296],[139.69849,35.90221],[139.69916,35.9011],[139.69999,35.90021],[139.70087,35.89889],[139.70114,35.89729],[139.70063,35.89432],[139.70065,35.89291],[139.7003,35.89256],[139.69412,35.89388],[139.69427,35.89498],[139.68897,35.89561],[139.68876,35.89544],[139.68623,35.89472],[139.68621,35.89332],[139.68329,35.89331],[139.6785,35.89387],[139.67775,35.89416],[139.67862,35.89636],[139.66966,35.89689],[139.66976,35.89828],[139.66856,35.89808],[139.66816,35.89917],[139.66657,35.90036],[139.66546,35.89924],[139.66649,35.89916],[139.66589,35.89835],[139.66375,35.89822],[139.66212,35.89757],[139.66074,35.89733],[139.6609,35.89383]]]]}},
  {"type":"Feature","properties":{"name":"岩槻区","code":"11110"},"geometry":{"type":"MultiPolygon","coordinates":[[[[139.70042,35.91571],[139.70177,35.91617],[139.70343,35.91503],[139.70376,35.9142],[139.70464,35.9136],[139.70597,35.91236],[139.70654,35.91161],[139.70863,35.91173],[139.70962,35.91115],[139.71155,35.91163],[139.71174,35.91137],[139.71009,35.90976],[139.71059,35.90949],[139.71266,35.90948],[139.71466,35.90923],[139.71534,35.90851],[139.71619,35.90824],[139.71767,35.90888],[139.71841,35.90759],[139.71883,35.90729],[139.72075,35.90784],[139.72126,35.90716],[139.72092,35.90635],[139.72134,35.90576],[139.7225,35.90516],[139.72373,35.90356],[139.72574,35.90235],[139.72741,35.9017],[139.73102,35.89896],[139.73169,35.89815],[139.73254,35.89592],[139.73326,35.8953],[139.73516,35.89466],[139.73597,35.89391],[139.73634,35.89291],[139.73699,35.8921],[139.73722,35.89038],[139.73907,35.88858],[139.74026,35.88835],[139.7408,35.88794],[139.74139,35.88817],[139.74269,35.88727],[139.74336,35.88594],[139.74444,35.88559],[139.74697,35.8839],[139.74764,35.8824],[139.74812,35.88179],[139.75229,35.88029],[139.75103,35.88135],[139.74993,35.88287],[139.74972,35.88363],[139.74738,35.88757],[139.74832,35.89052],[139.74838,35.8911],[139.74677,35.89208],[139.74524,35.89372],[139.74577,35.89422],[139.7474,35.89422],[139.74957,35.89545],[139.75072,35.89544],[139.75167,35.89506],[139.75322,35.89527],[139.75348,35.89578],[139.75255,35.89718],[139.75367,35.89771],[139.7539,35.89808],[139.752,35.89943],[139.75256,35.90145],[139.75482,35.90182],[139.75417,35.90445],[139.75539,35.90467],[139.75471,35.90741],[139.75519,35.9075],[139.75451,35.91048],[139.75281,35.91022],[139.75239,35.9116],[139.74943,35.91111],[139.74858,35.9146],[139.74512,35.91749],[139.74742,35.9211],[139.74859,35.92218],[139.74687,35.9225],[139.7461,35.92488],[139.74647,35.92546],[139.74537,35.92574],[139.7455,35.92696],[139.74647,35.92718],[139.74824,35.92706],[139.74935,35.92772],[139.7497,35.92836],[139.75116,35.92949],[139.75267,35.9311],[139.75242,35.93174],[139.75314,35.93256],[139.75428,35.93546],[139.75496,35.93576],[139.75631,35.93594],[139.75657,35.93692],[139.75735,35.9379],[139.75678,35.93837],[139.75538,35.93762],[139.75484,35.93821],[139.75422,35.93792],[139.75361,35.93884],[139.75195,35.94053],[139.75113,35.94042],[139.75067,35.94085],[139.74974,35.94092],[139.74928,35.94144],[139.74992,35.9418],[139.75074,35.9411],[139.7515,35.94159],[139.75128,35.94241],[139.75011,35.94259],[139.74966,35.94332],[139.74845,35.9467],[139.74745,35.94837],[139.74576,35.95226],[139.74213,35.95185],[139.74165,35.95149],[139.73926,35.9517],[139.73894,35.95261],[139.73827,35.95307],[139.73688,35.95263],[139.73653,35.95343],[139.73585,35.95343],[139.73473,35.95395],[139.73508,35.95454],[139.73448,35.95478],[139.73481,35.95545],[139.7355,35.95575],[139.7355,35.95637],[139.735,35.95736],[139.73393,35.95752],[139.73322,35.95723],[139.73243,35.95606],[139.73281,35.95588],[139.7322,35.95495],[139.73058,35.95484],[139.72967,35.95521],[139.72894,35.954],[139.72837,35.95368],[139.72687,35.95431],[139.72623,35.95341],[139.72483,35.95417],[139.72441,35.95359],[139.72356,35.95342],[139.72276,35.95251],[139.722,35.95221],[139.7211,35.95261],[139.72039,35.95226],[139.71937,35.95221],[139.7191,35.9537],[139.71949,35.95469],[139.71957,35.95612],[139.72063,35.95719],[139.72057,35.95838],[139.72094,35.9587],[139.72234,35.95891],[139.72502,35.9605],[139.7227,35.96017],[139.72126,35.9595],[139.72029,35.95964],[139.71767,35.96069],[139.71733,35.9615],[139.71725,35.96326],[139.71674,35.96295],[139.71446,35.96456],[139.71333,35.96424],[139.71235,35.96523],[139.7126,35.96553],[139.71145,35.96621],[139.71174,35.96669],[139.71338,35.96558],[139.71466,35.96655],[139.7147,35.96773],[139.71397,35.96821],[139.71339,35.96782],[139.71329,35.96711],[139.71248,35.9672],[139.71301,35.96833],[139.71302,35.96911],[139.71089,35.97069],[139.71152,35.97071],[139.71299,35.9695],[139.71384,35.96913],[139.71397,35.96872],[139.71515,35.96827],[139.7168,35.96858],[139.71731,35.96811],[139.71936,35.9686],[139.72035,35.96857],[139.72151,35.96896],[139.72294,35.97142],[139.72465,35.97272],[139.72469,35.97312],[139.72415,35.97482],[139.72419,35.97623],[139.72491,35.97764],[139.72548,35.97936],[139.72656,35.98175],[139.72585,35.9822],[139.72567,35.98376],[139.7252,35.98465],[139.72589,35.9851],[139.72449,35.98573],[139.72272,35.98694],[139.72176,35.98792],[139.71871,35.9897],[139.71909,35.99037],[139.71789,35.99122],[139.71637,35.99197],[139.71592,35.99132],[139.71284,35.99249],[139.71038,35.99397],[139.7107,35.99447],[139.70996,35.99505],[139.70933,35.99457],[139.70815,35.9946],[139.70786,35.99531],[139.70242,35.99804],[139.69952,35.99801],[139.69849,35.99883],[139.69679,36.00101],[139.69683,36.00135],[139.69563,36.00269],[139.69474,36.002],[139.69401,36.00248],[139.69254,36.00164],[139.69193,36.00241],[139.69078,36.00186],[139.69138,36.00093],[139.69198,36.00117],[139.69294,35.99952],[139.69197,35.99903],[139.69308,35.99727],[139.69263,35.9971],[139.69439,35.99443],[139.69469,35.99316],[139.69527,35.99251],[139.6956,35.99108],[139.6946,35.9896],[139.69477,35.98893],[139.69404,35.98783],[139.69321,35.9881],[139.6924,35.98649],[139.69084,35.98428],[139.68995,35.98379],[139.68961,35.98266],[139.68888,35.98217],[139.68748,35.9799],[139.68719,35.97884],[139.68739,35.97731],[139.68876,35.9769],[139.69049,35.97666],[139.69313,35.97585],[139.69428,35.97508],[139.69362,35.97435],[139.6872,35.97555],[139.68434,35.97561],[139.68137,35.97522],[139.67675,35.97425],[139.6756,35.97447],[139.67371,35.97606],[139.67313,35.97579],[139.67206,35.97424],[139.6717,35.9742],[139.66873,35.9747],[139.6677,35.97557],[139.66695,35.97502],[139.66608,35.9756],[139.66517,35.97415],[139.66528,35.97369],[139.6647,35.97291],[139.66359,35.97282],[139.66324,35.97326],[139.66233,35.97284],[139.66161,35.97352],[139.66072,35.97327],[139.65842,35.97159],[139.65729,35.97122],[139.65747,35.97083],[139.65628,35.96924],[139.65471,35.96971],[139.6541,35.9694],[139.65408,35.96868],[139.65354,35.96806],[139.65397,35.96732],[139.65442,35.96505],[139.65597,35.96547],[139.65673,35.96589],[139.65768,35.96576],[139.65788,35.96394],[139.65837,35.96364],[139.65967,35.96444],[139.66078,35.96441],[139.66207,35.96514],[139.66305,35.96517],[139.66584,35.96489],[139.66739,35.96436],[139.6673,35.96403],[139.66599,35.96381],[139.66591,35.96332],[139.66778,35.96331],[139.66849,35.96355],[139.66891,35.96278],[139.66953,35.96358],[139.67026,35.96328],[139.67091,35.96253],[139.66952,35.96231],[139.6695,35.96152],[139.66991,35.96107],[139.67156,35.96183],[139.67319,35.96069],[139.67281,35.96019],[139.67591,35.95705],[139.67612,35.9556],[139.67668,35.95487],[139.6766,35.95417],[139.67753,35.95397],[139.67794,35.95358],[139.6767,35.95272],[139.67697,35.95219],[139.67761,35.95216],[139.68018,35.95067],[139.6814,35.95046],[139.68209,35.9495],[139.68208,35.94815],[139.6813,35.94704],[139.68216,35.94505],[139.68132,35.94415],[139.6813,35.94369],[139.68245,35.94277],[139.68192,35.94218],[139.6824,35.94141],[139.68246,35.94044],[139.68194,35.93989],[139.68235,35.93888],[139.68338,35.93793],[139.68346,35.93656],[139.6828,35.93507],[139.6846,35.93304],[139.68608,35.9327],[139.68693,35.9321],[139.68796,35.93194],[139.6892,35.93064],[139.6908,35.93038],[139.69166,35.92941],[139.69268,35.9278],[139.69294,35.92646],[139.69403,35.92623],[139.6954,35.9252],[139.69558,35.92348],[139.6962,35.9233],[139.69652,35.92254],[139.69731,35.92214],[139.69729,35.92092],[139.69681,35.91961],[139.69739,35.91891],[139.69781,35.91789],[139.69834,35.91742],[139.69853,35.91666],[139.70042,35.91571]]]]}}
]}
